landlot_address,road_name_address,x,y
경기도 수원시 권선구 구운동 496-6,경기도 수원시 권선구 구운로 36 (구운동),197664.3147,419495.8917
경기도 수원시 팔달구 우만동 518 유경프라자,"경기도 수원시 팔달구 월드컵로 319-1, 유경프라자 1층 (우만동)",202915.64,420526.4098
경기도 수원시 팔달구 매산로3가 32-1 KCC파크타운,"경기도 수원시 팔달구 매산로 75, KCC파크타운 101동 103호 (매산로3가)",200755.0841,418680.1372
경기도 수원시 장안구 이목동 338-6,"경기도 수원시 장안구 이목로 17, 우성테크노파크 139,140호 (이목동)",198459.6595,423178.3121
경기도 수원시 장안구 정자동 937 동남보건전문대학,"경기도 수원시 장안구 천천로74번길 50, 동남보건전문대학 학리관동 1층 (정자동)",198779.2826,421803.0628
경기도 수원시 장안구 정자동 937 동남보건전문대학 사담기념관동,"경기도 수원시 장안구 천천로74번길 50, 동남보건전문대학 사담기념관동 1층 (정자동)",198779.2826,421803.0628
경기도 수원시 장안구 영화동 421-1,"경기도 수원시 장안구 장안로42번길 10, 1층 (영화동)",200422.7533,420747.2901
경기도 수원시 영통구 망포동 686 동수원자이1차,"경기도 수원시 영통구 태장로82번길 32, 제상가동동 1층 103호 (망포동, 동수원자이1차)",204686.0224,414976.7322
경기도 수원시 영통구 매탄동 810-1 현대아파트,"경기도 수원시 영통구 동수원로 448, 상가동 102,103호 (매탄동, 현대아파트)",203747.762,418476.628
경기도 수원시 팔달구 매산로1가 115-1,"경기도 수원시 팔달구 덕영대로895번길 41, 1층 (매산로1가)",200015.6284,418688.9006
경기도 수원시 팔달구 고등동 3-18,"경기도 수원시 팔달구 고화로 84, 1층 (고등동)",200513.0939,419421.2278
경기도 수원시 권선구 서둔동 17-65 정안빌딩,"경기도 수원시 권선구 세화로168번길 12, 정안빌딩 1층 103,104호 (서둔동)",199407.1294,418309.5167
경기도 수원시 권선구 탑동 311-12,"경기도 수원시 권선구 서둔로 213, 1층 (탑동)",198079.1133,418729.7312
경기도 수원시 영통구 이의동 1333 힐스테이트광교중앙역퍼스트,"경기도 수원시 영통구 도청로66번길 6, 상가동 136호 (이의동, 힐스테이트광교중앙역퍼스트)",,
경기도 수원시 팔달구 인계동 991-12,"경기도 수원시 팔달구 장다리로 193, 1층 (인계동)",202124.8587,418352.2183
경기도 수원시 팔달구 고등동 45-14,경기도 수원시 팔달구 고화로 57 (고등동),200466.4306,419175.1621
경기도 수원시 팔달구 장안동 30-6,"경기도 수원시 팔달구 신풍로 68, 1층 일부호 (장안동)",201160.4448,420562.2882
경기도 수원시 팔달구 매산로1가 22,"경기도 수원시 팔달구 향교로1번길 22-20, 1층 (매산로1가)",200044.4356,418580.5821
경기도 수원시 권선구 고색동 373-20 대우프라자,"경기도 수원시 권선구 고색로14번길 39, 105, 106호 (고색동)",198109.7991,416139.5818
경기도 수원시 장안구 파장동 632 북수원아이파크,"경기도 수원시 장안구 경수대로 1110-15, 제상가동 제지층 101호 (파장동, 북수원아이파크)",199155.224,423266.3464
경기도 수원시 영통구 이의동 1276-7,"경기도 수원시 영통구 대학1로 8, 1층 (이의동)",203690.9654,421713.1224
경기도 수원시 팔달구 인계동 1036-6 인계 오피앙 오피스텔 102호,"경기도 수원시 팔달구 인계로 132, 인계 오피앙 오피스텔 102호 (인계동)",202763.9217,418334.412
경기도 수원시 권선구 호매실동 1361 한양수자인파크원,"경기도 수원시 권선구 칠보로 102, 상가2동 109호 (호매실동, 한양수자인파크원)",195600.4252,418073.3107
경기도 수원시 장안구 조원동 782-30,경기도 수원시 장안구 정조로978번길 45 (조원동),201029.4914,421505.1316
경기도 수원시 팔달구 화서동 656 한진현대아파트,"경기도 수원시 팔달구 덕영대로735번길 18, 상가동동 1층 106호 (화서동, 한진현대아파트)",199356.3528,419926.5182
경기도 수원시 팔달구 화서동 250-4 화서역 블루밍푸른숲아파트,"경기도 수원시 팔달구 화양로50번길 30, 상가3동 1층 103호 (화서동, 화서역 블루밍푸른숲아파트)",199931.0539,420059.7259
경기도 수원시 권선구 오목천동 558-7,"경기도 수원시 권선구 오목천로 54, 1층 101, 102호 (오목천동)",197128.3271,415297.4799
경기도 수원시 권선구 고색동 1143,"경기도 수원시 권선구 산업로156번길 88-34, 1층 101호 (고색동)",198537.25,414836.9336
경기도 수원시 장안구 정자동 874-1 선일프라자,"경기도 수원시 장안구 대평로90번길 46, 선일프라자 110호 (정자동)",199518.8154,421665.0092
경기도 수원시 권선구 금곡동 1113-3,"경기도 수원시 권선구 금곡로197번길 18-24, 1층 101호 (금곡동)",195760.4633,419192.7127
경기도 수원시 영통구 하동 972,"경기도 수원시 영통구 법조로149번길 127, 102,103호 (하동)",206091.2641,421205.0274
경기도 수원시 권선구 세류동 162-14,경기도 수원시 권선구 정조로 578 (세류동),201112.171,417612.3867
경기도 수원시 권선구 세류동 670-8 더조은주택 104동 101호,"경기도 수원시 권선구 새터로 25, 104동 101호 (세류동, 더조은주택)",200519.5675,416856.8569
경기도 수원시 장안구 율전동 433-86,"경기도 수원시 장안구 서부로2105번길 5, 1층 (율전동)",197268.6174,421629.7447
경기도 수원시 팔달구 매산로2가 90 대한대우아파트,"경기도 수원시 팔달구 권선로 477, 106,107호 (매산로2가, 대한대우아파트)",200328.3856,418194.5961
경기도 수원시 팔달구 화서동 244-21,경기도 수원시 팔달구 동말로25번길 100 (화서동),199473.5802,419997.305
경기도 수원시 권선구 권선동 1172-3,"경기도 수원시 권선구 동수원로 289-1, 1층 (권선동)",203118.4885,417062.8888
경기도 수원시 영통구 매탄동 1194-4,"경기도 수원시 영통구 매봉로 51, 1층 (매탄동)",204642.1435,418959.1284
경기도 수원시 영통구 망포동 810 영통 롯데캐슬 엘클래스 2단지,"경기도 수원시 영통구 망포로48번길 7, 근린생활시설동 1층 8호 (망포동, 영통 롯데캐슬 엘클래스 2단지)",,
경기도 수원시 영통구 영통동 1048-6 청명마을주공아파트,"경기도 수원시 영통구 청명북로 67, 청명마을주공아파트 나상가동 1층 101호 (영통동)",207004.5938,417269.6299
경기도 수원시 팔달구 우만동 488-2,"경기도 수원시 팔달구 경수대로680번길 31, 1층 (우만동)",202500.2805,420536.2318
경기도 수원시 영통구 영통동 996-4 보보스프라자,"경기도 수원시 영통구 봉영로 1612, 보보스프라자 1층 108호 (영통동)",206586.4937,416951.8581
경기도 수원시 권선구 곡반정동 597-11,"경기도 수원시 권선구 곡반정로33번길 2, 1층 (곡반정동)",202221.1199,414571.7997
경기도 수원시 권선구 곡반정동 593-9,"경기도 수원시 권선구 곡반정로65번길 15, 1층 (곡반정동)",202390.8109,414742.9312
경기도 수원시 영통구 영통동 3-2,"경기도 수원시 영통구 삼성로320번길 90, 1층 101호 (영통동)",206372.9385,418229.7215
경기도 수원시 영통구 이의동 1304 래미안 광교,"경기도 수원시 영통구 센트럴파크로 60, 상가동 1층 107,108호 (이의동, 래미안 광교)",205368.2376,421031.7557
경기도 수원시 팔달구 인계동 956 다온 NOBLE,"경기도 수원시 팔달구 장다리로283번길 9, 1층 101호 (인계동, 다온 NOBLE)",202424.7389,419212.1784
경기도 수원시 팔달구 화서동 725-3 리더스빌딩,"경기도 수원시 팔달구 일월로22번길 10, 리더스빌딩 102호 (화서동)",198218.9179,420384.3377
경기도 수원시 장안구 정자동 111 화서역 푸르지오 브리시엘 145호,"경기도 수원시 장안구 수성로157번길 60, 145호 (정자동, 화서역 푸르지오 브리시엘)",199081.1973,420730.8152
경기도 수원시 권선구 권선동 1020,경기도 수원시 권선구 경수대로384번길 42 (권선동),202276.7123,417543.7752
경기도 수원시 권선구 권선동 1038,경기도 수원시 권선구 권선로720번길 13 (권선동),202570.1592,417295.2133
경기도 수원시 장안구 율전동 554 유영타운,"경기도 수원시 장안구 상률로46번길 3, 유영타운 1층 105호 (율전동)",197364.3227,422634.881
경기도 수원시 팔달구 고등동 71-1,경기도 수원시 팔달구 고화로31번길 3 (고등동),200531.8292,418897.2729
경기도 수원시 팔달구 인계동 1135-8 삼부르네상스오피스텔,"경기도 수원시 팔달구 권선로 731, 삼부르네상스오피스텔 2동 107호 (인계동)",202688.3977,417376.6254
경기도 수원시 장안구 정자동 840-99 신호아파트,"경기도 수원시 장안구 정자로 120, 신호상가 1층 102,103호 (정자동)",199012.6848,422265.0218
경기도 수원시 권선구 권선동 992,"경기도 수원시 권선구 장다리로 88, 1층 (권선동)",201817.976,417332.4194
경기도 수원시 팔달구 매교동 28-15,"경기도 수원시 팔달구 정조로715번길 28, 1층 (매교동)",201332.5057,418762.0955
경기도 수원시 영통구 망포동 41-1 망포역 포레 스퀘어,"경기도 수원시 영통구 덕영대로 1478, 망포역 포레 스퀘어 114호 (망포동)",204581.3474,415915.4375
경기도 수원시 권선구 금곡동 520 금곡엘지아파트 101호,"경기도 수원시 권선구 금곡로73번길 71, 1동 101호 (금곡동, 금곡엘지아파트)",194049.5417,419256.2787
경기도 수원시 팔달구 인계동 1125-1,"경기도 수원시 팔달구 효원로 278, 1층 135호,136호일부,137호,138호일부호 (인계동)",202789.2867,417668.605
경기도 수원시 권선구 당수동 333 101호,"경기도 수원시 권선구 당수로129번길 28, 상가 101호 (당수동)",194674.3913,420638.8678
경기도 수원시 영통구 영통동 998-5 센타프라자,"경기도 수원시 영통구 반달로7번길 6, 센타프라자 1층 108호 (영통동)",206499.2938,416711.9816
경기도 수원시 권선구 금곡동 1135-5,"경기도 수원시 권선구 서수원로523번길 30-17, 1층 (금곡동)",196168.4992,418811.823
경기도 수원시 권선구 세류동 219-21,"경기도 수원시 권선구 덕영대로997번길 35, 1층 (세류동)",200480.4699,417482.6463
경기도 수원시 장안구 정자동 922 화서역 위너스 파크,"경기도 수원시 장안구 천천로21번길 33, 상가동 107호 (정자동, 화서역 위너스 파크)",198643.5047,421163.6461
경기도 수원시 장안구 정자동 530-6,"경기도 수원시 장안구 장안로 271, 단지내상가 1층 102,103호 (정자동)",199035.2456,422577.7324
경기도 수원시 장안구 조원동 755-18,"경기도 수원시 장안구 경수대로908번길 22, 1층 (조원동)",200948.9815,422177.0161
경기도 수원시 영통구 매탄동 873 효원빌라,"경기도 수원시 영통구 인계로 254, 상가동 101,102,103,104호 (매탄동, 효원빌라)",203912.1452,417988.1621
경기도 수원시 장안구 연무동 56-98,"경기도 수원시 장안구 창훈로52번길 5-2, 1층 (연무동)",202638.4386,421689.246
경기도 수원시 영통구 영통동 958-2 훼미리타워,"경기도 수원시 영통구 봉영로 1617, 훼미리타워 4층 401호 (영통동)",206521.7182,417068.6636
경기도 수원시 영통구 영통동 1054-3 신명.한국아파트,"경기도 수원시 영통구 봉영로1770번길 21, 상가동 지하1층 1~5, 15~19, 25~33, 81호 (영통동, 신명.한국아파트)",207380.4159,418468.3447
경기도 수원시 장안구 파장동 469-34,경기도 수원시 장안구 경수대로1044번길 9(파장동),199762.2846,422923.9566
경기도 수원시 장안구 조원동 431-2,"경기도 수원시 장안구 송정로 190, 2동 2호 (조원동)",201504.6274,421891.37
경기도 수원시 장안구 천천동 571-6,"경기도 수원시 장안구 하률로12번길 92-8, 1층 (천천동)",197931.6612,422083.5128
경기도 수원시 권선구 탑동 793-1 가림주택,"경기도 수원시 권선구 탑동로36번길 15, 1층 101호 (탑동, 가림주택)",197744.4856,418940.4722
경기도 수원시 권선구 고색동 1098,"경기도 수원시 권선구 산업로 190, B동 101호 (고색동)",198642.6946,415641.7336
경기도 수원시 권선구 서둔동 17-736,"경기도 수원시 권선구 권선로357번길 54, 1층 106호 (서둔동)",199191.2811,417800.0237
경기도 수원시 권선구 세류동 980-18,경기도 수원시 권선구 정조로482번길 20(세류동),201042.2093,416693.8261
경기도 수원시 장안구 율전동 408-16 우정상가,"경기도 수원시 장안구 서부로2105번길 29, 우정상가 (율전동)",197141.6337,421647.1319
경기도 수원시 권선구 오목천동 444-27,"경기도 수원시 권선구 삼천병마로 1553, 104호 (오목천동)",196598.8045,415507.0399
경기도 수원시 팔달구 팔달로2가 69-2,"경기도 수원시 팔달구 정조로 788, 1층 (팔달로2가)",201437.298,419595.8006
경기도 수원시 장안구 이목동 243-5,경기도 수원시 장안구 서부로 2370(이목동),198482.8681,423835.6147
경기도 수원시 영통구 이의동 산 94-6 경기대학교,"경기도 수원시 영통구 광교산로 154-42, 경기대학교 제2복지관동 1층 일부호 (이의동)",203054.2199,422194.5793
경기도 수원시 장안구 정자동 945 수원 SK SKY VIEW,"경기도 수원시 장안구 이목로 24, 601동 109,110,111호 (정자동, 수원 SK SKY VIEW)",198599.3409,422793.724
경기도 수원시 장안구 송죽동 456-16,경기도 수원시 장안구 정조로 1094-2(송죽동),200163.4384,422298.1197
경기도 수원시 팔달구 매향동 124-18,"경기도 수원시 팔달구 창룡대로 65-3, 1층 (매향동)",201867.8915,420298.2116
경기도 수원시 팔달구 매산로1가 18 AK플라자,"경기도 수원시 팔달구 덕영대로 924, AK플라자 2층 (매산로1가)",199920.1947,418246.9271
경기도 수원시 영통구 원천동 산 5-1 아주대학교,"경기도 수원시 영통구 월드컵로 206, 아주대학교  인문사회관,대강의동 1층 일부호 (원천동)",203953.7592,420237.1865
경기도 수원시 영통구 원천동 산 5-1 아주대학교,"경기도 수원시 영통구 월드컵로 206, 아주대학교 팔달관 1층 일부호 (원천동)",203953.7592,420237.1865
경기도 수원시 장안구 영화동 32-4 신광슈퍼,"경기도 수원시 장안구 월드컵로453번길 32, 신광슈퍼 1층 (영화동)",201875.9037,421308.3683
경기도 수원시 팔달구 우만동 559,경기도 수원시 팔달구 팔달문로140번길 38(우만동),202753.5021,419876.1585
경기도 수원시 권선구 평동 10-31,"경기도 수원시 권선구 평동로 90, 1층 (평동)",199424.6048,417442.1166
경기도 수원시 장안구 영화동 425-16,"경기도 수원시 장안구 장안로18번길 1, 101,102호 (영화동)",200504.2227,420544.8564
경기도 수원시 팔달구 인계동 1132-18 테라스 더 아델라움,"경기도 수원시 팔달구 권광로124번길 13, 테라스 더 아델라움 1층 112호 (인계동)",202719.1123,417426.6476
경기도 수원시 영통구 원천동 462-7,"경기도 수원시 영통구 동탄원천로 1121, 101호 (원천동)",205192.5611,418605.8699
경기도 수원시 팔달구 신풍동 173-3,"경기도 수원시 팔달구 신풍로 37, 1층 (신풍동)",201194.126,420259.856
경기도 수원시 장안구 조원동 756-5,"경기도 수원시 장안구 송원로86번길 49, 제비101, 102, 103, 104호 (조원동, 형우럭스빌아파트)",201047.9893,422101.6281
경기도 수원시 팔달구 인계동 1122-14,"경기도 수원시 팔달구 권광로180번길 50, 1층 103호 (인계동)",203071.942,417871.7886
경기도 수원시 권선구 구운동 889 일월 청구 아파트,"경기도 수원시 권선구 수성로35번길 60, 상가동 1층 101,102호 (구운동, 일월 청구 아파트)",197970.661,420405.903
경기도 수원시 권선구 탑동 839-7 스카이빌딩,"경기도 수원시 권선구 탑동로 23, 스카이빌딩 1층 (탑동)",197674.8099,418775.142
경기도 수원시 권선구 금곡동 1115-3 로얄팰리스3차,"경기도 수원시 권선구 금곡로 229, 로얄팰리스3차 117호 (금곡동)",195969.3965,419262.3849
경기도 수원시 팔달구 화서동 219-20,"경기도 수원시 팔달구 동말로25번길 71, 1층 (화서동)",199505.793,419855.5809
경기도 수원시 영통구 하동 868,"경기도 수원시 영통구 광교호수공원로 300, 149호 (하동)",205109.7535,420280.7141
경기도 수원시 영통구 이의동 1250,"경기도 수원시 영통구 대학4로 9, 112호 (이의동)",203971.4033,422063.5836
경기도 수원시 팔달구 구천동 22 1층,"경기도 수원시 팔달구 중부대로12번길 2, 1층 (구천동)",201515.6647,419222.8066
경기도 수원시 권선구 세류동 1112,경기도 수원시 권선구 세지로 12 (세류동),201261.2464,416807.0799
경기도 수원시 권선구 오목천동 327-6,"경기도 수원시 권선구 온정로9번길 33, 101호 (오목천동)",196701.9766,416079.378
경기도 수원시 팔달구 매산로2가 90 대한대우아파트,"경기도 수원시 팔달구 권선로 477, 상가2동 101, 102호 (매산로2가, 대한대우아파트)",200328.3856,418194.5961
경기도 수원시 장안구 정자동 266-3,"경기도 수원시 장안구 대평로 128, 114호 (정자동)",199142.5993,421905.1175
경기도 수원시 권선구 오목천동 1170 오목천역 서희스타힐스아파트,"경기도 수원시 권선구 온정로9번길 36, 212동 107호 (오목천동, 오목천역 서희스타힐스아파트)",196634.0445,416201.0857
경기도 수원시 팔달구 지동 478-1,"경기도 수원시 팔달구 팔달문로115번길 14, 1층 101호 (지동)",202468.2727,420045.095
경기도 수원시 권선구 권선동 1337 수원아이파크시티7단지,"경기도 수원시 권선구 덕영대로1190번길 100, 상가동 109,110호 (권선동, 수원아이파크시티7단지)",201706.2828,416059.045
경기도 수원시 권선구 서둔동 17-160,"경기도 수원시 권선구 세화로190번길 13, 1층 (서둔동)",199448.0775,418561.332
경기도 수원시 권선구 금곡동 1083,"경기도 수원시 권선구 금곡로102번길 30, 폴리프라자 1층 103,104호 (금곡동)",194708.5662,418983.7749
경기도 수원시 팔달구 우만동 497 풍림아파트,"경기도 수원시 팔달구 세지로 439-13, 상가동 102, 103, 104, 105호 (우만동, 풍림아파트)",202735.3187,420632.1889
경기도 수원시 영통구 하동 868 포레나 광교,"경기도 수원시 영통구 광교호수공원로 300, 포레나 광교 1층 156호 (하동)",205109.7535,420280.7141
경기도 수원시 권선구 권선동 950,"경기도 수원시 권선구 세지로140번길 2, 1층 (권선동)",201755.2376,417996.4807
경기도 수원시 팔달구 인계동 1122-11,"경기도 수원시 팔달구 효원로 299, 108, 108-1호 (인계동)",203001.8303,417725.2937
경기도 수원시 영통구 매탄동 111-110,경기도 수원시 영통구 매봉로35번길 25 (매탄동),204484.5716,418833.1375
경기도 수원시 영통구 영통동 1013-9,"경기도 수원시 영통구 매영로425번길 16, 1층 101호 (영통동)",206864.5621,416393.9247
경기도 수원시 장안구 정자동 80-8,"경기도 수원시 장안구 수성로 305, 1층 (정자동)",200430.3866,421073.8529
경기도 수원시 장안구 영화동 127-11,"경기도 수원시 장안구 팔달로292번길 29-14, 101호 (영화동)",201463.3188,420900.923
경기도 수원시 영통구 원천동 554 영통 이노플렉스-2단지,"경기도 수원시 영통구 신원로 304, 영통 이노플렉스-2단지 제3동 1층 제3-105호 (원천동)",205342.5609,417806.1488
경기도 수원시 권선구 호매실동 469-21,"경기도 수원시 권선구 금호로 7, 1층 (호매실동)",195737.4473,418539.6623
경기도 수원시 권선구 세류동 876-11,"경기도 수원시 권선구 세지로 43, 1층 (세류동)",201363.9601,417134.2438
경기도 수원시 팔달구 북수동 290,"경기도 수원시 팔달구 창룡대로7번길 30, 1층 (북수동)",201491.7497,420146.9143
경기도 수원시 장안구 정자동 961 화서역 푸르지오 브리시엘 판매시설 108호,"경기도 수원시 장안구 수성로157번길 60, 108호 (정자동, 화서역 푸르지오 브리시엘)",,
경기도 수원시 영통구 원천동 224-3,"경기도 수원시 영통구 중부대로448번길 29, 101호 (원천동)",205515.7453,418463.2035
경기도 수원시 팔달구 인계동 847-3,"경기도 수원시 팔달구 인계로 21, 상가1동 103호 (인계동)",201936.9919,418852.8148
경기도 수원시 영통구 매탄동 101-21,"경기도 수원시 영통구 매여울로68번길 2, 1층 (매탄동)",203923.8202,419064.866
경기도 수원시 권선구 곡반정동 520-7 DM스퀘어 103호,"경기도 수원시 권선구 곡반정로 177, DM스퀘어 103호 (곡반정동)",202940.7646,415748.0377
경기도 수원시 권선구 권선동 1188 권선한양아파트 상가동,"경기도 수원시 권선구 경수대로302번길 22, 제상가동 제1층 제101호, 제102호, 제103호 (권선동, 권선한양아파트)",201797.0805,416730.1946
경기도 수원시 권선구 세류동 1039,,200204.2478,416362.8924
경기도 수원시 영통구 매탄동 200-5,"경기도 수원시 영통구 매영로46번길 12, 1층 (매탄동)",204115.87,418515.125
경기도 수원시 권선구 금곡동 520 금곡엘지아파트,"경기도 수원시 권선구 금곡로73번길 71, 제주상가동 1층 121,122,125,126호 (금곡동, 금곡엘지아파트)",194049.5417,419256.2787
경기도 수원시 영통구 매탄동 199-8,"경기도 수원시 영통구 매여울로 7, 1층 (매탄동)",204219.1733,418699.0625
경기도 수원시 영통구 원천동 35-3 주공아파트,"경기도 수원시 영통구 중부대로271번길 27-11, 주공아파트 복합상가동 1층 101호 (원천동)",204026.9044,419352.875
경기도 수원시 권선구 곡반정동 527-7,"경기도 수원시 권선구 동수원로146번길 6-5, 1층 (곡반정동)",202720.6729,415686.8445
경기도 수원시 장안구 정자동 6-1,"경기도 수원시 장안구 정조로981번길 13, 1층 (정자동)",200753.7354,421349.2693
경기도 수원시 팔달구 화서동 650-1 화서4단지주공아파트내 나상가,"경기도 수원시 팔달구 수성로182번길 82, 화서4단지주공아파트내 나상가 1층 103호 (화서동)",199386.8193,420183.739
경기도 수원시 팔달구 장안동 322-17,"경기도 수원시 팔달구 화서문로17번길 4, 1층 (장안동)",200831.2988,420384.4902
경기도 수원시 권선구 호매실동 80-20,"경기도 수원시 권선구 칠보로241번길 12, 1층 (호매실동)",196271.4729,418664.7495
경기도 수원시 장안구 정자동 918 청솔마을 SK한화아파트,"경기도 수원시 장안구 만석로20번길 25, 상가동 1층 101호 (정자동, 청솔마을 SK한화아파트)",198660.1879,421413.6166
경기도 수원시 권선구 세류동 1077 이원빌딩,"경기도 수원시 권선구 장다리로 68, 103-1호 (세류동)",201743.9661,417164.2174
경기도 수원시 팔달구 화서동 211-7,"경기도 수원시 팔달구 화양로68번길 62, 1층 (화서동)",199673.8836,419974.1632
경기도 수원시 권선구 고색동 1181,"경기도 수원시 권선구 호매실로 21-36, 1층 103호 (고색동)",197578.5207,417050.9376
경기도 수원시 장안구 영화동 327-1 월드프라자,"경기도 수원시 장안구 팔달로259번길 10, 월드프라자 1층 106호 (영화동)",201099.3809,420821.1437
경기도 수원시 장안구 조원동 731-15 메가타워,"경기도 수원시 장안구 금당로10번길 63, 1층 104,105호 (조원동, 메가타워)",201366.6717,422241.7468
경기도 수원시 영통구 매탄동 198-10,"경기도 수원시 영통구 매영로35번길 25, 1층 (매탄동)",204104.6645,418740.6494
경기도 수원시 팔달구 매교동 209-14,"경기도 수원시 팔달구 인계로 20, 상가3동 103호 (매교동)",201559.5342,418602.2882
경기도 수원시 팔달구 매교동 209-14,"경기도 수원시 팔달구 인계로 20, 상가1동 B101호 (매교동)",201559.5342,418602.2882
경기도 수원시 권선구 서둔동 24-90,"경기도 수원시 권선구 권선로381번길 1, 1층 101호 (서둔동)",199324.3988,417708.3186
경기도 수원시 권선구 세류동 1079-1,"경기도 수원시 권선구 경수대로 313, 1층 (세류동)",201772.4354,416997.7675
경기도 수원시 권선구 탑동 25-43,"경기도 수원시 권선구 서둔로239번길 23, 1층 (탑동)",197954.7386,418964.642
경기도 수원시 장안구 정자동 9-5 메디플라자,"경기도 수원시 장안구 송정로90번길 3, 메디플라자 1층 101호 (정자동)",200567.7526,421496.3186
경기도 수원시 영통구 하동 1033,"경기도 수원시 영통구 광교호수로 101, 영업동 1층 일부호 (하동)",205842.5232,419526.6369
경기도 수원시 팔달구 화서동 273-6,경기도 수원시 팔달구 화양로 53(화서동),199570.3402,420083.7419
경기도 수원시 권선구 호매실동 1397-2,"경기도 수원시 권선구 호매실로90번길 76, 114호 (호매실동)",196765.9205,417424.1975
경기도 수원시 장안구 율전동 293-4 성대DC 백화점,"경기도 수원시 장안구 서부로2123번길 23, 성대DC 백화점 (율전동)",197251.7445,421803.3375
경기도 수원시 권선구 세류동 1147-3,"경기도 수원시 권선구 정조로398번길 11-29, 제나동호 1층 (세류동)",201344.3091,415993.5539
경기도 수원시 영통구 매탄동 1162 임광아파트,"경기도 수원시 영통구 동수원로 316, 12동 1층 118,119,120호 (매탄동, 임광아파트)",203351.4154,417267.7147
경기도 수원시 팔달구 인계동 949-9,"경기도 수원시 팔달구 경수대로480번길 13, 102호 (인계동)",202462.8915,418542.3932
경기도 수원시 권선구 권선동 1010-1 청광 노블하임,"경기도 수원시 권선구 경수대로 408, 청광 노블하임 106호 (권선동)",202185.367,417856.6407
경기도 수원시 장안구 정자동 36-22,"경기도 수원시 장안구 송정로76번길 2, 103호 (정자동)",200395.0423,421519.4814
경기도 수원시 장안구 조원동 766-2,"경기도 수원시 장안구 송정로187번길 35-6, 1층 (조원동)",201263.7648,421997.2826
경기도 수원시 팔달구 화서동 706 꽃뫼버들마을 진흥아파트,"경기도 수원시 팔달구 화산로 57, 상가동 101호 (화서동, 꽃뫼버들마을 진흥아파트)",198500.7506,420779.4545
경기도 수원시 권선구 세류동 1091-10,"경기도 수원시 권선구 세지로28번길 13, 1층 (세류동)",201388.4207,416956.0616
경기도 수원시 권선구 고색동 1206 e편한세상 시티 고색,"경기도 수원시 권선구 서부로1670번길 11-9, e편한세상 시티 고색 138호 (고색동)",,
경기도 수원시 권선구 구운동 955-4,"경기도 수원시 권선구 구운로47번길 60, 1층 (구운동)",197267.3736,419554.1984
경기도 수원시 영통구 이의동 268-1,경기도 수원시 영통구 도청로 지하45 (이의동),,
경기도 수원시 팔달구 교동 68-1,"경기도 수원시 팔달구 향교로 114, 1층 (교동)",201072.8779,418864.6239
경기도 수원시 장안구 송죽동 379-5,경기도 수원시 장안구 송원로23번길 12 (송죽동),200428.2289,421800.5981
경기도 수원시 권선구 세류동 230-42,"경기도 수원시 권선구 세류로 51, 1층 (세류동)",200606.208,417995.2112
경기도 수원시 권선구 세류동 482-2,경기도 수원시 권선구 정조로575번길 17 (세류동),200993.2808,417638.7011
경기도 수원시 권선구 호매실동 81-1,"경기도 수원시 권선구 금호로 62, 1층 (호매실동)",196230.3164,418654.1413
경기도 수원시 권선구 권선동 978-8,"경기도 수원시 권선구 세지로 94, 1층 (권선동)",201582.8933,417578.1706
경기도 수원시 권선구 권선동 1354-53,"경기도 수원시 권선구 동수원로25번길 32-217, 101, 102호 (권선동)",202077.8554,415058.9055
경기도 수원시 영통구 매탄동 111-113,"경기도 수원시 영통구 매봉로35번길 51, 1층 (매탄동)",204369.2639,418874.4223
경기도 수원시 팔달구 교동 201-3,"경기도 수원시 팔달구 매산로 97, 1층 4호 (교동)",200943.0999,418753.72
경기도 수원시 팔달구 화서동 730 꽃뫼버들마을 코오롱아파트,"경기도 수원시 팔달구 일월로18번길 4-26, 제상가동 제1층 103,104호 (화서동, 꽃뫼버들마을 코오롱아파트)",198353.3678,420306.9348
경기도 수원시 팔달구 우만동 587-21,"경기도 수원시 팔달구 창룡대로150번길 38, 1층 (우만동)",202368.1486,420859.9849
경기도 수원시 장안구 정자동 876-5 뱅뱅프라자,"경기도 수원시 장안구 정자천로173번길 11-10, 뱅뱅프라자 1층 104,105호 (정자동)",199403.2712,421530.5372
경기도 수원시 권선구 세류동 476-9,경기도 수원시 권선구 정조로565번길 3 (세류동),201024.5478,417506.1184
경기도 수원시 장안구 조원동 752-17,"경기도 수원시 장안구 경수대로 918, 1층 (조원동)",200802.8042,422174.581
경기도 수원시 권선구 금곡동 1088,경기도 수원시 권선구 금곡로118번길 10-31 (금곡동),194823.66,419044.6951
경기도 수원시 팔달구 화서동 15-1,"경기도 수원시 팔달구 장안로5번길 52, 2층 (화서동)",200376.5868,420458.9924
경기도 수원시 권선구 탑동 20-11,"경기도 수원시 권선구 상탑로53번길 42, 1층 (탑동)",197851.8504,419061.1866
경기도 수원시 팔달구 우만동 58-32,"경기도 수원시 팔달구 월드컵로 205, 102호 (우만동)",203777.1625,419745.5702
경기도 수원시 장안구 조원동 527-10,"경기도 수원시 장안구 조원로58번길 22-1, 1층 (조원동)",201639.6758,421956.5832
경기도 수원시 영통구 이의동 산 94-6 경기대학교,"경기도 수원시 영통구 광교산로 154-42, 경기대학교 기숙사동 1층 (이의동)",203054.2199,422194.5793
경기도 수원시 장안구 정자동 23-2,경기도 수원시 장안구 장안로 153 (정자동),199745.2563,421665.1862
경기도 수원시 장안구 정자동 338-12 부대찌개 백남가,"경기도 수원시 장안구 대평로 136, 부대찌개 백남가 (정자동)",199102.2136,421988.1526
경기도 수원시 장안구 송죽동 499-3 동양파라곤,"경기도 수원시 장안구 경수대로 935, 1층 111호 (송죽동, 동양파라곤)",200624.5094,422215.2969
경기도 수원시 장안구 율전동 89-5,"경기도 수원시 장안구 서부로 2161, 2층 (율전동)",197483.9572,422144.3911
경기도 수원시 팔달구 고등동 64-5,"경기도 수원시 팔달구 고매로19번길 4, 1층 (고등동)",200372.8842,418830.5332
경기도 수원시 영통구 원천동 399-1 영통 아이파크 디어반,"경기도 수원시 영통구 신원로250번길 53, 영통 아이파크 디어반 1층 108호 (원천동)",205497.5068,417300.0465
경기도 수원시 영통구 매탄동 1207-7,"경기도 수원시 영통구 매봉로27번길 18, 1층 (매탄동)",204513.5262,418761.5603
경기도 수원시 영통구 매탄동 1282 주공그린빌,"경기도 수원시 영통구 동탄원천로881번길 35, 상가동 104호 (매탄동, 주공그린빌)",203576.5763,417000.0955
경기도 수원시 팔달구 우만동 92-1 블루하우스,"경기도 수원시 팔달구 중부대로223번길 4, 블루하우스 113호 (우만동)",203569.3141,419342.523
경기도 수원시 팔달구 고등동 310 수원역푸르지오자이,"경기도 수원시 팔달구 고등로 15, 수원고등A-1블록 단지내상가 001호 (고등동, 수원역푸르지오자이)",199837.5161,419105.8082
경기도 수원시 팔달구 북수동 25-14,"경기도 수원시 팔달구 정조로886번길 21, 103호 (북수동)",201388.1107,420589.0183
경기도 수원시 영통구 원천동 605 더샵 광교레이크시티,"경기도 수원시 영통구 광교호수공원로 20, B1층 20,21호 (원천동, 더샵 광교레이크시티)",205289.1603,418886.4364
경기도 수원시 팔달구 인계동 227-1,"경기도 수원시 팔달구 장다리로314번길 2, 1층 (인계동)",202716.4685,419329.0306
경기도 수원시 권선구 호매실동 1380 벨섬시티,"경기도 수원시 권선구 호매실로218번길 22, 상가2동 104, 105호 (호매실동, 벨섬시티)",196422.561,417863.8929
경기도 수원시 장안구 정자동 67-13,경기도 수원시 장안구 송정로76번길 61 (정자동),200575.1447,421266.8144
경기도 수원시 팔달구 우만동 516-7,"경기도 수원시 팔달구 월드컵로311번길 26, 1층 (우만동)",202882.3061,420381.476
경기도 수원시 권선구 세류동 343-3,"경기도 수원시 권선구 권선로544번길 35, 1층 (세류동)",200851.888,417721.7712
경기도 수원시 영통구 매탄동 407-49,"경기도 수원시 영통구 신원로 255-1, 1동 102호 (매탄동)",205260.9751,417367.0983
경기도 수원시 권선구 구운동 942-6,경기도 수원시 권선구 구운로63번길 2 (구운동),197507.4129,419714.9222
경기도 수원시 장안구 파장동 580-2,"경기도 수원시 장안구 파장로76번길 11, 102호 (파장동)",199278.0599,422755.4168
경기도 수원시 영통구 원천동 593 광교아이파크,"경기도 수원시 영통구 광교호수공원로 80, 판매에이동 1층 106호 (원천동, 광교아이파크)",205357.8071,419119.0197
경기도 수원시 권선구 구운동 462 삼환아파트,"경기도 수원시 권선구 수성로 47, 2층 (구운동, 삼환아파트)",198024.2074,420238.912
경기도 수원시 영통구 이의동 1357,경기도 수원시 영통구 광교로 66 (이의동),203664.9716,420660.6085
경기도 수원시 권선구 서둔동 243-6 엔 프라자,"경기도 수원시 권선구 여기산로 2, 엔 프라자 (서둔동)",198044.9146,419533.0657
경기도 수원시 권선구 고색동 886-125,"경기도 수원시 권선구 서부로1596번길 10, 1층 101호 (고색동)",197848.3778,416619.9512
경기도 수원시 팔달구 인계동 1113-5,"경기도 수원시 팔달구 효원로265번길 54, 1층 103, 104호 (인계동)",202764.0341,418056.9296
경기도 수원시 팔달구 화서동 96-18,"경기도 수원시 팔달구 동말로68번길 25, 1층 (화서동)",200074.7213,419513.2085
경기도 수원시 장안구 율전동 545,"경기도 수원시 장안구 상률로12번길 28, 상가동 101호 (율전동, 밤꽃마을주공아파트)",196959.7841,422703.5601
경기도 수원시 영통구 하동 992 호수마을광교상록아파트,"경기도 수원시 영통구 법조로150번길 19, 1층 102,103호 (하동, 호수마을광교상록아파트)",206466.0666,421239.589
경기도 수원시 영통구 영통동 971-1 벽적골롯데아파트,"경기도 수원시 영통구 덕영대로1555번길 16, 생활편익시설동 1층 109호 (영통동)",205462.0474,416148.4863
경기도 수원시 팔달구 우만동 511-30,"경기도 수원시 팔달구 경수대로642번길 39, 1층 (우만동)",202682.5165,420223.8673
경기도 수원시 권선구 금곡동 1115-2,"경기도 수원시 권선구 금곡로 235, B102호 (금곡동)",196015.6595,419283.0118
경기도 수원시 영통구 망포동 649-71,"경기도 수원시 영통구 태장로54번길 70, 101호 (망포동)",204525.6673,414875.2377
경기도 수원시 팔달구 우만동 73-12 삼은빌,경기도 수원시 팔달구 아주로 17-24 (우만동),203754.0875,419464.7162
경기도 수원시 권선구 호매실동 395-28,경기도 수원시 권선구 매실로 40 (호매실동),195982.1983,418383.5033
경기도 수원시 팔달구 인계동 1044-1 홍제빌딩,"경기도 수원시 팔달구 효원로249번길 18-1, 1층 104호 (인계동)",202568.078,417951.2929
경기도 수원시 팔달구 매산로1가 18 AK플라자,"경기도 수원시 팔달구 덕영대로 924, 2층 (매산로1가)",199920.1947,418246.9271
경기도 수원시 권선구 고색동 1191,"경기도 수원시 권선구 권선로 308-5, 142,143호 (고색동)",198848.998,417348.8186
경기도 수원시 팔달구 매산로1가 18 AK플라자,"경기도 수원시 팔달구 덕영대로 924, B1층 (매산로1가)",199920.1947,418246.9271
경기도 수원시 장안구 파장동 279-2,경기도 수원시 장안구 경수대로1078번길 34 (파장동),199550.7161,423184.9619
경기도 수원시 영통구 신동 338 에이스 하이엔드 타워 영통,"경기도 수원시 영통구 영통로 237, 에이스 하이엔드 타워 영통 비202호 (신동)",204976.8855,416307.9419
경기도 수원시 권선구 금곡동 520 금곡엘지아파트,"경기도 수원시 권선구 금곡로73번길 71, 제주상가동 비01호 (금곡동, 금곡엘지아파트)",194049.5417,419256.2787
경기도 수원시 팔달구 고등동 156-117 수원역푸르지오자이,"경기도 수원시 팔달구 고등로 15, 55호 (고등동, 수원역푸르지오자이)",199837.5161,419105.8082
경기도 수원시 영통구 신동 934-13,"경기도 수원시 영통구 권선로882번길 65-25, 1층 (신동)",203756.8462,416156.2683
경기도 수원시 영통구 매탄동 810-4 매탄성일아파트,"경기도 수원시 영통구 인계로 239, 제판매시설1동 1층 7,8호 (매탄동, 매탄성일아파트)",203838.5741,418153.4715
경기도 수원시 팔달구 인계동 1012-9,경기도 수원시 팔달구 경수대로421번길 6-15 (인계동),202145.6496,418084.7702
경기도 수원시 권선구 고색동 948,"경기도 수원시 권선구 오목천로152번길 60, 109,110호 (고색동)",197953.9782,415576.3591
경기도 수원시 권선구 세류동 1103-29,경기도 수원시 권선구 경수대로277번길 14-1 (세류동),201576.0599,416703.1362
경기도 수원시 팔달구 인계동 865-10 인계 파밀리에,"경기도 수원시 팔달구 세지로 211, 상가동 지1층 108호 (인계동, 인계 파밀리에)",201942.3057,418720.3522
경기도 수원시 권선구 세류동 853,"경기도 수원시 권선구 세지로87번길 11, 1층 (세류동)",201477.6278,417543.4457
경기도 수원시 영통구 신동 478-6 테크트리 영통 지식산업센터,"경기도 수원시 영통구 신원로 55, 테크트리 영통 지식산업센터 상가동 129, 130호 (신동)",204158.2083,416378.9414
경기도 수원시 영통구 영통동 998-8 키라레스토아,"경기도 수원시 영통구 청명남로 31, 키라레스토아  1층 103호 (영통동)",206609.041,416782.2375
경기도 수원시 권선구 오목천동 498-5,경기도 수원시 권선구 삼천병마로 1592-3(오목천동),196723.4836,415848.7376
경기도 수원시 권선구 당수동 232-6,"경기도 수원시 권선구 당진로 17, 104,105호 (당수동)",194631.555,420979.1223
경기도 수원시 팔달구 우만동 558-4,"경기도 수원시 팔달구 팔달문로130번길 55, 1층 101호 (우만동)",202713.526,419772.2436
경기도 수원시 영통구 매탄동 383-11,"경기도 수원시 영통구 삼성로168번길 100, 1층 일부 (매탄동)",205249.1643,417717.7792
경기도 수원시 영통구 이의동 1358 광교아르데코,"경기도 수원시 영통구 광교로42번길 80, 101동 근생3호 (이의동)",203868.4691,420479.8006
경기도 수원시 영통구 매탄동 233-13,"경기도 수원시 영통구 산남로34번길 32-4, 1층 일부 (매탄동)",204293.4506,418101.3118
경기도 수원시 권선구 구운동 509,"경기도 수원시 권선구 구운로 13, 1층 (구운동)",197862.8932,419422.3307
경기도 수원시 권선구 금곡동 1085-2 우성메디피아,"경기도 수원시 권선구 금곡로 106, 우성메디피아 112호 (금곡동)",194788.3478,419113.0678
경기도 수원시 권선구 세류동 1094-10,"경기도 수원시 권선구 세지로28번길 37, 1층 (세류동)",201499.2021,416911.026
경기도 수원시 영통구 영통동 1014-15,"경기도 수원시 영통구 영일로 26, 1층 101호 (영통동)",206755.8059,416412.8874
경기도 수원시 장안구 조원동 519-38,"경기도 수원시 장안구 조원로50번길 22, 1층 (조원동)",201720.4098,421827.5348
경기도 수원시 장안구 율전동 296-23 동경빌딩,"경기도 수원시 장안구 화산로 231-10, 동경빌딩 1층 101호 (율전동)",197371.3397,421928.8263
경기도 수원시 영통구 매탄동 372-20,"경기도 수원시 영통구 신원로 295, 1층 101호 (매탄동)",205279.5769,417770.8916
경기도 수원시 팔달구 매산로3가 20-16,"경기도 수원시 팔달구 효원로 23-5, 1층 (매산로3가)",200766.4368,418846.4693
경기도 수원시 장안구 정자동 9-1,"경기도 수원시 장안구 송정로104번길 2, 1층 (정자동)",200670.8581,421481.017
경기도 수원시 권선구 세류동 1270 LH수원센트럴타운2단지,"경기도 수원시 권선구 세류로 39, 상가동 106호 (세류동, LH수원센트럴타운2단지)",200510.1412,417875.7767
경기도 수원시 장안구 율전동 319 신일아파트,"경기도 수원시 장안구 화산로 263, 상가동 213호 (율전동, 신일아파트)",197018.1402,421964.6777
경기도 수원시 영통구 매탄동 1352 매탄 위브 하늘채,"경기도 수원시 영통구 효원로 363, 302 상가A동 1층 122호 (매탄동, 매탄 위브 하늘채)",203603.1612,417765.0059
경기도 수원시 영통구 망포동 540-15,"경기도 수원시 영통구 영통로112번길 24, 1층 (망포동)",204971.9254,415242.7803
경기도 수원시 권선구 호매실동 1398,"경기도 수원시 권선구 호매실로90번길 101, 107호 (호매실동)",196702.634,417512.7565
경기도 수원시 권선구 구운동 507-11,"경기도 수원시 권선구 수인로 195, 1층 (구운동)",198007.1186,419425.5131
경기도 수원시 권선구 탑동 22-1 은진빌딩,경기도 수원시 권선구 서둔로 253(탑동),198034.2185,419133.5039
경기도 수원시 권선구 세류동 565-2,"경기도 수원시 권선구 정조로495번길 7-1, 1층 (세류동)",200896.8717,416823.6731
경기도 수원시 영통구 신동 398-19 신동우편취급소,"경기도 수원시 영통구 신원로 105, 1층 일부호 (신동)",204620.7725,416230.5241
"경기도 수원시 권선구 오목천동 482-2 일원 쌍용더플래티넘 오목천역 단지내상가 108,109호",,196812.3224,415645.1133
경기도 수원시 팔달구 중동 36-2,"경기도 수원시 팔달구 정조로 746, 1층 101호 (중동)",201416.882,419180.7733
경기도 수원시 팔달구 화서동 105-1,"경기도 수원시 팔달구 팔달로127번길 51, 1층 (화서동)",200048.8282,419793.4372
경기도 수원시 영통구 영통동 961-6 영통트리플렉스,"경기도 수원시 영통구 매영로345번길 7, 영통트리플렉스 1층 131호 (영통동)",206219.544,416763.2898
경기도 수원시 권선구 고색동 42-15,경기도 수원시 권선구 매송고색로 734(고색동),198568.853,416626.0641
경기도 수원시 권선구 고색동 986 수원종합공구단지,"경기도 수원시 권선구 권선로 308-18, 수원종합공구단지 지원상가동 1층 101-1호 (고색동)",198613.5704,417039.0403
경기도 수원시 팔달구 우만동 523,"경기도 수원시 팔달구 경수대로642번길 62-1, 1층 (우만동)",202791.0331,420278.944
경기도 수원시 팔달구 매산로2가 40-3 대주파크빌,"경기도 수원시 팔달구 향교로 52, 대주파크빌 1층 105호 (매산로2가)",200503.6263,418559.2658
경기도 수원시 장안구 파장동 570-8,"경기도 수원시 장안구 장안로 312, 1층 104호 (파장동)",198935.9882,423033.9259
경기도 수원시 팔달구 지동 481,"경기도 수원시 팔달구 경수대로 617, 1층 (지동)",202572.6054,419856.9905
경기도 수원시 영통구 망포동 41-51 망포역 플래티넘베이스,"경기도 수원시 영통구 덕영대로 1470, 망포역 플래티넘베이스 1층 104호 (망포동)",204502.2289,415907.6412
경기도 수원시 장안구 천천동 585 성균관대학교,"경기도 수원시 장안구 서부로 2066, 성균관대학교 복지회관동 지하1층 (천천동)",197655.3108,421305.506
경기도 수원시 장안구 천천동 585 성균관대학교,"경기도 수원시 장안구 서부로 2066, 성균관대학교 기숙사의점동 1층 (천천동)",197655.3108,421305.506
경기도 수원시 장안구 천천동 585 성균관대학교,"경기도 수원시 장안구 서부로 2066, 성균관대학교 기숙사신관동 지하1층 (천천동)",197655.3108,421305.506
경기도 수원시 팔달구 인계동 1122-10 삼호파크타워,"경기도 수원시 팔달구 효원로 303, 삼호파크타워 105호 (인계동)",203047.115,417709.7966
경기도 수원시 영통구 하동 1013 광교더리브,"경기도 수원시 영통구 센트럴파크로 34, 103호 (하동, 광교더리브)",205569.2328,420811.8913
경기도 수원시 영통구 원천동 615-7,"경기도 수원시 영통구 월드컵로97번길 35, 1층 (원천동)",204501.4173,419133.6069
경기도 수원시 팔달구 인계동 939 신동아 파스텔,"경기도 수원시 팔달구 경수대로 584, 신동아 파스텔 101-1호 (인계동)",202718.0128,419526.6865
경기도 수원시 권선구 금곡동 1124-2,"경기도 수원시 권선구 금곡로196번길 68, 104호 (금곡동)",195943.168,419047.5006
"경기도 수원시 장안구 정자동 879-1 백설마을 성지,동양고속아파트","경기도 수원시 장안구 정자천로133번길 26, 103,104호 (정자동, 백설마을 성지,동양고속아파트)",199210.2412,421412.2159
경기도 수원시 영통구 하동 979,"경기도 수원시 영통구 법조로149번길 150, 1층 (하동)",206127.4377,421092.8002
경기도 수원시 팔달구 매산로2가 63-12,"경기도 수원시 팔달구 갓매산로 30, 1층 (매산로2가)",200459.3501,418387.0016
경기도 수원시 장안구 율전동 149-4,"경기도 수원시 장안구 서부로2181번길 55, 1층 (율전동)",197238.6374,422356.6535
"경기도 수원시 영통구 이의동 1331 광교푸르지오 월드마크, 월드스퀘어","경기도 수원시 영통구 센트럴타운로 107, 204동 1-26호 (이의동, 광교푸르지오 월드마크, 월드스퀘어)",204219.5217,421105.1732
경기도 수원시 장안구 천천동 506-8,"경기도 수원시 장안구 덕영대로511번길 27, 1층 (천천동)",198158.9444,421901.6296
경기도 수원시 영통구 매탄동 514-13,"경기도 수원시 영통구 신원로198번길 72, 1층 (매탄동)",205441.0139,417078.2483
경기도 수원시 영통구 이의동 1325-6,"경기도 수원시 영통구 센트럴타운로 92, 104호 (이의동)",204464.3144,421090.7558
경기도 수원시 권선구 권선동 1330 권선자이 이편한세상,"경기도 수원시 권선구 권광로 55, 상가A동 102호 (권선동, 권선자이 이편한세상)",202272.3145,416779.0376
경기도 수원시 장안구 정자동 875 선일주차타운빌딩 `동 113호,"경기도 수원시 장안구 대평로90번길 32, 선일주차타운빌딩 1층 113호 (정자동)",199453.8884,421613.8882
경기도 수원시 팔달구 인계동 1019-5,"경기도 수원시 팔달구 인계로108번길 4, 105호 (인계동)",202517.5715,418412.2201
"경기도 수원시 영통구 이의동 1332 광교C1 호반베르디움, Summit Place광교","경기도 수원시 영통구 센트럴타운로 85, 203동 A113,A114호 (이의동, 광교C1 호반베르디움, Summit Place광교)",204409.226,420967.6178
경기도 수원시 영통구 이의동 1351-1 광교데시앙루브,"경기도 수원시 영통구 광교로 114, 광교데시앙루브 108,109호 (이의동)",203991.8888,420961.6238
경기도 수원시 영통구 망포동 234-6 영통푸르지오파인베르,"경기도 수원시 영통구 태장로36번길 36, 상가동 202호 (망포동, 영통푸르지오파인베르)",204174.9531,414849.0679
경기도 수원시 팔달구 고등동 336-3,"경기도 수원시 팔달구 팔달로 41, 101,102호 (고등동)",,
경기도 수원시 장안구 조원동 726-16 조원동 빌딩,"경기도 수원시 장안구 조원로112번길 23, 1층 (조원동)",201226.6737,422367.804
경기도 수원시 권선구 세류동 1094-18,경기도 수원시 권선구 세권로138번길 40 (세류동),201550.1504,417033.6945
경기도 수원시 영통구 망포동 728 힐스테이트 영통 아파트,"경기도 수원시 영통구 덕영대로 1462-14, 605동 1층 101,102,103호 (망포동, 힐스테이트 영통 아파트)",204253.6827,415715.3169
경기도 수원시 팔달구 매산로2가 101-1,"경기도 수원시 팔달구 매산로20번길 23, 101호 (매산로2가)",200231.2044,418267.1543
경기도 수원시 영통구 영통동 957-6 영통에듀파크,"경기도 수원시 영통구 청명로 130, 벽산삼익아파트 상가동 101,102,103호 (영통동)",206579.8683,417309.7049
경기도 수원시 팔달구 인계동 210-20,"경기도 수원시 팔달구 경수대로565번길 40, 1층 (인계동)",202401.9549,419356.0808
경기도 수원시 팔달구 인계동 1046-10,"경기도 수원시 팔달구 효원로265번길 10, 1층 (인계동)",202687.2455,417850.9696
경기도 수원시 권선구 탑동 757-6,"경기도 수원시 권선구 탑동로 60, 1층 (탑동)",197627.3831,419139.5778
경기도 수원시 장안구 율전동 600 수원성균관대역동문굿모닝힐,"경기도 수원시 장안구 율전로101번길 73, 상가동 101~102호 (율전동, 수원성균관대역동문굿모닝힐)",196875.6861,421764.9042
경기도 수원시 권선구 권선동 1357 수원아이파크시티4단지,"경기도 수원시 권선구 동수원로145번길 23, 상가2동 1층 116호 (권선동, 수원아이파크시티4단지)",202419.9697,415573.4697
경기도 수원시 권선구 호매실동 1400,"경기도 수원시 권선구 호매실로104번길 90, 106,107호 (호매실동)",196620.6117,417517.6144
경기도 수원시 권선구 권선동 1021-15,"경기도 수원시 권선구 권선로 713, 1층 (권선동)",202528.7079,417431.3568
경기도 수원시 권선구 탑동 789-1 강서빌딩,"경기도 수원시 권선구 탑동로 48, 강서빌딩 (탑동)",197657.4575,419011.9526
경기도 수원시 팔달구 고등동 116,"경기도 수원시 팔달구 고매로 1, 엘리시아 지하1층 (고등동)",200309.4542,418674.1194
경기도 수원시 권선구 구운동 912-1,"경기도 수원시 권선구 일월천로4번길 71, 1층 (구운동)",197713.7466,420134.1332
경기도 수원시 팔달구 고등동 305-10,"경기도 수원시 팔달구 갓매산로76번길 10, 1층 101, 102호 (고등동)",200191.2286,418727.0432
경기도 수원시 팔달구 구천동 47-10,"경기도 수원시 팔달구 매산로 157, 1, 2층 (구천동)",201470.1677,419035.4721
경기도 수원시 권선구 권선동 1046-1,"경기도 수원시 권선구 권광로91번길 55, 1층 (권선동)",202287.462,417206.4391
경기도 수원시 영통구 매탄동 231-5 제로마트,"경기도 수원시 영통구 산남로 22, 제로마트 (매탄동)",204229.0605,418133.6551
경기도 수원시 영통구 원천동 471 삼성테크노파크,"경기도 수원시 영통구 중부대로448번길 97, 삼성테크노파크 1층 108호 (원천동)",205205.1186,418279.5891
경기도 수원시 영통구 이의동 1229 광교 호반베르디움 트라엘,"경기도 수원시 영통구 대학로 98, 8116동 106호 (이의동, 광교 호반베르디움 트라엘)",204366.9929,422385.043
경기도 수원시 장안구 정자동 68-47,"경기도 수원시 장안구 영화로86번길 8, 1층 (정자동)",200495.5101,421348.1914
경기도 수원시 영통구 영통동 956-2 대우.동신아파트,"경기도 수원시 영통구 영통로 460, 상가동 1층 107호 (영통동, 대우.동신아파트)",206734.792,417510.3025
경기도 수원시 영통구 이의동 1255-1 광교 장안프라임 오피스텔,"경기도 수원시 영통구 대학3로4번길 50, 광교 장안프라임 오피스텔 B1층 101호,102호 (이의동)",203696.0455,422102.8476
경기도 수원시 영통구 영통동 955-1 황골마을주공1단지아파트,"경기도 수원시 영통구 영통로 498, 제다상가동 1층 101호 (영통동, 황골마을주공1단지아파트)",206992.9771,417888.2585
경기도 수원시 팔달구 중동 1-5 중동빌딩,"경기도 수원시 팔달구 정조로 751-11, 중동빌딩 1층 (중동)",201332.7028,419243.262
경기도 수원시 팔달구 화서동 644-4 정자프라자,"경기도 수원시 팔달구 덕영대로697번길 21-7, 정자프라자 1층 102호 (화서동)",199127.4387,420358.8813
경기도 수원시 장안구 정자동 39-1,"경기도 수원시 장안구 장안로116번길 42, 1층 (정자동)",200130.4974,421499.8578
경기도 수원시 영통구 이의동 1272-4,"경기도 수원시 영통구 대학1로8번길 51, 1층 (이의동)",203853.8467,421821.7861
경기도 수원시 팔달구 화서동 108-7,"경기도 수원시 팔달구 팔달로107번길 42, 1층 104호 (화서동)",200031.5735,419611.8711
경기도 수원시 영통구 망포동 322-3 골든스퀘어 132호,"경기도 수원시 영통구 영통로 195, 골든스퀘어 132호 (망포동)",204894.5966,415913.666
경기도 수원시 권선구 고색동 290-86,"경기도 수원시 권선구 고색로54번길 44-3, 1층 (고색동)",198454.0336,416258.8312
경기도 수원시 권선구 세류동 1139-21,경기도 수원시 권선구 덕영대로1126번길 49 (세류동),201111.0472,416444.0071
경기도 수원시 영통구 망포동 539 즐거운속셈학원,"경기도 수원시 영통구 영통로130번길 12, A동 1층 (망포동)",204987.374,415272.6658
경기도 수원시 권선구 권선동 1019번지 9호 거성빌딩,"경기도 수원시 권선구 권선로 673, 거성빌딩 1층 (권선동)",202174.4807,417550.6271
경기도 수원시 권선구 탑동 840번지 7호,"경기도 수원시 권선구 탑동로11번길 2, 1층 (탑동)",197696.3215,418685.2063
경기도 수원시 권선구 서둔동 371번지 센트라우스,"경기도 수원시 권선구 세화로168번길 15, 상가동 1층 101호 (서둔동, 센트라우스)",199495.5162,418463.9249
경기도 수원시 권선구 세류동 1148번지,"경기도 수원시 권선구 경수대로225번길 72, 1층 (세류동)",201283.9545,416348.2678
경기도 수원시 장안구 파장동 580번지 9호 연세이비인후과,"경기도 수원시 장안구 파장로82번길 6, 연세이비인후과 1층 (파장동)",199244.5762,422743.2265
경기도 수원시 장안구 영화동 31번지 1호 은석학원,"경기도 수원시 장안구 광교산로 38, 은석학원 1층 (영화동)",201905.3622,421405.0367
경기도 수원시 권선구 호매실동 1414번지 호매실20단지(능실마을) 상가동 101호,"경기도 수원시 권선구 호매실로166번길 70, 상가동 101호 (호매실동, 호매실20단지(능실마을))",196482.264,417299.8038
경기도 수원시 권선구 오목천동 431번지 1호 로뎀프라자 105호,"경기도 수원시 권선구 오목천로 31, 로뎀프라자 105호 (오목천동)",196897.0083,415380.2554
경기도 수원시 영통구 매탄동 141번지 11호,"경기도 수원시 영통구 중부대로256번길 35, 1층 (매탄동)",203761.2869,419009.2134
경기도 수원시 장안구 영화동 259번지 5호,경기도 수원시 장안구 수성로382번길 14 (영화동),201176.3218,421273.4704
경기도 수원시 장안구 영화동 397-1 관양수족관,"경기도 수원시 장안구 수성로262번길 3, 1층 (영화동)",200065.1692,420875.5149
경기도 수원시 장안구 율전동 416번지 10호,"경기도 수원시 장안구 율전로64번길 12-19, 엣지힐 101호 (율전동)",197064.6158,421423.7611
경기도 수원시 장안구 율전동 546번지 밤꽃마을뜨란채,"경기도 수원시 장안구 상률로 32, 상가동 1층 107호 (율전동, 밤꽃마을뜨란채)",197143.1779,422680.158
경기도 수원시 장안구 정자동 945번지 수원 SK SKY VIEW,"경기도 수원시 장안구 이목로 24, 604동 101호,102호 (정자동, 수원 SK SKY VIEW)",198599.3409,422793.724
경기도 수원시팔달구 매산로1가 1번지 18호 수원역사내(지상2층) C2 3,,,
경기도 수원시팔달구 매산로1가 18번지 애경백화점 3층,,199920.1947,418246.9271
경기도 수원시 팔달구 인계동 991번지 6호,"경기도 수원시 팔달구 세지로174번길 43, 1층 (인계동, 태화빌딩)",202084.4666,418283.8091
경기도 수원시 팔달구 우만동 469번지 15호,경기도 수원시 팔달구 창룡대로150번길 55 (우만동),202447.5551,420803.5836
경기도 수원시 권선구 서둔동 27번지 138호,"경기도 수원시 권선구 서호동로14번길 76-24, 310동 101호 (서둔동)",199073.8078,417988.9296
경기도 수원시 장안구 율전동 295번지,경기도 수원시 장안구 화산로233번길 12 (율전동),197317.1047,421912.9475
경기도 수원시 영통구 매탄2동 130번지 11호,경기도 수원시 영통구 동수원로514번길 11 (매탄동),204114.8392,418937.3114
경기도 수원시 영통구 영통2동 980번지 3호 영통디지털엠파이어,"경기도 수원시 영통구 덕영대로1556번길 16-129 (영통동, 영통디지털엠파이어)",205249.4958,415913.2738
경기도 수원시 장안구 율전동 379번지 8호,경기도 수원시 장안구 율전로 79 (율전동),197067.8483,421618.217
경기도 수원시 권선구 세류1동 186번지 7호,경기도 수원시 권선구 덕영대로963번길 12-1 (세류동),200251.4184,417882.9297
경기도 수원시 팔달구 인계동 362번지,경기도 수원시 팔달구 권광로 262 (인계동),203100.0197,418750.2847
경기도 수원시 권선구 세류동,"경기도 수원시 권선구 효원로94번길 31-13, 1층 (세류동)",200997.13,418107.4901
경기도 수원시 권선구 세류동 1146번지 7호,"경기도 수원시 권선구 정조로 398, 1층 (세류동)",201223.782,415899.032
경기도 수원시 권선구 세류2동 666번지 4호,경기도 수원시 권선구 새터로29번길 19-1 (세류동),200575.4195,416768.7955
경기도 수원시 권선구 세류동 97번지 192호,경기도 수원시 권선구 수원천로 125 (세류동),201153.0051,418198.0064
경기도 수원시 장안구 영화동 284번지 1호,경기도 수원시 장안구 정조로922번길 7 (영화동),201155.4998,420931.8408
경기도 수원시 영통구 매탄2동 1196번지 수원남부경찰서,"경기도 수원시 영통구 매봉로 52 (매탄동,수원남부경찰서)",204725.5261,418909.2458
경기도 수원시 장안구 정자동 43번지 50호,경기도 수원시 장안구 수성로261번길 71-1 (정자동),199824.6653,421179.0476
경기도 수원시 팔달구 고등동 55번지 29호,"경기도 수원시 팔달구 고등로59번길 2 (고등동, 1층)",200266.1191,419054.7959
경기도 수원시 팔달구 우만1동 484번지 18호,경기도 수원시 팔달구 세지로421번길 40 (우만동),202551.7402,420667.6781
경기도 수원시권선구 탑동 호 15블럭20롯트,,,
경기도 수원시 영통구 영통동 1052-2 쌍용아파트,"경기도 수원시 영통구 봉영로1744번길 16, 상가동 1층 101,102호 (영통동, 쌍용아파트)",207292.5096,417922.1326
경기도 수원시 영통구 이의동 1341-4 그린메디칼,"경기도 수원시 영통구 에듀타운로 24, 그린메디칼 105호 (이의동)",204568.5995,420364.7733
경기도 수원시 영통구 영통동 972-8 벽적골1단지주공아파트,"경기도 수원시 영통구 영통로290번길 28, 벽적골1단지주공아파트 상가동 105호 (영통동)",205447.4176,416591.3643
경기도 수원시 장안구 송죽동 195번지 광교프라자,"경기도 수원시 장안구 경수대로994번길 31, 1층 102호 (송죽동, 광교프라자)",200266.6976,422768.1349
경기도 수원시 팔달구 교동 196번지 2호,경기도 수원시 팔달구 매산로96번길 1 (교동),200958.89,418713.5895
"경기도 수원시 팔달구 화서동 644번지 8호 102,112호","경기도 수원시 팔달구 덕영대로 695 (화서동,102,112호)",199071.439,420305.4329
경기도 수원시팔달구 매산로1가 57번지 62호,경기도 수원시 팔달구 덕영대로 941 (매산로1가),200116.8441,418085.6789
경기도 수원시팔달구 매산로1가 61번지 1호 1층,"경기도 수원시 팔달구 덕영대로 913 (매산로1가,1층)",200060.6079,418379.408
경기도 수원시 권선구 세류동 248번지 1호,,200350.1868,417872.6848
경기도 수원시 권선구 곡반정동 513번지 16호,"경기도 수원시 권선구 동수원로146번길 58, 1층 (곡반정동)",202797.4162,415909.7602
경기도 수원시 권선구 탑동 779번지 5호,"경기도 수원시 권선구 상탑로21번길 33, 1층 (탑동)",197536.3631,418933.7567
경기도 수원시 영통구 영통동 976번지 1호,"경기도 수원시 영통구 덕영대로 1521, 1층 (영통동)",205015.4976,416033.8466
경기도 수원시 영통구 망포동 698번지,"경기도 수원시 영통구 태장로82번길 33, 104,105,106호 (망포동)",204946.3207,414977.3762
경기도 수원시권선구 권선동 1233번지 3   호,경기도 수원시 권선구 권중로25번길 34 (권선동),202957.9413,417026.7224
경기도 수원시 장안구 율전동 300번지 율전미주타운,"경기도 수원시 장안구 율전로108번길 9, 1층 101-2호 (율전동, 율전미주타운)",197252.2743,421904.184
경기도 수원시 영통구 이의동 1344 자연앤 힐스테이트,"경기도 수원시 영통구 도청로 65, 제상가2동 104호 (이의동, 자연앤 힐스테이트)",204426.4092,420635.2237
경기도 수원시 영통구 영통동 1055번지 영통역,"경기도 수원시 영통구 봉영로 지하 1560, 영통역 (영통동)",206668.611,417223.4732
경기도 수원시 영통구 원천동 589번지 광교중흥에스클래스,"경기도 수원시 영통구 광교호수공원로 277, B2층 214,215호 (원천동, 광교중흥에스클래스)",205026.0796,420062.8782
경기도 수원시 영통구 매탄동 1270-5,"경기도 수원시 영통구 매탄로79번길 6-2, 1층 (매탄동)",203662.9453,417373.3741
경기도 수원시 장안구 송죽동 448번지 6호,"경기도 수원시 장안구 정조로1110번길 14-18, 1층 (송죽동)",200129.4239,422395.5242
경기도 수원시 영통구 하동 1016번지 1호 광교 SK VIEW Lake,"경기도 수원시 영통구 법조로 25, 광교 SK VIEW Lake 147호 (하동)",205273.9318,420610.7825
경기도 수원시장안구 정자동 333번지 5   호,경기도 수원시 장안구 만석로 99 (정자동),199226.6804,421882.7279
경기도 수원시 팔달구 매산로2가 13번지 10호,"경기도 수원시 팔달구 향교로 47, 1층 (매산로2가)",200463.4263,418598.885
경기도 수원시 팔달구 인계동 1031번지 4호 세원빌딩 3층301호,"경기도 수원시 팔달구 경수대로446번길 62, 3층 301호 (인계동, 세원빌딩)",202583.2841,418115.0292
경기도 수원시 팔달구 고등동 57번지 21호 1층1호,"경기도 수원시 팔달구 고매로39번길 12, 1층 1호 (고등동)",200378.9807,419007.2373
경기도 수원시 팔달구 매산로1가 57번지 69호,경기도 수원시 팔달구 덕영대로 925 (매산로1가),200056.4278,418233.718
경기도 수원시 영통구 망포동 345번지 2호,"경기도 수원시 영통구 영통로200번길 66, 1층 102호 (망포동)",205268.0888,415795.81
경기도 수원시 영통구 영통1동 1053번지 2호 벽산풍림아파트상가 가동-110호,경기도 수원시 영통구 봉영로1744번길 11 (영통동),207355.2103,418229.4006
경기도 수원시 팔달구 신풍동 203번지,경기도 수원시 팔달구 정조로 855 (신풍동),201330.2155,420263.8771
경기도 수원시 팔달구 화서2동 736번지 하나로마트정천점 104-1호,"경기도 수원시 팔달구 화산로 62, 104-1호 (화서동, 하나로마트정천점)",198571.6828,420902.7886
경기도 수원시 장안구 파장동 582번지 30호,경기도 수원시 장안구 파장로68번길 2 (파장동),199348.8173,422669.6257
경기도 수원시 팔달구 지동 479번지 12호,경기도 수원시 팔달구 팔달문로103번길 8 (지동),202361.1808,419970.4629
경기도 수원시 영통구 영통1동 1009번지 3호 호원빌딩 104호~106호,"경기도 수원시 영통구 반달로 31, 104호 (영통동, 호원빌딩104호~106호)",206668.083,416573.3841
경기도 수원시 장안구 파장동 585번지 4호,경기도 수원시 장안구 경수대로 1059 (파장동),199596.162,422905.4822
경기도 수원시 팔달구 인계동 1043-9 신흥빌딩,"경기도 수원시 팔달구 효원로265번길 41, 신흥빌딩 103호 (인계동)",202704.1284,418001.6409
경기도 수원시 장안구 천천동 385번지 32호,경기도 수원시 장안구 일월로76번길 10-3 (천천동),197941.418,420851.9844
경기도 수원시 팔달구 우만1동 94번지 4호,경기도 수원시 팔달구 중부대로223번길 20-8 (우만동),203596.7135,419413.6067
경기도 수원시 팔달구 우만동 30번지 3호 복합상가 104호,"경기도 수원시 팔달구 중부대로223번길 66, 104호 (우만동,복합상가)",203595.5314,419654.1318
경기도 수원시 영통구 영통1동 955번지 5호  1층,"경기도 수원시 영통구 영통로 514 (영통동,1층)",206847.2162,418060.1043
경기도 수원시 권선구 구운동 908번지 6호,"경기도 수원시 권선구 일월천로 6, 1층 (구운동)",197501.5055,420095.6768
경기도 수원시 권선구 권선동 1355번지 수원아이파크시티5단지,"경기도 수원시 권선구 곡선로 10, 107,108호 (권선동, 수원아이파크시티5단지)",202146.5178,415228.0626
경기도 수원시 팔달구 인계동 820번지 6호,경기도 수원시 팔달구 세지로234번길 4 (인계동),202070.623,418882.3133
경기도 수원시 권선구 오목천동 760번지,경기도 수원시 권선구 서부로 1382 (오목천동),198539.6279,414617.5989
경기도 수원시 팔달구 팔달로3가 98번지 3호,경기도 수원시 팔달구 정조로 775-1 (팔달로3가),201390.0062,419456.6781
경기도 수원시 영통구 영통동 970번지 3호 벽적골9단지 나상가동 102호,"경기도 수원시 영통구 봉영로1517번길 27, 나상가동 102호 (영통동, 벽적골9단지 )",205748.9356,416186.9348
경기도 수원시 영통구 매탄동 399번지 12호,"경기도 수원시 영통구 삼성로168번길 64, 101호 (매탄동, 아너스빌)",205177.6823,417550.4131
경기도 수원시 팔달구 인계동 1116번지 5호 인계동 삼환 아르누보파크,"경기도 수원시 팔달구 권광로196번길 57, 인계동 삼환 아르누보파크 1층 104호 (인계동)",203164.8013,418055.509
경기도 수원시 팔달구 화서동 68번지 17호,경기도 수원시 팔달구 팔달로153번길 2 (화서동),200425.1656,420017.4273
경기도 수원시권선구 서둔동 106번지 8호,경기도 수원시 권선구 상탑로 132-16 (서둔동),198696.5505,418722.4172
경기도 수원시권선구 오목천동 213번지 1호,경기도 수원시 권선구 오목천로57번길 10-21 (오목천동),197255.6733,415415.5043
경기도 수원시 권선구 고색동 986번지 수원종합공구단지 101동 106호,"경기도 수원시 권선구 권선로 308-18 (고색동,수원종합공구단지 101동 106호)",198613.5704,417039.0403
경기도 수원시팔달구 인계동 983번지 13호,경기도 수원시 팔달구 세지로198번길 32 (인계동),202115.3338,418478.0676
경기도 수원시권선구 권선동 170번지 18  호,,,
경기도 수원시권선구 구운동 218번지 1   호,경기도 수원시 권선구 서부로 1937 (구운동),197034.7597,420068.3637
경기도 수원시 영통구 영통동 986-7,경기도 수원시 영통구 봉영로1492번길 50(영통동),205978.6386,415925.1152
경기도 수원시팔달구 우만동 466번지 5   호,경기도 수원시 팔달구 월드컵로369번길 4 (우만동),202603.2803,420921.1654
경기도 수원시팔달구 화서동 175번지 1호,경기도 수원시 팔달구 동말로 48 (화서동),199868.6077,419626.0167
경기도 수원시팔달구 지동 212번지 4   호,경기도 수원시 팔달구 세지로 381 (지동),202327.2307,420278.3271
경기도 수원시 영통구 매탄동 560번지 삼성전자공업단지,"경기도 수원시 영통구 삼성로 130, 전자연구단지 Q-Q7동 지하1층 (매탄동)",204875.7545,416736.8416
경기도 수원시 영통구 이의동 906번지 10호 한국나노기술원,"경기도 수원시 영통구 광교로 109, 한국나노기술원 연구벤처동 지하1층 (이의동)",203613.2414,421228.0434
경기도 수원시 영통구 영통동 1012번지 1호 영통역 아이파크,"경기도 수원시 영통구 반달로35번길 30, 영통역 아이파크 105, 106호 (영통동)",206801.8558,416659.1682
경기도 수원시 영통구 망포동 291번지 18호,"경기도 수원시 영통구 영통로173번길 23-28, 1층 101호 (망포동)",204625.9651,415578.2232
경기도 수원시 영통구 원천동 25번지 10호,"경기도 수원시 영통구 아주로 24, 지하1층 (원천동)",203842.3987,419442.1159
경기도 수원시 영통구 매탄동 196번지 66호,"경기도 수원시 영통구 매여울로 36, 1층 (매탄동)",203982.5408,418818.6256
경기도 수원시 팔달구 팔달로3가 30번지 9호,경기도 수원시 팔달구 중부대로 3 (팔달로3가),201450.7914,419268.136
경기도 수원시 영통구 하동 1016번지 광교 효성해링턴 타워,"경기도 수원시 영통구 광교중앙로 170, 광교 효성해링턴 타워 1층 123호 (하동)",205311.2833,420682.8012
경기도 수원시 영통구 원천동 593번지 광교아이파크,"경기도 수원시 영통구 광교호수공원로 80, I동 158호 (원천동, 광교아이파크)",205357.8071,419119.0197
경기도 수원시장안구 영화동 274번지 19  호,경기도 수원시 장안구 수성로364번길 53 (영화동),201115.0933,421045.5889
경기도 수원시 팔달구 매산로3가 94번지 1호,경기도 수원시 팔달구 효원로60번길 30 (매산로3가),200609.5705,418419.8281
경기도 수원시 영통구 하동 855번지 2호 수원컨벤션센터,"경기도 수원시 영통구 광교중앙로 140, 수원컨벤션센터 100호 (하동)",205209.4298,420428.3659
경기도 수원시 영통구 망포동 760번지 아이파크 캐슬 2단지,"경기도 수원시 영통구 덕영대로 1400, 상가에이동 104호105호 (망포동, 아이파크 캐슬 2단지)",203682.902,415678.0385
경기도 수원시 영통구 하동 855번지 2호 수원컨벤션센터,"경기도 수원시 영통구 광교중앙로 140, 수원컨벤션센터 104호 (하동)",205209.4298,420428.3659
경기도 수원시 영통구 원천동 96번지 1호,"경기도 수원시 영통구 중부대로 335, 삼부리치안 211호 (원천동)",204595.6123,419078.8078
경기도 수원시 영통구 원천동 606번지 광교 호반베르디움,"경기도 수원시 영통구 광교호수공원로 45, 1015동 근린생활시설동 106호 (원천동, 광교 호반베르디움)",204966.7047,419001.7316
경기도 수원시 팔달구 교동 149-2,"경기도 수원시 팔달구 매산로 102, 1층 107호 (교동)",201011.6903,418719.3193
경기도 수원시 팔달구 매산로3가 111번지 68호,경기도 수원시 팔달구 세류로 75-2 (매산로3가),200688.1702,418248.4714
경기도 수원시 장안구 영화동 164번지 42호,경기도 수원시 장안구 팔달로279번길 16 (영화동),201241.8477,420956.8728
경기도 수원시 장안구 파장동 298번지 4호,경기도 수원시 장안구 수일로 53 (파장동),199666.8262,423292.8989
경기도 수원시 영통구 영통2동 978번지 7호 1층,"경기도 수원시 영통구 영통로 215 (영통동,1층)",204969.2704,416079.7337
경기도 수원시 권선구 오목천동 371번지 2호,경기도 수원시 권선구 삼천병마로 1595 (오목천동),196682.6771,415890.1423
경기도 수원시 권선구 당수동 261번지 13호,경기도 수원시 권선구 당진로31번길 15 (당수동),194580.6785,421093.9684
경기도 수원시 영통구 영통동 1037번지 13호,"경기도 수원시 영통구 반달로 100, 1층 (영통동)",206815.8424,416748.535
경기도 수원시 영통구 원천동 604번지 광교더샵,"경기도 수원시 영통구 광교호수로 15, 근린생활시설동 122호, 123호 (원천동, 광교더샵)",205414.8564,418838.3059
경기도 수원시 영통구 영통동 978번지 2호,경기도 수원시 영통구 영통로217번길 21 (영통동),204880.0575,416081.9694
경기도 수원시 영통구 이의동 1283번지 광교 센트럴비즈타워,"경기도 수원시 영통구 창룡대로 260, 광교 센트럴비즈타워 104호 (이의동)",203248.317,421498.0903
경기도 수원시 장안구 연무동 178번지 27호,"경기도 수원시 장안구 수원천로392번길 158, 1층 (연무동)",201833.6485,420845.187
경기도 수원시 장안구 정자2동 73번지 10호 정자종합상가 108호,"경기도 수원시 장안구 수성로261번길 16, 108호 (정자동, 정자종합상가)",200010.5117,420969.555
경기도 수원시팔달구 인계동 1135번지 1호 벨로시티오피스텔 113호,"경기도 수원시 팔달구 권선로 739, 113호 (인계동,벨로시티오피스텔)",202778.5024,417357.1573
경기도 수원시 영통구 매탄동 172번지 135호,경기도 수원시 영통구 매여울로53번길 46-4 (매탄동),203698.9715,418959.3425
경기도 수원시 팔달구 인계동 447번지 8호 (인계동 기업은행 앞),,202908.5144,418319.6483
경기도 수원시 권선구 탑동 318번지 1호,경기도 수원시 권선구 서둔로 223 (탑동),198069.1749,418834.2502
경기도 수원시 권선구 세류동 566번지 5호,"경기도 수원시 권선구 정조로 487, 1층 1호 (세류동)",200909.0233,416745.7967
경기도 수원시 권선구 호매실동 1344번지 5호,"경기도 수원시 권선구 금곡로140번길 95-123, 101호 (호매실동)",194989.5673,418603.6681
경기도 수원시 권선구 탑동 300번지 17호,"경기도 수원시 권선구 상탑로 52, 102호 (탑동)",197876.281,418823.3701
경기도 수원시 권선구 구운동 313번지 1호,"경기도 수원시 권선구 서부로 1858, 101호 (구운동)",197242.9463,419171.6755
경기도 수원시 권선구 고색동 888번지 6호,경기도 수원시 권선구 권선로 258 (고색동),198201.2682,417314.9654
경기도 수원시 영통구 영통동 971번지 1호 벽적골롯데아파트,"경기도 수원시 영통구 덕영대로1555번길 20, 지하1층 (영통동, 벽적골롯데아파트)",205462.0474,416148.4863
경기도 수원시 영통구 매탄3동 1352번지 신매탄위브하늘채아파트 303상가 B동 지하1층,"경기도 수원시 영통구 효원로 363 (매탄동,신매탄위브하늘채아파트 303상가 B동 지하1층)",203603.1612,417765.0059
경기도 수원시 권선구 권선동 993번지,경기도 수원시 권선구 세지로82번길 54 (권선동),201758.8848,417357.1347
경기도 수원시 권선구 권선동 1047번지 9호,경기도 수원시 권선구 세권로195번길 20-3 (권선동),202256.7506,417144.9636
경기도 수원시 팔달구 인계동 1020번지 1호 수일빌딩,"경기도 수원시 팔달구 인계로94번길 21 (인계동, 수일빌딩)",202380.3876,418350.593
경기도 수원시 권선구 당수동 273-3 한스프라자,"경기도 수원시 권선구 당진로15번길 56, 한스프라자 B101~B106호 (당수동)",194524.1387,421119.4672
경기도 수원시 권선구 권선동 1258번지 11호,경기도 수원시 권선구 권중로76번길 4 (권선동),202583.7837,416712.8715
"경기도 수원시 장안구 정자동 313번지 지층 상가동 4,5호","경기도 수원시 장안구 장안로 211, 상가동 지층 4,5호 (정자동)",199351.941,422056.6727
경기도 수원시 장안구 정자동 870번지 1호 상가동 107호,"경기도 수원시 장안구 만석로68번길 10, 상가동동 107,108호 (정자동, 백설마을코오롱아파트)",198876.1906,421584.7343
경기도 수원시 권선구 고색동 383번지 14호 1층,"경기도 수원시 권선구 매송고색로 694 (고색동,1층)",198194.2559,416508.1499
경기도 수원시장안구 영화동 167번지 1호,경기도 수원시 장안구 팔달로 291 (영화동),201375.2507,420981.6859
경기도 수원시영통구 원천동 177번지 1호,경기도 수원시 영통구 중부대로 437 (원천동),205572.5869,418683.7049
경기도 수원시팔달구 매교동 24번지 1호,경기도 수원시 팔달구 정조로715번길 11 (매교동),201386.2449,418821.9121
"경기도 수원시 팔달구 매산로3가 106번지 5호 101,102호","경기도 수원시 팔달구 갓매산로 19 (매산로3가,101,102호)",200488.8807,418272.3387
경기도 수원시 팔달구 화서동 117번지 6호,경기도 수원시 팔달구 동말로47번길 34 (화서동),199827.573,419796.7564
경기도 수원시 장안구 파장동 596번지 8호 1층,"경기도 수원시 장안구 파장천로26번길 65 (파장동,1층)",199784.9512,422718.2988
경기도 수원시 장안구 송죽동 442번지 24호,경기도 수원시 장안구 파장천로12번길 105-2 (송죽동),199892.9086,422498.2886
경기도 수원시 장안구 영화동 397번지 9호,경기도 수원시 장안구 수성로262번길 7 (영화동),200078.1033,420858.5818
경기도 수원시 영통구 영통1동 945번지 7호,경기도 수원시 영통구 봉영로 1761 (영통동),207169.9791,418263.8757
경기도 수원시 영통구 원천동 29번지 51호 1층,"경기도 수원시 영통구 월드컵로193번길 23 (원천동,1층)",203901.9161,419578.8079
경기도 수원시 영통구 매탄3동 1276번지 레몬스포렉스1층 105-1호,"경기도 수원시 영통구 효원로 400 (매탄동,레몬스포렉스1층 105-1호)",203959.3883,417347.1387
경기도 수원시 권선구 호매실동 404-1 1층,,,
경기도 수원시 권선구 세류동 873-2,"경기도 수원시 권선구 세권로 109, 1층 (세류동)",201392.6711,417306.257
경기도 수원시 영통구 신동 486번지 디지털엠파이어2 103동 B06,"경기도 수원시 영통구 신원로 88 (신동,디지털엠파이어2 103동 B06)",204417.5979,416171.1517
경기도 수원시 권선구 세류동 521번지 11호,경기도 수원시 권선구 세권로85번길 13 (세류동),201164.2631,417446.0207
경기도 수원시 권선구 곡반정동 540번지 1호,"경기도 수원시 권선구 동수원로146번길 290-2, 1층 101호 (곡반정동)",202591.8572,415520.0859
경기도 수원시 권선구 곡반정동 592번지 10호,"경기도 수원시 권선구 경수대로54번길 92, 1층 (곡반정동)",202253.6839,414762.8449
경기도 수원시팔달구 매산로1가 18호,,199920.1947,418246.9271
경기도 수원시팔달구 매산로1가 18호,,199920.1947,418246.9271
경기도 수원시 권선구 구운동 971번지,경기도 수원시 권선구 서부로1880번길 2 (구운동),197219.3489,419304.021
경기도 수원시 권선구 금곡동 1086번지 2호 106호,"경기도 수원시 권선구 금곡로102번길 45, 106호 (금곡동)",194778.8038,418923.5561
경기도 수원시팔달구 화서동 677번지 5호,경기도 수원시 팔달구 수성로157번길 41-10 (화서동),198930.9109,420657.2618
경기도 수원시팔달구 인계동 1131번지 1호 마이홈오피스텔 101호,"경기도 수원시 팔달구 효원로292번길 50, 101호 (인계동,마이홈오피스텔)",202770.3266,417535.8615
경기도 수원시영통구 영통동 1050번지 5호,경기도 수원시 영통구 청명북로 96-15 (영통동),207066.1515,417604.8458
경기도 수원시 영통구 이의동 1338번지,"경기도 수원시 영통구 도청로 10, 지하1층 (이의동, 롯데백화점 아울렛광교점)",204888.8556,420476.3916
경기도 수원시 영통구 원천동 325번지 1호,경기도 수원시 영통구 삼성로277번길 12-25 (원천동),205713.3085,418353.1758
경기도 수원시 영통구 매탄동 130번지 27호,경기도 수원시 영통구 동수원로514번길 43-24 (매탄동),204280.882,418969.5759
경기도 수원시 영통구 매탄동 810-4 매탄성일아파트,"경기도 수원시 영통구 인계로 239, 1층 117호 (매탄동, 매탄성일아파트)",203838.5741,418153.4715
경기도 수원시 영통구 매탄동 134-1,경기도 수원시 영통구 중부대로 274(매탄동),203988.7519,419101.8769
"경기도 수원시 영통구 이의동 1331 광교푸르지오 월드마크,  월드스퀘어","경기도 수원시 영통구 센트럴타운로 107, 204동 B-54호 (이의동, 광교푸르지오 월드마크, 월드스퀘어)",204219.5217,421105.1732
경기도 수원시 영통구 매탄동 153-3,"경기도 수원시 영통구 중부대로 268, 1층 (매탄동)",203921.0734,419119.7688
경기도 수원시 영통구 하동 20번지 수원시 연화장,"경기도 수원시 영통구 광교호수로 278, 수원시 연화장 (하동)",207390.3371,420879.5843
경기도 수원시 팔달구 지동 278번지 19호,경기도 수원시 팔달구 팔달문로57번길 34 (지동),201978.036,419869.0782
경기도 수원시 영통구 망포동 386번지 센트럴타워 117호,"경기도 수원시 영통구 영통로 136, 117호 (망포동, 센트럴타워)",204933.4572,415306.4798
경기도 수원시 권선구 세류2동 1159번지 7호,경기도 수원시 권선구 정조로384번길 23 (세류동),201336.8094,415808.0306
"경기도 수원시 영통구 망포동 322번지 3호 골든스퀘어B104호,B105호","경기도 수원시 영통구 영통로 195 (망포동, 골든스퀘어B104호,B105호)",204894.5966,415913.666
경기도 수원시 팔달구 우만1동 562번지 7호,경기도 수원시 팔달구 경수대로 596 (우만동),202706.726,419646.509
경기도 수원시 팔달구 매산로3가 27번지 11호,"경기도 수원시 팔달구 향교로 56-1, 1층 (매산로3가)",200555.9604,418617.7211
경기도 수원시 권선구 권선동 1011번지 14호 대우미래사랑 101동 106호,"경기도 수원시 권선구 효원로230번길 38, 101동 106호 (권선동,대우미래사랑)",202225.8854,417684.1754
경기도 수원시 권선구 탑동 579번지 3호,경기도 수원시 권선구 호매실로 46-55 (탑동),197055.6299,417396.706
경기도 수원시권선구 구운동 462번지 삼환아파트상가 1층 3호,"경기도 수원시 권선구 수성로 47, 3호 (구운동,삼환아파트상가 1층)",198024.2074,420238.912
경기도 수원시 권선구 금곡동,"경기도 수원시 권선구 금곡로102번길 15, 111호 (금곡동)",194772.3713,419039.0403
경기도 수원시 권선구 세류동 180번지 5호 101호,"경기도 수원시 권선구 권선로474번길 3, 101호 (세류동)",200231.0484,417977.8612
경기도 수원시 권선구 탑동 783번지 15호,"경기도 수원시 권선구 탑동로39번길 1, 1층 (탑동)",197639.5469,418927.1063
경기도 수원시 권선구 세류동 83번지 6호,"경기도 수원시 권선구 권선로537번길 26-8, 2층 (세류동)",200908.1633,418029.7552
경기도 수원시 권선구 서둔동 381 타임빌라스 수원,"경기도 수원시 권선구 세화로 134, 타임빌라스 수원 1층 (서둔동)",199673.3786,418025.5478
경기도 수원시 팔달구 우만동 30번지 2호,"경기도 수원시 팔달구 중부대로223번길 61, 1층 (우만동)",203564.119,419627.9119
경기도 수원시 팔달구 고등동 45번지 18호,경기도 수원시 팔달구 고화로61번길 9-1 (고등동),200435.3673,419198.7249
경기도 수원시 권선구 고색동 384번지 5호,경기도 수원시 권선구 매송고색로 701 (고색동),198243.852,416578.1053
경기도 수원시 권선구 호매실동 1406,"경기도 수원시 권선구 호매실로104번길 18, 1층 107호,108호 (호매실동)",196601.0975,417159.6004
경기도 수원시 팔달구 우만2동 578번지 1호,경기도 수원시 팔달구 아주로 9 (우만동),203802.8283,419314.8222
경기도 수원시 팔달구 화서1동 71번지 4호,경기도 수원시 팔달구 팔달로 128-1 (화서동),200339.8016,419764.4812
경기도 수원시 권선구 호매실동 1368,경기도 수원시 권선구 칠보로159번길 26 (호매실동),196132.7322,418321.5896
경기도 수원시 권선구 세류2동 1158번지 44호,경기도 수원시 권선구 정조로398번길 24 (세류동),201329.1121,415913.9495
경기도 수원시 권선구 구운동 537번지 6호,경기도 수원시 권선구 구운로45번길 81 (구운동),197308.9461,419337.1474
경기도 수원시 권선구 권선동 1030번지 7호 1층,"경기도 수원시 권선구 경수대로370번길 31 (권선동,1층)",202185.8704,417452.3491
"경기도 수원시 장안구 조원1동 866번지 5호 상가 1,2호","경기도 수원시 장안구 금당로 61, 상가동 1,2호 (조원동)",201472.2416,422188.6366
경기도 수원시 영통구 영통1동 1042번지 1호,경기도 수원시 영통구 청명로77번길 7 (영통동),206916.3409,416839.6362
경기도 수원시 영통구 매탄3동 923번지 1호 101호,"경기도 수원시 영통구 동수원로 394 (매탄동,101호)",203501.3314,418032.7419
경기도 수원시 영통구 망포동 649-38 진성프라자,"경기도 수원시 영통구 태장로54번길 92, 진성프라자 106호 (망포동)",204507.8731,414784.9911
경기도 수원시 팔달구 지동 474번지 18호,경기도 수원시 팔달구 팔달문로103번길 34 (지동),202285.9303,420081.7442
경기도 수원시 팔달구 지동 360-1,"경기도 수원시 팔달구 세지로 308, 1층 2,3,4호 (지동)",202055.7094,419623.4907
경기도 수원시장안구 연무동 236번지,경기도 수원시 장안구 연무로13번길 57 (연무동),202266.9328,421388.5698
"경기도 수원시 영통구 매탄동 1233번지 2호 104,105","경기도 수원시 영통구 매탄로 142, 105호 (매탄동, 양성프라자)",203852.2274,417927.0862
경기도 수원시 팔달구 우만동 559번지 7호,경기도 수원시 팔달구 중부대로143번길 39 (우만동),202779.7483,419781.817
경기도 수원시 권선구 구운동 925번지,경기도 수원시 권선구 수인로 291 (구운동),197288.7208,420051.3394
경기도 수원시 팔달구 인계동 1134번지 9호 트윈파크비동,"경기도 수원시 팔달구 권선로 753, 트윈파크비동 1층 (인계동)",202920.6512,417303.4205
경기도 수원시 권선구 입북동 815번지 서수원 레이크 푸르지오 2단지,"경기도 수원시 권선구 입북로77번길 61, 상가동 102,103호 (입북동, 서수원 레이크 푸르지오 2단지)",195745.9753,421845.5941
경기도 수원시 권선구 권선동 982번지,"경기도 수원시 권선구 세지로82번길 25-20, 1층 (권선동)",201688.885,417512.2259
경기도 수원시 권선구 권선동 968번지,"경기도 수원시 권선구 경수대로 373, 지층 (권선동)",201999.5039,417545.5941
경기도 수원시 권선구 호매실동 1405번지 3호,경기도 수원시 권선구 호매실로90번길 20 (호매실동),196756.7222,417136.8844
경기도 수원시 장안구 연무동 260-33,"경기도 수원시 장안구 창룡대로151번길 2, 1층 (연무동)",202290.6091,421066.0481
경기도 수원시 장안구 상광교동 100,경기도 수원시 장안구 광교산로 541 (상광교동),201238.8727,425387.9645
경기도 수원시 팔달구 인계동 1009번지 3호,"경기도 수원시 팔달구 장다리로 157, 2층 (인계동)",202021.4984,418006.5081
경기도 수원시 팔달구 인계동 1032번지 1층,"경기도 수원시 팔달구 인계로108번길 39-4, 1층 (인계동)",202494.1298,418214.6095
경기도 수원시 권선구 권선동 1359번지 수원아이파크시티3단지 상가동 105호 ~ 110호,"경기도 수원시 권선구 동수원로145번길 73 (권선동,수원아이파크시티3단지 상가동 105호 ~ 110호)",202233.9417,415636.1655
경기도 수원시 권선구 세류동 1132번지,경기도 수원시 권선구 덕영대로1142번길 8-1 (세류동),201290.017,416546.0163
경기도 수원시 권선구 곡반정동 557번지 10호,경기도 수원시 권선구 곡선로49번길 13-3 (곡반정동),202593.9352,415280.4938
경기도 수원시 장안구 영화동 419번지 16호,경기도 수원시 장안구 장안로30번길 37 (영화동),200577.598,420736.1832
경기도 수원시 팔달구 교동 88-1,경기도 수원시 팔달구 매산로 129-7(교동),201206.3893,418928.7339
경기도 수원시 권선구 권선동 1013번지 4호 한라비발디파크,"경기도 수원시 권선구 효원로256번길 33, 한라비발디파크 104호 (권선동)",202525.903,417607.221
경기도 수원시 장안구 천천동 480번지 1호,"경기도 수원시 장안구 정자로31번길 16, 1층 (천천동)",198232.3874,422132.4842
경기도 수원시 장안구 율전동 321번지 9호 경진빌딩,"경기도 수원시 장안구 율전로101번길 26, 1층 3,4호 (율전동, 경진빌딩)",197060.1017,421857.7715
경기도 수원시팔달구 매산로1가 1번지 18  호 수원역사내(지상2층) C2 3,,,
경기도 수원시 팔달구 인계동 1009번지,"경기도 수원시 팔달구 세지로152번길 46, 1층 (인계동)",202001.3993,418033.694
경기도 수원시 팔달구 인계동 1003번지 24호,경기도 수원시 팔달구 세지로174번길 8-4 (인계동),201903.7353,418308.1771
경기도 수원시 영통구 매탄4동 208번지,경기도 수원시 영통구 매원로 2 (매탄동),204038.4757,418319.5094
경기도 수원시 권선구 금곡동 1105번지 12호,"경기도 수원시 권선구 금곡로197번길 59-37, 1층 (금곡동)",195826.261,419334.3422
경기도 수원시 권선구 탑동 885번지 3호 죽전빌딩,"경기도 수원시 권선구 하탑로 54, 죽전빌딩 1층 (탑동)",197948.4212,418574.4765
경기도 수원시 영통구 신동 334번지 18호,경기도 수원시 영통구 신원로136번길 12 (신동),204867.2012,416315.6057
경기도 수원시 권선구 권선동 1191번지 2호 금강타운 101호,"경기도 수원시 권선구 덕영대로1201번길 28, 101호 (권선동,금강타운)",201964.9486,416493.3922
경기도 수원시 팔달구 인계동 967번지,경기도 수원시 팔달구 경수대로479번길 19 (인계동),202247.0825,418580.272
경기도 수원시 장안구 율전동 207번지 5호 103호,"경기도 수원시 장안구 덕영대로425번길 8, 103호 (율전동, 밤꽃마을주공아파트)",197250.7988,422164.943
경기도 수원시 팔달구 매산로3가 94번지 44호,경기도 수원시 팔달구 매산로46번길 29 (매산로3가),200545.4218,418357.8279
경기도 수원시 팔달구 남수동 130번지 5호 1층,"경기도 수원시 팔달구 수원천로 311 (남수동, 1층)",201521.3384,419922.0237
경기도 수원시 팔달구 인계동 1001번지 7호 1층,"경기도 수원시 팔달구 세지로174번길 16-21, 1층 (인계동)",201921.4488,418206.3157
경기도 수원시 장안구 조원1동 739번지 22호,경기도 수원시 장안구 조원로 68 (조원동),201493.5931,421955.5998
"경기도 수원시 권선구 금곡동 호매실택지개발지구 상업4-2블록 1,2,3로트",경기도 수원시 권선구 금곡로 236 (금곡동),195965.407,419154.4892
경기도 수원시 권선구 구운동 536번지 4호,경기도 수원시 권선구 구운로45번길 47 (구운동),197391.0921,419392.5435
경기도 수원시 권선구 고색동 950번지 골드프라자 117호,"경기도 수원시 권선구 오목천로152번길 68, 117호 (고색동)",197976.7862,415511.7607
경기도 수원시 팔달구 화서동 69-4,경기도 수원시 팔달구 팔달로165번길 12 (화서동),200427.8948,420129.8023
경기도 수원시팔달구 화서동 674번지 1호 풍림상가  103,"경기도 수원시 팔달구 수성로157번길 75, 103호 (화서동,풍림상가)",198859.2842,420797.0806
경기도 수원시 영통구 영통동 947-10,"경기도 수원시 영통구 봉영로1759번길 11, 1층 (영통동)",207131.1553,418222.6155
경기도 수원시 장안구 연무동 245-32,"경기도 수원시 장안구 창룡대로 193, 1층 (연무동)",202693.2651,421193.4493
경기도 수원시 장안구 조원동 912 광교산임광그대가 상가 103호,"경기도 수원시 장안구 수일로 205, 1층 103호 (조원동, 광교산임광그대가)",201067.2042,422863.9823
경기도 수원시 장안구 정자동 75-3 101호,"경기도 수원시 장안구 장안로75번길 61, 1층 101호 (정자동)",199906.7523,420881.2968
경기도 수원시 영통구 망포동 417-2,"경기도 수원시 영통구 영통로154번길 60, 106호 (망포동)",205172.4155,415483.0328
경기도 수원시 팔달구 인계동 158-9,"경기도 수원시 팔달구 중부대로 206, 102,103호 (인계동)",203351.5894,419357.086
경기도 수원시 권선구 권선동 1185-1 권선삼성아파트,"경기도 수원시 권선구 경수대로302번길 29, 비1층 B01호 (권선동, 권선삼성아파트)",201979.6092,416852.0639
경기도 수원시 팔달구 인계동 1035-7 인계리치안,"경기도 수원시 팔달구 경수대로466번길 59, 115호 (인계동, 인계리치안)",202636.8238,418338.6356
경기도 수원시 영통구 원천동 353-18,"경기도 수원시 영통구 신원로294번길 40-6, B1호 (원천동)",205447.5599,417635.4259
경기도 수원시 팔달구 인계동 975 제2용신빌딩,"경기도 수원시 팔달구 인계로 52, 1층 (인계동)",201994.4663,418569.2526
경기도 수원시 영통구 이의동 산 94-6 경기대학교,"경기도 수원시 영통구 광교산로 154-42, 경기대학교 교육관점 (이의동)",203054.2199,422194.5793
경기도 수원시 팔달구 인계동 206 한라시그마팰리스,"경기도 수원시 팔달구 중부대로 110, 103호 (인계동)",202484.2902,419497.9696
경기도 수원시 권선구 금곡동 245-66,"경기도 수원시 권선구 금호로15번길 6, 1층 (금곡동)",195818.9675,418560.9218
경기도 수원시 팔달구 매교동 158-6 문화맨션,"경기도 수원시 팔달구 정조로 659, 1, 2호 (매교동, 문화맨션)",201343.3695,418388.4186
경기도 수원시 장안구 천천동 475-1,"경기도 수원시 장안구 하률로 25, 1층 (천천동)",197820.8827,422339.2294
경기도 수원시 권선구 서둔동 33-4,"경기도 수원시 권선구 세화로141번길 31-1, 1층 (서둔동)",199267.7416,418028.2207
경기도 수원시 팔달구 우만동 552-21,"경기도 수원시 팔달구 중부대로143번길 81, 1층 (우만동)",202848.973,419986.7032
경기도 수원시 권선구 구운동 934-8,"경기도 수원시 권선구 구운로85번길 47-15, 1층 (구운동)",197333.9376,419809.6132
경기도 수원시 권선구 서둔동 17-745 JS TOWER,"경기도 수원시 권선구 권선로381번길 13, JS TOWER 1층 106,107호 (서둔동)",199284.5557,417807.7446
경기도 수원시 장안구 하광교동 403-13 원천칡냉면,"경기도 수원시 장안구 광교산로 154-13, 101호 (하광교동)",202738.9111,422151.0467
경기도 수원시 장안구 천천동 516,"경기도 수원시 장안구 천천로 100, 103호 (천천동)",198520.4175,422075.1568
경기도 수원시 장안구 송죽동 398-54,"경기도 수원시 장안구 송정로59번길 9, 1층 (송죽동)",200267.8308,421614.7572
경기도 수원시 장안구 영화동 445-10 다원주택,"경기도 수원시 장안구 팔달로199번길 15, 1층 102호 (영화동, 다원주택)",200586.366,420475.2469
경기도 수원시 권선구 세류동 846-1 현대아파트,"경기도 수원시 권선구 세지로 97, 상가동 101호 (세류동, 현대아파트)",201464.2645,417615.3693
경기도 수원시 권선구 금곡동 1085-3,"경기도 수원시 권선구 금곡로 112, 1층 106-6호 (금곡동)",194833.6677,419111.3546
경기도 수원시 팔달구 지동 140-9,"경기도 수원시 팔달구 팔달문로 97, 1층 (지동)",202307.3492,419907.4973
경기도 수원시 장안구 천천동 482 비단마을 신명아파트,"경기도 수원시 장안구 정자로41번길 12, 101, 102호 (천천동, 비단마을 신명아파트)",198308.2685,422213.8393
경기도 수원시 영통구 이의동 1202-2 골드클래스,"경기도 수원시 영통구 대학로 103, 골드클래스 103, 104, 105, 106, 107호 (이의동)",204110.53,422515.71
경기도 수원시 팔달구 신풍동 185,"경기도 수원시 팔달구 신풍로23번길 4, 1층 (신풍동)",201212.3843,420150.3717
경기도 수원시 장안구 송죽동 277-26,"경기도 수원시 장안구 파장로 19, 1층 (송죽동)",199756.2905,422476.0564
경기도 수원시 권선구 권선동 1229,"경기도 수원시 권선구 세권로 243, 관리동 1층 (권선동)",202690.8629,417032.8521
경기도 수원시 영통구 망포동 728 힐스테이트 영통 아파트,"경기도 수원시 영통구 덕영대로 1462-14, 602동 105호 (망포동, 힐스테이트 영통 아파트)",204253.6827,415715.3169
경기도 수원시 팔달구 인계동 384 래미안 노블클래스,"경기도 수원시 팔달구 권광로 246, 상가동 1층 107호 (인계동, 래미안 노블클래스)",203163.3944,418608.5703
경기도 수원시 권선구 세류동 1248 한라녹턴아파트,"경기도 수원시 권선구 세지로 35, 1층 102~105호 (세류동, 한라녹턴아파트)",201299.0204,417053.6314
경기도 수원시 팔달구 인계동 952-8,"경기도 수원시 팔달구 중부대로128번길 9, 1층 (인계동)",202602.756,419535.3468
경기도 수원시 영통구 매탄동 510-13,"경기도 수원시 영통구 신원로198번길 47-2, 1층 (매탄동)",205416.1332,416960.1827
경기도 수원시 권선구 오목천동 472-24,"경기도 수원시 권선구 삼천병마로 1579, 1층 104호 (오목천동)",196671.5178,415738.0155
경기도 수원시 권선구 서둔동 296-108,"경기도 수원시 권선구 세화로 120, 1층 (서둔동)",,
경기도 수원시 권선구 세류동 649-4,"경기도 수원시 권선구 새터로37번길 32, 1층 (세류동)",200562.0855,416639.0835
경기도 수원시 영통구 망포동 380-1 엘지프라자,"경기도 수원시 영통구 태장로 83, 엘지프라자 101호 (망포동)",204837.9812,415272.5979
경기도 수원시 영통구 신동 334-41 우크빌 S동,"경기도 수원시 영통구 신원로136번길 30, 우크빌 S동 지하1층 (신동)",204804.5532,416238.3368
경기도 수원시 장안구 조원동 552-2,"경기도 수원시 장안구 송정로182번길 20, 1층 (조원동)",201409.3348,421766.2593
경기도 수원시 권선구 곡반정동 653,"경기도 수원시 권선구 곡반정로 160, 1층 128호 (곡반정동)",,
경기도 수원시 권선구 권선동 987-9,"경기도 수원시 권선구 경수대로347번길 14-19, 1층 (권선동)",201877.8948,417431.5565
경기도 수원시 권선구 구운동 475-9,"경기도 수원시 권선구 구운로86번길 30, 1층 일부 (구운동)",197657.2781,419815.9211
경기도 수원시 권선구 곡반정동 569-8 한아름빌딩,"경기도 수원시 권선구 곡선로50번길 14-1, 한아름빌딩 1층 (곡반정동)",202529.0552,415134.7545
경기도 수원시 권선구 오목천동 314-48 대유빌딩,"경기도 수원시 권선구 삼천병마로1598번길 32, 대유빌딩 B1층 101호 (오목천동)",196849.6876,415980.3286
경기도 수원시 장안구 영화동 410-11,경기도 수원시 장안구 수성로328번길 38(영화동),200731.0021,420963.5899
경기도 수원시 장안구 조원동 637-3,"경기도 수원시 장안구 경수대로847번길 17, 1층 (조원동)",201164.2643,421558.3372
경기도 수원시 장안구 송죽동 147 옥산빌딩,"경기도 수원시 장안구 만석로 233, 옥산빌딩 101호 (송죽동)",200152.5709,422770.4616
경기도 수원시 장안구 연무동 248-15,"경기도 수원시 장안구 연무로7번길 25, 1층 (연무동)",202413.577,421215.0426
경기도 수원시 영통구 이의동 1336 힐스테이트광교중앙역,"경기도 수원시 영통구 도청로18번길 26, 힐스테이트광교중앙역 136호 (이의동)",204977.1753,420627.2342
경기도 수원시 팔달구 고등동 3-5 성원타운,"경기도 수원시 팔달구 고화로 100, 가동 101호 (고등동, 성원타운)",200530.4387,419583.6781
경기도 수원시 장안구 송죽동 454,경기도 수원시 장안구 정조로1102번길 24(송죽동),200183.817,422427.8755
경기도 수원시 장안구 천천동 569 천천일성아파트,"경기도 수원시 장안구 정자로19번길 18, 상가동 102,103호 (천천동, 천천일성아파트)",198101.5718,422011.0703
경기도 수원시 권선구 오목천동 527-14,"경기도 수원시 권선구 삼천병마로1570번길 69, 외 1필지 103호 (오목천동)",196947.3263,415712.9662
경기도 수원시 권선구 오목천동 314-22,"경기도 수원시 권선구 삼천병마로1598번길 52, 1층 101호 (오목천동)",196926.6058,416040.5954
경기도 수원시 영통구 매탄동 840-1,"경기도 수원시 영통구 매탄로168번길 32, 1층 (매탄동)",204113.0572,418091.6933
경기도 수원시 권선구 세류동 515-2 소라연립,"경기도 수원시 권선구 세권로85번길 35, 1층 1호 (세류동, 소라연립)",201199.6399,417552.8268
경기도 수원시 장안구 영화동 331-2,경기도 수원시 장안구 정조로921번길 27(영화동),200982.3661,420804.3548
경기도 수원시 장안구 송죽동 441,"경기도 수원시 장안구 파장천로30번길 96, 1층 (송죽동)",199918.5718,422673.28
경기도 수원시 팔달구 매산로1가 35,경기도 수원시 팔달구 향교로 11-2(매산로1가),200149.9753,418449.5215
경기도 수원시 영통구 신동 939 래미안 영통마크원 1단지,"경기도 수원시 영통구 권선로908번길 72, 110(근린생활시설)동 104호 (신동, 래미안 영통마크원 1단지)",203749.6713,416007.9198
경기도 수원시 영통구 매탄동 196-32,"경기도 수원시 영통구 매여울로40번길 20-1, 1층 (매탄동)",204044.0498,418900.2576
경기도 수원시 장안구 연무동 260-17,"경기도 수원시 장안구 월드컵로 403, 1층 우측호 (연무동)",202384.8224,421138.0943
경기도 수원시 권선구 오목천동 1180 수원권선 꿈에그린 아파트,"경기도 수원시 권선구 서수원로 99, 310동 108호, 109호 (오목천동, 수원권선 꿈에그린 아파트)",197737.5645,414767.0121
경기도 수원시 권선구 금곡동 1129,"경기도 수원시 권선구 서수원로 531, 107호 (금곡동)",196242.7747,419012.5901
경기도 수원시 권선구 구운동 139-170 탑동물류창고,"경기도 수원시 권선구 금호로 199, 1층 (구운동)",197420.3673,419221.7131
경기도 수원시 영통구 영통동 948-4 영통 센트럴파크뷰,"경기도 수원시 영통구 영통로514번길 53, 상가동 1층 101호 (영통동, 영통 센트럴파크뷰)",207026.6172,418198.736
경기도 수원시 장안구 정자동 950 화서역 파크푸르지오 상가동 114호,"경기도 수원시 장안구 대평로 27, 상가동 114호 (정자동, 화서역 파크푸르지오)",199460.3014,420871.7892
경기도 수원시 권선구 금곡동 77-8,"경기도 수원시 권선구 서수원로591번길 26, 1층 일부호 (금곡동)",195866.9439,419608.2708
경기도 수원시 영통구 이의동 산 94-6 경기대학교,"경기도 수원시 영통구 광교산로 154-42, 경기대학교 수원캠퍼스제1복지관동 1층 (이의동)",203054.2199,422194.5793
경기도 수원시 장안구 영화동 437-7,"경기도 수원시 장안구 영화로13번길 1, 1층 (영화동)",200811.6005,420704.2552
경기도 수원시 팔달구 화서동 679-8,"경기도 수원시 팔달구 수성로157번길 7, 1층 (화서동)",199035.6938,420502.4294
경기도 수원시 팔달구 팔달로1가 7-8,"경기도 수원시 팔달구 정조로810번길 5, 1층 (팔달로1가)",201440.7646,419831.9044
경기도 수원시 장안구 천천동 502-4 101호,"경기도 수원시 장안구 정자로 26, 1층 101호 (천천동)",198134.8811,422019.4799
경기도 수원시 장안구 영화동 405-1 104호,"경기도 수원시 장안구 수성로290번길 31, 104호 (영화동)",200384.5666,420854.8028
경기도 수원시 영통구 이의동 1254 광교 나보나 스퀘어,"경기도 수원시 영통구 대학3로 7, 광교 나보나 스퀘어 103호 (이의동)",203648.3553,421983.4322
경기도 수원시 장안구 조원동 510 벽산아파트,"경기도 수원시 장안구 조원로 16, 상가동 1층 4-1호, 4-2호, 5호 (조원동, 벽산아파트)",201816.0003,421778.1685
경기도 수원시 권선구 입북동 265,"경기도 수원시 권선구 입북로 49-2, 1층 (입북동)",196255.7703,421582.5065
경기도 수원시 권선구 금곡동 1147 호반베르디움 더 센트럴,"경기도 수원시 권선구 매곡로 43, 311동 102, 103, 104호 (금곡동, 호반베르디움 더 센트럴)",195617.2443,418734.8386
"경기도 수원시 권선구 권선동 1265 보성,유원아파트","경기도 수원시 권선구 권중로 110, 상가1동 201호 오른쪽호 (권선동, 보성,유원아파트)",202420.6578,416334.2467
경기도 수원시 영통구 망포동 707 방죽마을영통뜨란채,"경기도 수원시 영통구 봉영로 1432-25, 방죽마을영통뜨란채 나상가동 101호 (망포동)",205738.6005,415634.5392
경기도 수원시 장안구 정자동 872-1 연꽃마을 풍림아파트,"경기도 수원시 장안구 정자천로189번길 47, 상가동 102,103호 (정자동, 연꽃마을 풍림아파트)",199355.9606,421788.5116
경기도 수원시 영통구 이의동 1326 e편한세상 광교,"경기도 수원시 영통구 센트럴타운로 76, 2동 103호 (이의동, e편한세상 광교)",204777.7846,421093.1887
경기도 수원시 장안구 천천동 366-6,"경기도 수원시 장안구 일월로66번길 23, 1층 (천천동)",198046.0274,420800.4732
경기도 수원시 영통구 원천동 589 광교중흥에스클래스,"경기도 수원시 영통구 광교호수공원로 277, 근생상가동 15,23호 (원천동, 광교중흥에스클래스)",205026.0796,420062.8782
경기도 수원시 팔달구 신풍동 42-1,"경기도 수원시 팔달구 화서문로 48, 1층 (신풍동)",201099.2562,420359.0654
경기도 수원시 권선구 금곡동 1078 수원모아미래도센트럴타운1단지,"경기도 수원시 권선구 서수원로577번길 341, 상가동 B102, B103호 (금곡동, 수원모아미래도센트럴타운1단지)",194444.5492,419297.2635
경기도 수원시 권선구 세류동 1124-3 엠하우스1,"경기도 수원시 권선구 장다리로 1, 101, 101-1호 (세류동, 엠하우스1)",201458.681,416566.8385
경기도 수원시 장안구 이목동 241-6,"경기도 수원시 장안구 장안로 422, 105호 (이목동)",198348.888,423933.9632
경기도 수원시 장안구 율전동 306-2,"경기도 수원시 장안구 율전로101번길 11, 1층 (율전동)",197143.2235,421818.5663
경기도 수원시 영통구 신동 936-3,"경기도 수원시 영통구 권선로908번길 9, 101호 (신동)",203990.6563,416234.7156
경기도 수원시 영통구 영통동 988-2 살구마을아파트,"경기도 수원시 영통구 봉영로 1540, 어린이집동 101호 (영통동, 살구마을아파트)",206158.3369,416220.4352
경기도 수원시 권선구 서둔동 381 타임빌라스 수원,"경기도 수원시 권선구 세화로 134, 타임빌라스 수원 1층 (서둔동)",199673.3786,418025.5478
경기도 수원시 영통구 신동 486 디지털엠파이어2,"경기도 수원시 영통구 신원로 88, 디지털엠파이어2 101동 107호 (신동)",204417.5979,416171.1517
경기도 수원시 권선구 곡반정동 584-6,"경기도 수원시 권선구 경수대로54번길 99-6, 1층 (곡반정동)",202276.6906,414822.3494
경기도 수원시 영통구 매탄동 139-9,"경기도 수원시 영통구 매여울로57번길 2, 1층 (매탄동)",203852.8829,419021.2886
경기도 수원시 영통구 원천동 559 광교원천 경기행복주택,"경기도 수원시 영통구 광교중앙로49번길 40, 201동 1층 103,104호 (원천동, 광교원천 경기행복주택)",204364.2937,419837.6468
경기도 수원시 팔달구 인계동 1036-7 수원인계 리슈빌S,"경기도 수원시 팔달구 인계로138번길 8, 수원인계 리슈빌S 1층 106호 (인계동)",202804.6354,418306.1917
경기도 수원시 장안구 파장동 555,"경기도 수원시 장안구 경수대로 1127, 2층 (파장동)",199009.3595,423281.0174
경기도 수원시 영통구 하동 994 광교호수마을참누리레이크,"경기도 수원시 영통구 법조로 134, 1층 108호 (하동, 광교호수마을참누리레이크)",206396.6488,421005.092
경기도 수원시 권선구 권선동 1162-9,"경기도 수원시 권선구 권중로15번길 21, 1층 (권선동)",202953.6311,417093.2049
경기도 수원시 팔달구 영동 13-3,"경기도 수원시 팔달구 정조로758번길 23, 1층 (영동)",201541.7739,419319.8807
경기도 수원시 영통구 영통동 1002-14,"경기도 수원시 영통구 청명남로4번길 21-15, 1층 (영통동)",206573.85,416503.6946
경기도 수원시 권선구 세류동 256,경기도 수원시 권선구 세권로28번길 1(세류동),200605.8029,417514.9198
경기도 수원시 권선구 서둔동 421 수원역 한양아이클래스 퍼스트 108호,"경기도 수원시 권선구 세화로134번길 11, 1층 108호 (서둔동, 수원역 한양아이클래스 퍼스트)",199543.2655,418102.0614
경기도 수원시 팔달구 인계동 996-9,"경기도 수원시 팔달구 경수대로443번길 17, 1층 (인계동)",202147.8874,418232.5148
경기도 수원시 권선구 금곡동 1088-1 일담타워 106호,"경기도 수원시 권선구 금곡로118번길 10, 일담타워 106호 (금곡동)",194870.343,419057.0136
경기도 수원시 영통구 하동 1021 힐스테이트 광교,"경기도 수원시 영통구 센트럴파크로 6, 301동 148호 (하동, 힐스테이트 광교)",205655.7165,420360.0872
경기도 수원시 권선구 세류동 508-44,"경기도 수원시 권선구 세권로94번길 1, 1층 (세류동)",201230.6576,417330.5944
경기도 수원시 영통구 망포동 527-1,경기도 수원시 영통구 영통로90번길 47(망포동),205150.139,415241.1241
경기도 수원시 영통구 매탄동 176 현대힐스테이트아파트,"경기도 수원시 영통구 권광로260번길 36, 상가4동 1층 106,107호 (매탄동, 현대힐스테이트아파트)",203453.5729,418803.6508
경기도 수원시 팔달구 우만동 477 나성복합상가아파트,"경기도 수원시 팔달구 월드컵로369번길 41, 101호 (우만동, 나성복합상가아파트)",202478.5714,420785.7932
경기도 수원시 영통구 원천동 589 광교중흥에스클래스,"경기도 수원시 영통구 광교호수공원로 277, B1층 72호 (원천동, 광교중흥에스클래스)",205026.0796,420062.8782
경기도 수원시 장안구 정자동 111-20 화서역 파크푸르지오,"경기도 수원시 장안구 대평로 27, 근생 103호 (정자동, 화서역 파크푸르지오)",199460.3014,420871.7892
경기도 수원시 권선구 호매실동 377 호매실GS아파트 301동 101호,"경기도 수원시 권선구 매실로 70, 301동 101호 (호매실동, 호매실GS아파트)",196300.3909,418381.7999
경기도 수원시 영통구 이의동 1351-6 유니코어,"경기도 수원시 영통구 도청로 95, 유니코어 106호 (이의동)",204156.6012,420989.0725
경기도 수원시 팔달구 매향동 124-5,"경기도 수원시 팔달구 창룡대로 71-16, 1층 (매향동)",201852.2225,420389.1844
경기도 수원시 팔달구 매산로1가 57-105 비젼포에버,"경기도 수원시 팔달구 덕영대로 923-10, 비젼포에버 1층 106호 (매산로1가)",200079.6164,418219.1887
경기도 수원시 영통구 하동 987-4 신명프라자,"경기도 수원시 영통구 광교중앙로 242, 신명프라자 104호 (하동)",205834.3611,421112.6231
경기도 수원시 권선구 세류동 125-2,"경기도 수원시 권선구 권선로 563, 1층 (세류동)",201109.8865,417922.0177
경기도 수원시 팔달구 우만동 28 주공아파트,"경기도 수원시 팔달구 중부대로223번길 102, 상가동 101호 (우만동, 주공아파트)",203342.766,419995.117
경기도 수원시 권선구 구운동 921-4,경기도 수원시 권선구 수인로 275(구운동),197474.4407,419993.0518
경기도 수원시 영통구 망포동 728 힐스테이트 영통 아파트,"경기도 수원시 영통구 덕영대로 1462-14, 601동 105,106호 (망포동, 힐스테이트 영통 아파트)",204253.6827,415715.3169
경기도 수원시 장안구 영화동 173-8,"경기도 수원시 장안구 팔달로303번길 21-7, 1층 1호 (영화동)",201400.6992,421096.6905
경기도 수원시 영통구 매탄동 1279-2,"경기도 수원시 영통구 동탄원천로881번길 72, 101-109호 (매탄동)",203735.4202,417139.49
경기도 수원시 영통구 매탄동 176 현대힐스테이트아파트,"경기도 수원시 영통구 권광로260번길 36, 제상가1동 제102호 (매탄동, 현대힐스테이트아파트)",203453.5729,418803.6508
경기도 수원시 장안구 송죽동 272-37,"경기도 수원시 장안구 만석로 177, 1층 (송죽동)",199837.2304,422305.2801
경기도 수원시 권선구 고색동 21-9 101호,"경기도 수원시 권선구 평동로 9, 101호 (고색동)",198877.3666,416855.9339
경기도 수원시 장안구 연무동 56-24 장미슈퍼,경기도 수원시 장안구 창훈로52번길 25(연무동),202728.1296,421700.2166
경기도 수원시 팔달구 인계동 1126-7,"경기도 수원시 팔달구 효원로292번길 33-22, 101호 (인계동)",202911.4753,417548.9727
경기도 수원시 권선구 권선동 1296-5 롯데마트 권선점,"경기도 수원시 권선구 동수원로 232, 롯데마트 권선점 (권선동)",203008.6315,416482.0218
경기도 수원시 장안구 천천동 526 롯데마트,"경기도 수원시 장안구 만석로19번길 25-10, 롯데마트 (천천동)",198381.2704,421543.9117
경기도 수원시 권선구 고색동 74-40,경기도 수원시 권선구 고산로16번길 3(고색동),198355.8725,416242.9309
경기도 수원시 권선구 구운동 918-10 명수빌딩,"경기도 수원시 권선구 일월천로4번길 54, 명수빌딩 1층 102호 (구운동)",197731.0529,420055.0068
경기도 수원시장안구 파장동 91번지 1호,경기도 수원시 장안구 경수대로1220번길 18 (파장동),198943.961,424258.039
경기도 수원시장안구 천천동 339번지 4호 31통 2반,경기도 수원시 장안구 정자천로13번길 134 (천천동),198059.4841,421401.4776
경기도 수원시 권선구 고색동 1176-1,"경기도 수원시 권선구 호매실로 21-51, 102,103호 (고색동)",197453.9878,417070.8437
경기도 수원시 권선구 구운동 483번지 3호,경기도 수원시 권선구 구운로64번길 37-3 (구운동),197694.8421,419659.9719
경기도 수원시 권선구 권선동 1290번지 10호 1층,"경기도 수원시 권선구 세권로304번길 21-5 (권선동,1층)",203196.0414,416599.085
경기도 수원시 팔달구 화서동 743번지 화서위브하늘채상가 202동 104호,"경기도 수원시 팔달구 수성로244번길 25, 202동 104호 (화서동, 화서위브하늘채상가)",199979.6464,420715.2447
경기도 수원시 팔달구 우만동 561번지 13호 103호,"경기도 수원시 팔달구 중부대로143번길 11, 103호 (우만동)",202766.3448,419663.3126
경기도 수원시 팔달구 인계동 762번지 81호,경기도 수원시 팔달구 수원천로 232-16 (인계동),201730.1673,419096.3492
경기도 수원시 팔달구 영동 8번지 다동 240호,경기도 수원시 팔달구 수원천로255번길 6 (영동),201579.6234,419467.6845
경기도 수원시 팔달구 인계동 1116번지 3호,경기도 수원시 팔달구 효원로307번길 97 (인계동),203188.6325,418131.3104
경기도 수원시 팔달구 우만동 506번지 3호,경기도 수원시 팔달구 팔달문로131번길 66 (우만동),202502.1511,420346.4585
경기도 수원시 권선구 곡반정동 512번지 6호,"경기도 수원시 권선구 동수원로146번길 144-2, 1층 (곡반정동)",202953.7277,415845.6164
경기도 수원시영통구 매탄동 1249번지 1   호,경기도 수원시 영통구 매탄로140번길 54-2 (매탄동),204071.6685,417837.9581
"경기도 수원시 권선구 탑동 863번지 1호 서수상가 101, 102호","경기도 수원시 권선구 서둔로199번길 70, 101, 102호 (탑동, 서수상가)",197781.5431,418529.267
경기도 수원시팔달구 매산로2가 80번지 1호,경기도 수원시 팔달구 갓매산로25번길 60-18 (매산로2가),200330.9205,418327.3021
경기도 수원시 장안구 영화동 308번지 1호 동성영화타운 108호,"경기도 수원시 장안구 정조로 941, 108호 (영화동,동성영화타운)",200985.7595,421034.4276
경기도 수원시 장안구 천천동 527번지 3호 부강프라자 102호,"경기도 수원시 장안구 만석로19번길 29, 102호 (천천동,부강프라자)",198430.3074,421626.5005
경기도 수원시 영통구 원천동 78번지 55호,"경기도 수원시 영통구 동수원로537번길 16-6, 1층 (원천동)",204220.4236,419163.5302
경기도 수원시 영통구 이의동 1352 에듀하임1309오피스텔,"경기도 수원시 영통구 에듀타운로 101, 에듀하임1309오피스텔 103동 104,105호 (이의동)",203903.941,420852.6758
경기도 수원시 영통구 이의동 864번지 1호 차세대융합기술연구원,"경기도 수원시 영통구 광교로 145, 차세대융합기술연구원 A동 1층 일부 (이의동)",203890.3993,421311.5638
경기도 수원시 팔달구 매산로2가 37번지 1호,"경기도 수원시 팔달구 향교로 34, 1층 (매산로2가)",200341.6147,418520.5433
경기도 수원시 팔달구 인계동 1123번지 24호,"경기도 수원시 팔달구 권광로180번길 24, 1층 (인계동)",202935.6952,417916.3853
경기도 수원시 팔달구 인계동 1127번지 1호 한화 꿈에그린 파크,"경기도 수원시 팔달구 효원로308번길 16, 1층 105, 106호 (인계동, 한화 꿈에그린 파크)",202990.6517,417590.1219
경기도 수원시 팔달구 매산로2가 27번지 6호,"경기도 수원시 팔달구 갓매산로71번길 21-6, 101호 (매산로2가)",200207.7399,418538.7019
경기도 수원시 팔달구 고등동 300번지 10호,경기도 수원시 팔달구 갓매산로76번길 2 (고등동),200172.0534,418681.0055
경기도 수원시 팔달구 교동 132번지 4호,"경기도 수원시 팔달구 매산로 128, A동 1층 (교동)",201237.5789,418864.308
경기도 수원시 팔달구 화서동 68번지 17호,"경기도 수원시 팔달구 팔달로153번길 2, 1층 (화서동)",200425.1656,420017.4273
경기도 수원시 권선구 세류동 1018번지 27호,"경기도 수원시 권선구 세권로94번길 42, 1층 (세류동)",201212.8581,417134.4617
경기도 수원시 권선구 호매실동 82번지 3호,"경기도 수원시 권선구 매실로69번길 18, 1층 103호 (호매실동)",196202.4552,418609.3165
경기도 수원시 권선구 서둔동 260번지 29호,"경기도 수원시 권선구 여기산로 16, 1층 (서둔동)",198043.2827,419646.2264
경기도 수원시 권선구 고색동 533번지 9호,경기도 수원시 권선구 매송고색로 636-3 (고색동),197702.0542,416267.4726
경기도 수원시 권선구 세류동 1143번지 9호,"경기도 수원시 권선구 정조로 421, 101호 (세류동)",201104.7421,416126.787
경기도 수원시 권선구 권선동 1257번지 1호,경기도 수원시 권선구 권중로56번길 1 (권선동),202697.4422,416728.501
경기도 수원시 권선구 세류동 1024번지 4호,"경기도 수원시 권선구 정조로514번길 10, 1층 (세류동)",200993.008,417004.8319
경기도 수원시 장안구 연무동 212-14,"경기도 수원시 장안구 창훈로 67, 1층 (연무동)",202438.6085,421724.6078
경기도 수원시 장안구 송죽동 481번지 신일빌딩,"경기도 수원시 장안구 경수대로1020번길 6, 신일빌딩 1층 (송죽동)",199986.7437,422792.6114
경기도 수원시 장안구 조원동 861 주공뉴타운,"경기도 수원시 장안구 금당로39번길 34, 나상가동 102,103호 (조원동, 주공뉴타운)",201609.1362,422351.1484
경기도 수원시권선구 구운동 463호 강남아파트 상가 지층 B01,"경기도 수원시 권선구 수성로 18 (구운동,강남아파트 상가 지층 B01)",197816.8211,419948.6306
경기도 수원시 권선구 세류동 449번지 11호,경기도 수원시 권선구 수원천로 21 (세류동),200715.5352,417263.4222
경기도 수원시 권선구 당수동 276-19,"경기도 수원시 권선구 당진로15번길 42, 1층 (당수동)",194482.7192,421080.8684
경기도 수원시 팔달구 인계동 872번지,경기도 수원시 팔달구 세지로 214 (인계동),202038.6744,418693.7568
경기도 수원시 팔달구 인계동 257번지 9호,경기도 수원시 팔달구 장다리로245번길 16 (인계동),202233.8862,418897.2786
경기도 수원시 팔달구 남수동 67번지 2호,경기도 수원시 팔달구 창룡대로 18 (남수동),201584.7771,419970.2301
경기도 수원시 팔달구 우만동 485번지 3호,경기도 수원시 팔달구 경수대로692번길 40 (우만동),202493.4353,420655.6451
경기도 수원시 권선구 권선동 1360번지 수원아이파크시티1단지 상가동 108호,"경기도 수원시 권선구 동수원로145번길 74, 상가동 108호 (권선동, 수원아이파크시티1단지)",202308.8876,415969.7449
경기도 수원시 장안구 연무동 229번지 24호,"경기도 수원시 장안구 연무로20번길 3, 1층 (연무동)",202488.6957,421355.936
경기도 수원시 장안구 영화동 326번지 6호,"경기도 수원시 장안구 정조로921번길 5, 1호 (영화동)",201077.4042,420860.3242
경기도 수원시팔달구 영동 8호 영동시장  가 110,"경기도 수원시 팔달구 수원천로255번길 6, 가동 110호 (영동,영동시장)",201579.6234,419467.6845
경기도 수원시 권선구 호매실동 1394 호매실스위첸,"경기도 수원시 권선구 호매실로166번길 63, 1층 101호,102호 (호매실동, 호매실스위첸)",196481.7524,417549.6787
경기도 수원시 권선구 구운동 912번지 1호,경기도 수원시 권선구 일월천로4번길 71 (구운동),197713.7466,420134.1332
경기도 수원시권선구 탑동 911번지 (식당 구내매점),"경기도 수원시 권선구 서부로 1673 (탑동,(식당 구내매점))",197480.8066,417407.8011
경기도 수원시장안구 연무동 7번지 4   호,경기도 수원시 장안구 창훈로60번길 36-7 (연무동),202615.2535,421898.5152
경기도 수원시장안구 연무동 212번지 38  호 1층,"경기도 수원시 장안구 연무로42번길 55 (연무동,1층)",202435.0581,421703.065
경기도 수원시 팔달구 지동 483번지 1호,"경기도 수원시 팔달구 경수대로 595, 1층 101호 (지동)",202635.0338,419655.9392
경기도 수원시 권선구 고색동 73번지 6호,"경기도 수원시 권선구 고산로27번길 15, 1층 (고색동)",198237.0336,416310.3739
경기도 수원시 권선구 곡반정동 603-1,"경기도 수원시 권선구 동수원로36번길 6-1, 1층 (곡반정동)",202057.693,414747.9564
경기도 수원시 권선구 서둔동 79번지 9호,"경기도 수원시 권선구 권선로 341, 103호 (서둔동)",198862.7929,417609.2397
경기도 수원시 팔달구 매산로2가 72번지 1호 다올하우스 101,"경기도 수원시 팔달구 매산로28번길 21-10 (매산로2가,다올하우스 101)",200402.8213,418325.3032
경기도 수원시 팔달구 우만동 228번지 수원월드컵경기장 중앙광장 내,,203263.6108,420600.5447
경기도 수원시 팔달구 팔달로2가 109번지 10호,"경기도 수원시 팔달구 정조로 791 (팔달로2가, 백병원옆 도로)",201369.3829,419628.7456
경기도 수원시 팔달구 매산로1가 43번지 12호,경기도 수원시 팔달구 매산로 17 (매산로1가),200226.1809,418407.125
경기도 수원시 팔달구 인계동 313번지 7호,경기도 수원시 팔달구 장다리로306번길 37 (인계동),202638.036,419075.3452
경기도 수원시 영통구 망포동 300번지 6호,경기도 수원시 영통구 영통로173번길 19 (망포동),204709.9018,415667.1911
경기도 수원시 영통구 매탄3동 550번지 2호,경기도 수원시 영통구 신원로 188 (매탄동),205243.7987,416720.7439
경기도 수원시 영통구 영통1동 1011번지 1호   102호,"경기도 수원시 영통구 청명남로 40, 102호 (영통동)",206697.8639,416780.5884
경기도 수원시 팔달구 우만동 490-10,"경기도 수원시 팔달구 세지로 397, 1층 (우만동)",202468.8791,420362.8875
경기도 수원시 장안구 조원1동 855번지 1호 주공뉴타운 상가  101호,"경기도 수원시 장안구 금당로39번길 33, 101호 (조원동,주공뉴타운 상가)",201298.2508,422441.4427
경기도 수원시 장안구 영화동 43번지 1호,경기도 수원시 장안구 경수대로776번길 28 (영화동),201756.9777,421230.207
경기도 수원시 장안구 연무동 215번지 24호,경기도 수원시 장안구 창훈로39번길 12-9 (연무동),202550.9169,421600.359
경기도 수원시 장안구 조원1동 763번지 14호 성원주택 1층,"경기도 수원시 장안구 송정로167번길 9-1 (조원동,성원주택 1층)",201218.0188,421806.9896
경기도 수원시 팔달구 매산로1가 60번지 6호,경기도 수원시 팔달구 매산로 3-1 (매산로1가),200099.3925,418361.4354
경기도 수원시 팔달구 화서동 464 화서역,"경기도 수원시 팔달구 덕영대로 692, 화서역 (화서동)",199201.1037,419813.1284
경기도 수원시 팔달구 북수동 271번지,"경기도 수원시 팔달구 수원천로 357, 1층 (북수동)",201478.4276,420371.5018
경기도 수원시 팔달구 인계동 950,"경기도 수원시 팔달구 경수대로480번길 11-27, 1층 (인계동)",202469.4631,418671.7611
경기도 수원시권선구 권선동 1011번지 14호 대우미래사랑오피스텔 101동 101호,"경기도 수원시 권선구 효원로230번길 38, 101동 101호 (권선동,대우미래사랑오피스텔)",202225.8854,417684.1754
경기도 수원시 영통구 이의동 1344번지 자연앤 힐스테이트,"경기도 수원시 영통구 도청로 65, 지하2층 117호 (이의동, 자연앤 힐스테이트)",204426.4092,420635.2237
경기도 수원시 영통구 매탄동 1217번지 7호 매탄3차삼성아파트,"경기도 수원시 영통구 동탄원천로 1035, 상가동 1층 105호 (매탄동, 매탄3차삼성아파트)",204385.46,418222.634
경기도 수원시 영통구 망포동 295번지 2호 해피프라자,"경기도 수원시 영통구 영통로153번길 20, 해피프라자 104,105,106호 (망포동)",204737.2344,415510.2322
경기도 수원시 영통구 영통동 998번지 1호 평익칼라스위트,"경기도 수원시 영통구 반달로7번길 40, 평익칼라스위트 110호 (영통동)",206601.3884,416845.6355
경기도 수원시 팔달구 우만동 466,"경기도 수원시 팔달구 월드컵로 379, 상가1층 (우만동)",202548.4026,420988.8325
경기도 수원시 팔달구 인계동 1113-11 씨네파크,"경기도 수원시 팔달구 권광로 181, 씨네파크 1층 126호 (인계동)",202791.4479,418001.5002
경기도 수원시 팔달구 매교동 77-40 원영빌딩,"경기도 수원시 팔달구 정조로715번길 67, 1층 2호 (매교동)",201239.363,418574.6961
경기도 수원시 권선구 세류동 459번지 16호,경기도 수원시 권선구 정조로 515 (세류동),200914.0391,417038.2882
경기도 수원시 권선구 고색동 87번지 5호,"경기도 수원시 권선구 고색로66번길 13-2, 1층 (고색동)",198548.9198,416453.72
경기도 수원시 권선구 세류동 526번지 경일아파트,"경기도 수원시 권선구 세권로 76, 상가동 104호 (세류동, 경일아파트)",201030.4951,417389.2576
경기도 수원시 권선구 권선동 1330번지 권선자이 이편한세상,"경기도 수원시 권선구 권광로 55, 상가2동 B105~107호 (권선동, 권선자이 이편한세상)",202272.3145,416779.0376
경기도 수원시 장안구 조원동 746번지 5호,경기도 수원시 장안구 송정로187번길 86 (조원동),201118.42,422179.269
경기도 수원시 장안구 정자동 69번지 46호,"경기도 수원시 장안구 영화로71번길 36, 1층 (정자동)",200355.9727,421161.4302
경기도 수원시 장안구 파장동 568번지 1호,"경기도 수원시 장안구 이목로66번길 24, 1층 (파장동)",198979.7041,423111.8647
경기도 수원시 장안구 송죽동 497번지 31호,"경기도 수원시 장안구 송원로59번길 46, 1층 (송죽동)",200507.5901,422208.6859
경기도 수원시 영통구 영통동 958번지 3호 영통하우스토리,"경기도 수원시 영통구 봉영로 1613 (영통동, 영통하우스토리)",206487.7085,417023.3687
경기도 수원시 영통구 매탄동 1215번지 4호 성일코아빌딩,"경기도 수원시 영통구 매영로 85, 성일코아빌딩 1층 104호 (매탄동)",204550.5746,418474.3737
경기도 수원시 영통구 영통동 966번지 2호 신나무실 건영아파트,"경기도 수원시 영통구 매영로 346, 상가동 1층 105,106호 (영통동, 신나무실 건영아파트)",206082.5155,416577.4006
경기도 수원시 영통구 매탄동 173번지 32호,경기도 수원시 영통구 매여울로53번길 77 (매탄동),203520.9537,418990.9705
경기도 수원시 영통구 원천동 332번지 2호 펙토리월드 150호,"경기도 수원시 영통구 삼성로 274 (원천동,펙토리월드 150호)",205634.9968,418179.3117
경기도 수원시 영통구 원천동 28번지 1호,경기도 수원시 영통구 월드컵로193번길 74 (원천동),203896.3802,419327.5579
경기도 수원시 권선구 세류2동 984번지 2호,경기도 수원시 권선구 정조로482번길 45 (세류동),201159.7973,416631.9316
경기도 수원시 장안구 이목동 918번지 수원 장안 STX KAN 1단지아파트,"경기도 수원시 장안구 장안로 395, 105,106호 (이목동, 수원 장안 STX KAN 1단지아파트)",198406.799,423618.2942
경기도 수원시 권선구 세류동 1127번지 2호,경기도 수원시 권선구 덕영대로1152번길 2 (세류동),201400.4871,416519.4276
경기도 수원시 장안구 정자1동 454번지,경기도 수원시 장안구 정자로 146 (정자동),199256.8277,422449.418
경기도 수원시 장안구 율전동 402번지 3호,경기도 수원시 장안구 서부로 2123 (율전동),197347.2045,421794.9345
경기도 수원시 팔달구 인계동 1118번지 1층,"경기도 수원시 팔달구 인계로166번길 45 (인계동,1층)",203039.6067,418045.1114
경기도 수원시 장안구 연무동 산 11번지 2호 경기지방경찰청,"경기도 수원시 장안구 창룡대로 223 (연무동,경기지방경찰청)",202900.8507,421361.1941
경기도 수원시 팔달구 인계동 765번지 12호,경기도 수원시 팔달구 중부대로 30 (인계동),201716.5745,419241.2482
경기도 수원시 팔달구 우만동 111번지 8호,"경기도 수원시 팔달구 중부대로207번길 13, 1층 101호 (우만동)",203395.8567,419474.648
경기도 수원시 팔달구 인계동 1125번지 대원콤비프라자 4층 401호,"경기도 수원시 팔달구 효원로 288, 401호 (인계동,대원콤비프라자 4층)",202857.0345,417654.265
경기도 수원시 팔달구 팔달로3가 93번지 1호,경기도 수원시 팔달구 행궁로 65-1 (팔달로3가),201335.9535,419420.4677
경기도 수원시팔달구 고등동 85번지 11  호,경기도 수원시 팔달구 고화로39번길 73 (고등동),200382.3154,418645.2494
경기도 수원시팔달구 매산로1가 18호,,199920.1947,418246.9271
경기도 수원시 팔달구 인계동 1127번지 5호 송악화이트빌 105호,"경기도 수원시 팔달구 권광로142번길 43-6, 105호 (인계동, 송악화이트빌)",202951.3705,417537.5176
경기도 수원시 권선구 금곡동 1095번지 수원호매실휴먼시아8단지아파트,"경기도 수원시 권선구 금곡로140번길 29, 상가동 102~104호 (금곡동, 수원호매실휴먼시아8단지아파트)",195227.1891,418985.0721
경기도 수원시 권선구 구운동 954번지 7호,경기도 수원시 권선구 구운로47번길 52 (구운동),197309.4622,419561.8091
경기도 수원시 권선구 금곡동 1125번지 서울JS프라자,"경기도 수원시 권선구 금곡로196번길 76, 서울JS프라자 1층 1-7호 (금곡동)",195983.4362,419066.1609
경기도 수원시 권선구 호매실동 1375번지,"경기도 수원시 권선구 호매실로218번길 126, 1층 (호매실동)",196462.5891,418238.3549
경기도 수원시 권선구 세류동 1145번지,"경기도 수원시 권선구 정조로 409, 사서함303-27호 (세류동)",201155.2128,415965.7223
경기도 수원시 권선구 세류동 1145번지,"경기도 수원시 권선구 정조로 409, 사서함303-27호 (세류동)",201155.2128,415965.7223
경기도 수원시 권선구 금곡동 1142번지,"경기도 수원시 권선구 서수원로 519, 107호 (금곡동)",196334.9194,418945.0027
경기도 수원시팔달구 화서동 136번지 5호,경기도 수원시 팔달구 화양로11번길 13 (화서동),199739.6573,419700.101
경기도 수원시 영통구 영통동 1021-7 이레빌딩,"경기도 수원시 영통구 영일로6번길 43, 이레빌딩 1층 (영통동)",206867.6757,416271.4454
경기도 수원시 권선구 금곡동 1077번지 수원모아미래도센트럴타운2단지,"경기도 수원시 권선구 서수원로577번길 305, 상가동 B203호 (금곡동, 수원모아미래도센트럴타운2단지)",194646.9146,419291.254
경기도 수원시 권선구 금곡동 1088번지 2호 리치빌딩,"경기도 수원시 권선구 금곡로118번길 24, 리치빌딩 109호 (금곡동)",194867.0034,419022.1247
경기도 수원시 권선구 금곡동 1112번지 1호 스타타워,"경기도 수원시 권선구 금곡로197번길 13, 스타타워 105호 (금곡동)",195622.8837,419134.0705
경기도 수원시 권선구 권선동 1001번지,"경기도 수원시 권선구 세지로66번길 42, 1층 (권선동)",201670.7988,417247.0474
경기도 수원시 권선구 호매실동 1393번지 힐스테이트 호매실,"경기도 수원시 권선구 호매실로166번길 33, 제근린생활시설2동 115,116호 (호매실동, 힐스테이트 호매실)",196272.3147,417563.2199
경기도 수원시 권선구 금곡동 1125번지 3호,"경기도 수원시 권선구 금곡로196번길 102, 102호 (금곡동)",196069.4914,419039.5297
"경기도 수원시 권선구 호매실동 1352번지 칠보마을9단지 상가1동 103,4호","경기도 수원시 권선구 금곡로140번길 73, 상가1동 103,104호 (호매실동, 칠보마을9단지)",195168.574,418722.4207
경기도 수원시 권선구 곡반정동 527번지 1호,"경기도 수원시 권선구 동수원로146번길 6-3, 107호 (곡반정동)",202707.0197,415710.3724
경기도 수원시장안구 영화동 409번지 1   호,경기도 수원시 장안구 수성로316번길 23 (영화동),200600.6619,420988.5469
경기도 수원시권선구 권선동 1295번지 3   호 103호,"경기도 수원시 권선구 동수원로242번길 15 (권선동,103호)",203077.4496,416575.2898
경기도 수원시 권선구 곡반정동 526번지 11호,"경기도 수원시 권선구 동수원로146번길 188, 1층 (곡반정동)",202864.9945,415627.6509
경기도 수원시 장안구 조원동 779번지 1호 유래빌딩,"경기도 수원시 장안구 경수대로853번길 4, 유래빌딩 1층 102호 (조원동)",201171.4474,421671.5968
경기도 수원시 장안구 연무동 216번지 22호 고추기름전문,"경기도 수원시 장안구 연무로42번길 41, 1층 (연무동)",202401.7993,421631.5708
경기도 수원시 팔달구 인계동 1033,"경기도 수원시 팔달구 인계로108번길 31, 수원시청하와이안오피스 1층 101호,102호 (인계동)",202512.3744,418268.7424
경기도 수원시 팔달구 인계동 1038번지 1호,"경기도 수원시 팔달구 권광로 205, 1층 (인계동, 삼성화재 수원사옥)",202859.8334,418217.0435
경기도 수원시 팔달구 중동 146번지 1호,경기도 수원시 팔달구 정조로712번길 9 (중동),201438.4027,418902.3858
경기도 수원시 영통구 망포동 683번지 망포마을현대2차아이파크,"경기도 수원시 영통구 태장로 47, 망포마을현대2차아이파크 상가동 106호 (망포동)",204458.2201,415356.7946
경기도 수원시 영통구 영통동 978번지 11호 망포프라자,"경기도 수원시 영통구 영통로213번길 16, 망포프라자 102호 (영통동)",204898.6776,416065.9392
경기도 수원시 영통구 신동 933번지 1호,"경기도 수원시 영통구 권선로882번길 31-31, 1층 (신동)",203844.9267,416240.403
경기도 수원시 팔달구 우만동 26-25 트레보,"경기도 수원시 팔달구 권광로 386, 트레보 107호~108호 (우만동)",203277.029,419925.4004
경기도 수원시 팔달구 인계동 1008번지 10호,경기도 수원시 팔달구 효원로 187 (인계동),201929.7997,418035.9434
경기도 수원시 팔달구 인계동 1125번지 2호 벽산그랜드코아 101-3호,"경기도 수원시 팔달구 권광로 146, 101-3호 (인계동, 벽산그랜드코아)",202754.805,417615.6201
경기도 수원시 팔달구 인계동 1027번지 7호,경기도 수원시 팔달구 경수대로428번길 25 (인계동),202352.1555,418021.1443
경기도 수원시 팔달구 인계동 218번지 5호 외1필지(218-6),"경기도 수원시 팔달구 행궁로 94-4 (교동, 1층)",202515.5906,419383.24
경기도 수원시 팔달구 화서1동 76번지 17호,경기도 수원시 팔달구 팔달로141번길 22 (화서동),200294.7322,419873.9335
경기도 수원시 장안구 송죽동 503번지 16호 월드타워 105호,"경기도 수원시 장안구 송원로 39, 105호 (송죽동,월드타워)",200538.5749,421914.9835
경기도 수원시 장안구 파장동 598번지 32호,경기도 수원시 장안구 파장천로12번길 39 (파장동),199601.8614,422667.6846
경기도 수원시 장안구 율전동 182번지 9호,경기도 수원시 장안구 덕영대로395번길 12 (율전동),196947.6555,422209.1051
경기도 수원시 영통구 영통1동 1024번지 13호,경기도 수원시 영통구 덕영대로 1707 (영통동),206867.1224,416231.6568
경기도 수원시 장안구 율전동 104번지 6호,경기도 수원시 장안구 서부로2181번길 20-1 (율전동),197416.4147,422346.2593
경기도 수원시 권선구 권선동 1291번지 5호,경기도 수원시 권선구 세권로316번길 32 (권선동),203235.9629,416520.3772
경기도 수원시권선구 권선동 1168번지 6   호,경기도 수원시 권선구 동수원로285번길 22 (권선동),203017.7084,417074.2855
경기도 수원시영통구 망포동 527번지 2   호,경기도 수원시 영통구 영통로90번길 43 (망포동),205161.618,415234.2677
경기도 수원시 권선구 금곡동 779번지 9호,"경기도 수원시 권선구 금곡로 5-10, 1층 (금곡동)",194459.1506,418519.1563
경기도 수원시 권선구 서둔동 39번지 19호,경기도 수원시 권선구 서호동로14번길 27 (서둔동),199012.2435,418326.8119
경기도 수원시 권선구 권선동 1270번지 벽산아파트,"경기도 수원시 권선구 권중로 158, 411동 104,105호 (권선동, 벽산아파트)",202860.4187,416529.887
경기도 수원시권선구 구운동 525-3번지,,,
경기도 수원시 영통구 망포동 524번지 4호,경기도 수원시 영통구 영통로130번길 42 (망포동),205131.0998,415304.9251
경기도 수원시 팔달구 지동 138-54,"경기도 수원시 팔달구 팔달문로75번길 29, 1층 (지동)",202186.8637,419921.6215
경기도 수원시 팔달구 고등동 58번지 10호,"경기도 수원시 팔달구 고매로 31, 1층 (고등동)",200408.7617,418931.4888
경기도 수원시 영통구 망포동 700번지 쌍용3차아파트,"경기도 수원시 영통구 태장로7번길 38 (망포동, 쌍용3차아파트)",204184.8018,415295.7458
경기도 수원시 영통구 매탄동 866-31,경기도 수원시 영통구 인계로 283-2(매탄동),204235.8534,417955.7107
경기도 수원시장안구 조원동 894호 일호골든타워  109,"경기도 수원시 장안구 경수대로 940, 109호 (조원동,일호골든타워)",200646.5559,422349.6776
경기도 수원시 영통구 원천동 18-1 아록빌딩,"경기도 수원시 영통구 아주로 46, 아록빌딩 (원천동)",203849.165,419652.0269
경기도 수원시 권선구 구운동,"경기도 수원시 권선구 구운로73번길 3 (구운동, 정민빌리지 1층)",197487.6715,419783.5352
경기도 수원시 팔달구 우만동 596번지 29호,경기도 수원시 팔달구 창룡대로144번길 33 (우만동),202230.3568,420855.899
경기도 수원시 장안구 천천동 334번지 2호 천천대우푸르지오1번상가  101호,"경기도 수원시 장안구 화산로 87, 101호 (천천동,천천대우푸르지오1번상가)",198371.856,421082.6732
경기도 수원시 권선구 권선동 940번지 2호,"경기도 수원시 권선구 효원로 198, 1층 101호 (권선동)",202005.2506,417961.3196
경기도 수원시 권선구 오목천동 667번지 1호,경기도 수원시 권선구 서수원로99번길 16 (오목천동),197531.4826,414958.2596
경기도 수원시 권선구 세류동 1081번지 청솔오피스텔,"경기도 수원시 권선구 장다리로 64, 청솔오피스텔 102호 (세류동)",201730.4317,417114.7241
경기도 수원시 권선구 호매실동 1340 수원호매실휴먼시아7단지아파트,"경기도 수원시 권선구 금곡로102번길 126, 상가동 103호 (호매실동, 수원호매실휴먼시아7단지아파트)",194768.9452,418546.191
경기도 수원시 권선구 서둔동 17번지 242호,"경기도 수원시 권선구 세화로151번길 32, 1층 (서둔동)",199213.3841,418134.7321
경기도 수원시팔달구 매산로2가 11번지 6호,경기도 수원시 팔달구 갓매산로 56 (매산로2가),200346.6757,418604.4717
경기도 수원시권선구 곡반정동 호 23블럭9롯트,,,
경기도 수원시 장안구 조원동 893 아울렛쇼핑타운,"경기도 수원시 장안구 경수대로 950, 아울렛쇼핑타운 1동 4층 424호 (조원동)",200590.5117,422392.3846
경기도 수원시 영통구 영통동 964-8 신나무실주공아파트,"경기도 수원시 영통구 영통로290번길 23, 신나무실주공아파트 상가동 1층 104호,105호 (영통동)",205453.1563,416653.3588
경기도 수원시 권선구 세류2동 548번지 19호 1층,"경기도 수원시 권선구 덕영대로1070번길 6, 1층 (세류동)",200714.262,416971.4244
경기도 수원시권선구 권선동 1162번지 16  호,경기도 수원시 권선구 권중로15번길 3 (권선동),202864.6325,417117.1654
경기도 수원시 팔달구 매산로1가 18 AK플라자,"경기도 수원시 팔달구 덕영대로 924, 수원역 국철하행, AK플라자 (매산로1가)",199920.1947,418246.9271
경기도 수원시팔달구 매산로1가 수원역 전철하행,,,
경기도 수원시 팔달구 매산로1가 18 AK플라자,"경기도 수원시 팔달구 덕영대로 924, 국철 맞이방, AK플라자 (매산로1가)",199920.1947,418246.9271
경기도 수원시권선구 곡반정동 592번지 7호,경기도 수원시 권선구 곡반정로19번길 69 (곡반정동),202239.5101,414734.2291
경기도 수원시권선구 권선동 1166번지 4호,경기도 수원시 권선구 권선로 774-1 (권선동),203089.0034,417182.1702
경기도 수원시영통구 매탄동 1231번지 1   호,경기도 수원시 영통구 매영로 134 (매탄동),204993.3495,418275.538
경기도 수원시팔달구 우만동 135번지 62  호,경기도 수원시 팔달구 중부대로183번길 40 (우만동),203257.063,419629.6239
경기도 수원시팔달구 지동 111번지 13  호,경기도 수원시 팔달구 세지로306번길 33 (지동),202200.8359,419552.8792
경기도 수원시팔달구 인계동 1026번지 9   호,경기도 수원시 팔달구 효원로219번길 36 (인계동),202300.9236,418105.0716
경기도 수원시 권선구 권선동 1274 신동아아파트,"경기도 수원시 권선구 권중로 136, 110호, 111호 (권선동, 신동아아파트)",202772.6462,416289.5657
경기도 수원시영통구 원천동 203번지 7   호,경기도 수원시 영통구 동탄원천로1119번길 13 (원천동),205143.7611,418638.1424
경기도 수원시 권선구 권선동 1189번지,경기도 수원시 권선구 경수대로 270 (권선동),201782.7331,416501.6997
경기도 수원시 권선구 곡반정동 516번지 2호,경기도 수원시 권선구 동수원로146번길 27 (곡반정동),202719.8807,415794.2388
경기도 수원시 권선구 탑동 790번지 2호,경기도 수원시 권선구 탑동로48번길 12 (탑동),197697.0625,419027.557
경기도 수원시장안구 조원동 763번지 21  호,경기도 수원시 장안구 경수대로 862 (조원동),201172.4701,421758.9233
경기도 수원시권선구 세류동 342호 심우연립 1동 101호,"경기도 수원시 권선구 수원천로 75 (세류동,심우연립 1동 101호)",200913.4801,417778.6468
경기도 수원시 권선구 세류동 1011번지 31호,"경기도 수원시 권선구 세권로108번길 42, 1층 (세류동)",201265.5558,417109.6437
경기도 수원시 권선구 세류동 141번지 성원아파트,"경기도 수원시 권선구 정조로 618, 101,106호 (세류동, 성원아파트)",201320.5692,417947.1714
경기도 수원시 영통구 매탄동 923번지 34호,경기도 수원시 영통구 인계로220번길 6-85 (매탄동),203556.5471,418003.6467
경기도 수원시팔달구 매산로3가 128번지 4   호,경기도 수원시 팔달구 효원로 36 (매산로3가),200705.8329,418716.5318
경기도 수원시 팔달구 인계동 1031번지 6호 101.호,"경기도 수원시 팔달구 효원로249번길 47, 101.105호 (인계동)",202570.6881,418082.4437
경기도 수원시 영통구 이의동 1240번지,"경기도 수원시 영통구 광교로 191, 매장 2층 (이의동)",204159.79,421622.5758
"경기도 수원시 영통구 영통동 988-2 살구골 진덕,서광,성지,동아 아파트","경기도 수원시 영통구 봉영로 1526, 제상가동 1층 102,106호 (영통동, 살구골 진덕,서광,성지,동아 아파트)",206158.3369,416220.4352
경기도 수원시 영통구 원천동 66번지 5호,"경기도 수원시 영통구 월드컵로 151, 101호 (원천동)",204229.8257,419471.9937
경기도 수원시 영통구 영통동 969번지 1호 삼성.태영 아파트,"경기도 수원시 영통구 봉영로1517번길 73, 상가동 108호, 109호, 110호 (영통동, 삼성.태영 아파트)",205586.6307,416372.4954
경기도 수원시 영통구 이의동 1322-8,"경기도 수원시 영통구 센트럴타운로 114, 1층 (이의동)",204323.284,421225.6183
경기도 수원시 장안구 영화동 342번지 11호,"경기도 수원시 장안구 정조로945번길 13, 1층 (영화동)",200927.1496,421050.3395
경기도 수원시 팔달구 화서동 97번지 1호 화서상가 나호,"경기도 수원시 팔달구 동말로 72, 나호 (화서동, 화서상가)",200114.6561,419621.3797
경기도 수원시 팔달구 지동 216번지 10호,경기도 수원시 팔달구 세지로 373-4 (지동),202304.0376,420204.6308
경기도 수원시 팔달구 고등동 44번지 3호,경기도 수원시 팔달구 고화로61번길 19 (고등동),200377.4746,419197.6329
경기도 수원시팔달구 인계동 968호,경기도 수원시 팔달구 장다리로 245 (인계동),202276.9878,418850.3819
경기도 수원시 권선구 구운동 952번지 1호,경기도 수원시 권선구 구운로63번길 51 (구운동),197254.8115,419681.8059
경기도 수원시 권선구 권선동 1157번지 4호,경기도 수원시 권선구 권중로12번길 14 (권선동),202783.0206,417181.6024
경기도 수원시 팔달구 고등동 3번지 19호,경기도 수원시 팔달구 고화로108번길 1 (고등동),200536.1864,419666.9535
경기도 수원시팔달구 팔달로1가 12번지 5호,경기도 수원시 팔달구 정조로800번길 2 (팔달로1가),201427.6574,419719.6547
경기도 수원시 권선구 서둔동 156번지 14호,,,
경기도 수원시 권선구 세류동 1108번지 23호,"경기도 수원시 권선구 세지로12번길 33-1, 1층 (세류동)",201401.4559,416773.2952
경기도 수원시 권선구 권선동 1364번지,경기도 수원시 권선구 동수원로177번길 40 (상가)800동 115호 (권선동),202599.7944,416089.1258
경기도 수원시 권선구 세류동 1117-14,경기도 수원시 권선구 세지로12번길 46 (세류동),201468.9598,416723.8488
경기도 수원시 영통구 매탄동 199-40,"경기도 수원시 영통구 산남로 73, 1층 (매탄동)",204295.8091,418612.8831
경기도 수원시 영통구 망포동 370번지 3호,"경기도 수원시 영통구 영통로153번길 6, 1층 (망포동)",204799.1083,415501.325
경기도 수원시 영통구 망포동 651번지 5호,경기도 수원시 영통구 태장로 68 (망포동),204706.2314,415225.3631
경기도 수원시 영통구 영통동 1010번지 9호,"경기도 수원시 영통구 반달로35번길 19, 110,111호 (영통동, 대원빌딩)",206698.2869,416640.7714
경기도 수원시 영통구 매탄동 1235-1 우영프라자,"경기도 수원시 영통구 인계로 260, 우영프라자 105호 (매탄동)",203983.434,417993.3832
경기도 수원시 영통구 망포동 725 영통 SK VIEW,"경기도 수원시 영통구 영통로200번길 112, 근린생활시설동 101호 (망포동, 영통 SK VIEW)",205453.5767,415644.9696
경기도 수원시 영통구 영통동 1010-13 거성빌딩,"경기도 수원시 영통구 청명남로 30, 거성빌딩 1층 104호 (영통동)",206621.4738,416699.1751
경기도 수원시 영통구 매탄동 361-8,"경기도 수원시 영통구 삼성로 245, 1층 (매탄동)",205348.3574,418046.5566
경기도 수원시 권선구 권선동 1337번지 수원아이파크시티7단지,"경기도 수원시 권선구 덕영대로1190번길 100, 112호,113호 (권선동, 수원아이파크시티7단지)",201706.2828,416059.045
경기도 수원시 영통구 매탄2동 130번지 58호,경기도 수원시 영통구 매여울로40번길 92 (매탄동),204373.8411,418967.3015
경기도 수원시 팔달구 인계동 1004번지 6호,"경기도 수원시 팔달구 세지로152번길 11, 1층 (인계동)",201845.0398,418110.6336
경기도 수원시팔달구 우만동 89번지 26  호 1층,"경기도 수원시 팔달구 권광로340번길 79 (우만동,1층)",203686.554,419354.6879
경기도 수원시 팔달구 화서동 649번지 2호,경기도 수원시 팔달구 덕영대로697번길 34 (화서동),199222.6904,420331.5416
경기도 수원시 팔달구 인계동 1044번지 13호,경기도 수원시 팔달구 효원로249번길 18-17 (인계동),202642.2369,417919.9416
경기도 수원시장안구 정자동 914번지 대림진흥아파트 상가 103호,"경기도 수원시 장안구 천천로74번길 92 (정자동,대림진흥아파트 상가 103호)",198932.6076,422055.7499
경기도 수원시 권선구 구운동 528,"경기도 수원시 권선구 구운로27번길 33, 1층 (구운동)",197667.2259,419292.0191
경기도 수원시영통구 매탄동 872번지 1   호,경기도 수원시 영통구 인계로270번길 2 (매탄동),204078.778,417966.7692
경기도 수원시 팔달구 인계동 1024번지 10호   101호,"경기도 수원시 팔달구 경수대로446번길 13, 101호 (인계동)",202358.8899,418222.8458
경기도 수원시 팔달구 고등동 74번지 33호,경기도 수원시 팔달구 고화로13번길 2 (고등동),200599.3594,418757.1144
경기도 수원시 권선구 세류3동 569번지 39호,경기도 수원시 권선구 정조로 479-12 (세류동),200897.2328,416642.9848
경기도 수원시영통구 신동 340번지 13호,경기도 수원시 영통구 영통로241번길 12-6 (신동),205005.0574,416369.3097
경기도 수원시 영통구 하동 966,"경기도 수원시 영통구 법조로149번길 101, 1층 (하동)",206042.6743,421323.0977
경기도 수원시 장안구 조원동 759번지 14호,경기도 수원시 장안구 조원로111번길 47 (조원동),201051.3125,422050.891
경기도 수원시 영통구 매탄동 1205-5,경기도 수원시 영통구 매봉로35번길 12(매탄동),204567.5867,418828.5478
경기도 수원시 영통구 원천동 327번지,"경기도 수원시 영통구 삼성로 290, 지하1층 (원천동, 삼성전자(주)CS아카데미)",205744.2104,418201.0497
경기도 수원시 영통구 망포동 345번지 20호,"경기도 수원시 영통구 영통로174번길 85, 1층 (망포동)",205263.7932,415780.378
경기도 수원시 장안구 정자동 29번지 3호,"경기도 수원시 장안구 정자천로188번길 49, 1층 (정자동)",199721.7568,421389.0291
경기도 수원시 장안구 천천동 339번지 17호 순현타운,"경기도 수원시 장안구 화산로125번길 26, 순현타운 101호 (천천동)",198073.3453,421346.2128
경기도 수원시 장안구 천천동 325번지 40호 신원프라자,"경기도 수원시 장안구 정자천로13번길 45, 신원프라자 104, 105호 (천천동)",198006.311,420979.4163
경기도 수원시 장안구 송죽동 453번지 29호,경기도 수원시 장안구 경수대로973번길 18 (송죽동),200292.6186,422413.9652
경기도 수원시 장안구 율전동 168번지 106호,"경기도 수원시 장안구 덕영대로381번길 64, 1층 (율전동)",197005.1221,422259.8157
"경기도 수원시 장안구 연무동 21번지 유천프라자 121,122호","경기도 수원시 장안구 창훈로66번길 11-3, 121,122호 (연무동,유천프라자)",202451.8617,421775.3469
경기도 수원시 장안구 정자동 72번지 3호,경기도 수원시 장안구 장안로 77 (정자동),200141.7712,421041.3576
경기도 수원시팔달구 고등동 254번지 8   호,,,
경기도 수원시 팔달구 매산로3가 94번지 1호,경기도 수원시 팔달구 효원로60번길 30 (매산로3가),200609.5705,418419.8281
경기도 수원시 장안구 정자동 873번지 4호,경기도 수원시 장안구 정자천로 199 (정자동),199631.328,421764.7642
경기도 수원시 장안구 송죽동 77번지 1호,경기도 수원시 장안구 경수대로976번길 32 (송죽동),200331.6925,422682.7341
경기도 수원시 영통구 이의동 1347번지 3호 에듀프라자 103호,"경기도 수원시 영통구 도청로89번길 43 (이의동,에듀프라자 103호)",204129.1799,420809.2767
경기도 수원시 권선구 곡반정동 604번지 1호 1층,"경기도 수원시 권선구 경수대로54번길 58, 1층 (곡반정동)",202096.9534,414695.0088
경기도 수원시팔달구 매산로2가 40번지 1   호 동인트루빌오피스텔  109,"경기도 수원시 팔달구 매산로 51, 109호 (매산로2가,동인트루빌오피스텔)",200539.237,418582.5587
경기도 수원시권선구 곡반정동 호 23블럭 9롯트 102호,,,
경기도 수원시권선구 입북동 426번지 1호,경기도 수원시 권선구 수인로 446 (입북동),196288.1869,421198.8883
경기도 수원시권선구 탑동 839번지 1호 가림주택 11차 101호,"경기도 수원시 권선구 상탑로 22 (탑동,가림주택 11차 101호)",197600.4985,418755.4076
경기도 수원시 권선구 권선동 1013번지 지오베르크 101호,"경기도 수원시 권선구 효원로256번길 7, 101호 (권선동, 지오베르크)",202568.8623,417746.467
경기도 수원시 권선구 곡반정동 533번지 8호 101호,"경기도 수원시 권선구 동수원로146번길 200-3, 101호 (곡반정동)",202834.9036,415559.0411
경기도 수원시 권선구 고색동,"경기도 수원시 권선구 고산로6번길 45 (고색동, 대원아파트상가 105,106,109)",198526.4946,416287.7824
경기도 수원시 장안구 영화동 297번지 1호,"경기도 수원시 장안구 정조로946번길 8, 1층 (영화동)",201039.9789,421117.2235
경기도 수원시 장안구 파장동 212번지 23호,"경기도 수원시 장안구 경수대로 1092, 1층 (파장동)",199334.6716,423121.7456
경기도 수원시 장안구 정자동 327번지 13호 굽네치킨,"경기도 수원시 장안구 대평로142번길 21, 굽네치킨 1층 (정자동)",199158.8534,422099.3739
경기도 수원시 장안구 조원동 894번지 일호골든타워,"경기도 수원시 장안구 경수대로 940, 일호골든타워 2층 (조원동)",200646.5559,422349.6776
경기도 수원시 팔달구 매산로1가 18번지,경기도 수원시 팔달구 덕영대로 924 (매산로1가),199920.1947,418246.9271
경기도 수원시 영통구 영통동 968번지 동보.신명아파트,"경기도 수원시 영통구 매영로310번길 87, 동보.신명아파트 지하층 101,102,103호 (영통동)",205723.6298,416560.8863
경기도 수원시 영통구 망포동 355번지 12호,"경기도 수원시 영통구 영통로174번길 64, 1층 (망포동)",205178.2407,415701.8841
경기도 수원시 영통구 영통동 954번지 1호,"경기도 수원시 영통구 영통로 513, 1층 (영통동)",206798.9181,418071.1718
경기도 수원시 영통구 매탄동 199-63,"경기도 수원시 영통구 매영로 55, 1층 101호 (매탄동)",204265.154,418552.9261
경기도 수원시팔달구 우만동 518번지 17  호,경기도 수원시 팔달구 월드컵로311번길 12-2 (우만동),202945.2104,420431.6028
경기도 수원시팔달구 매산로1가 41번지 6   호,경기도 수원시 팔달구 매산로 21-11 (매산로1가),200246.3436,418469.5085
경기도 수원시 권선구 금곡동 1113-1,"경기도 수원시 권선구 금곡로197번길 18-20, 수원호매실     동광뷰웰 1층 109호 (금곡동)",195700.3369,419167.0657
경기도 수원시 권선구 권선동 1240번지 현대아파트,"경기도 수원시 권선구 매탄로 11, 상가동 1층 110호 (권선동, 현대아파트)",203184.0657,416820.5968
경기도 수원시 장안구 율전동 287번지 다래원,"경기도 수원시 장안구 서부로 2130, 다래원 지하층 (율전동)",197439.3369,421821.5184
경기도 수원시 장안구 파장동 594번지 3호,경기도 수원시 장안구 경수대로1043번길 8 (파장동),199707.0117,422822.5726
경기도 수원시장안구 조원동 776번지 9   호,경기도 수원시 장안구 송정로 128 (조원동),200913.5059,421564.503
경기도 수원시 권선구 세류동 1147번지 1호,경기도 수원시 권선구 정조로 430 (세류동),201136.9159,416182.0969
경기도 수원시장안구 송죽동 374번지 31호,경기도 수원시 장안구 송원로13번길 33 (송죽동),200252.7856,421761.2788
경기도 수원시장안구 조원동 742번지 4호,경기도 수원시 장안구 조원로 77 (조원동),201397.6965,422011.7746
경기도 수원시 장안구 조원1동 519번지 215호 3호,"경기도 수원시 장안구 조원로54번길 27, 1층 3호 (조원동)",201724.6587,421884.2742
경기도 수원시 장안구 조원동 851번지 1호 금남빌 1층상가,"경기도 수원시 장안구 금당로9번길 76 (조원동,금남빌 1층상가)",201101.0293,422456.9166
경기도 수원시 장안구 율전동 285번지 2호,"경기도 수원시 장안구 서부로 2139, 1층 1001~1002,1005~1011호 (율전동, 에스케이허브블루)",197415.8413,421942.3206
경기도 수원시 장안구 정자동 37번지 27호,경기도 수원시 장안구 영화로97번길 32 (정자동),200233.915,421376.1742
경기도 수원시 영통구 신동 973,경기도 수원시 영통구 권선로882번길 107-50(신동),203611.2699,416099.338
경기도 수원시 권선구 세류동,경기도 수원시 권선구 덕영대로1145번길 37 (세류동),201445.9763,416782.4881
경기도 수원시 장안구 조원동 750번지 32호,경기도 수원시 장안구 송원로86번길 1 (조원동),200839.3807,422257.7682
경기도 수원시 장안구 영화동 422번지 8호,"경기도 수원시 장안구 수성로262번길 65, 1층 (영화동)",200295.8854,420671.5369
경기도 수원시 장안구 파장동 627번지 1호 수일공판장,"경기도 수원시 장안구 파장천로44번길 76, 수일공판장 1층 (파장동)",199902.5033,422841.1207
경기도 수원시 장안구 율전동 402번지 8호 성대공장,"경기도 수원시 장안구 서부로 2121, 성대공장 1,2층 (율전동)",197341.7451,421783.2053
경기도 수원시팔달구 고등동 226번지 90  호,경기도 수원시 팔달구 팔달로29번길 39-8 (고등동),199838.3695,418826.1326
경기도 수원시 팔달구 우만동 528번지 17호,경기도 수원시 팔달구 팔달문로 131 (우만동),202612.3861,420044.6162
경기도 수원시 팔달구 매교동 25번지 4호 건영캐스빌상가 102호,"경기도 수원시 팔달구 매산로130번길 15, 102호 (매교동, 건영캐스빌상가)",201304.932,418821.265
경기도 수원시 팔달구 남창동 110번지,"경기도 수원시 팔달구 행궁로 41, 1층 (남창동)",201293.1536,419653.0907
경기도 수원시 영통구 영통2동 970번지 5호 벽적골주공9단지상가 101호,"경기도 수원시 영통구 봉영로1517번길 23, 101호 (영통동, 벽적골주공9단지상가)",205837.9851,416298.9864
경기도 수원시 영통구 신동 384번지 33호 1층,"경기도 수원시 영통구 신원로 173-1 (신동,1층)",205145.7314,416645.6894
경기도 수원시 권선구 오목천동 318번지 8호 1층,,196811.5029,416072.2671
경기도 수원시 장안구 연무동 218-42,"경기도 수원시 장안구 창훈로29번길 58, 1층 (연무동)",202387.4818,421565.8802
경기도 수원시 장안구 정자동 464-1,"경기도 수원시 장안구 대평로162번길 33, 1층 (정자동)",199137.7121,422287.5287
경기도 수원시 장안구 정자1동 462번지 3호,경기도 수원시 장안구 대평로162번길 47 (정자동),199200.0242,422317.0168
경기도 수원시 팔달구 인계동 999번지 15호,경기도 수원시 팔달구 효원로193번길 35 (인계동),202019.4476,418176.2536
경기도 수원시장안구 송죽동 479-3호,경기도 수원시 장안구 파장천로44번길 95 (송죽동),199997.5265,422814.3599
경기도 수원시 팔달구 우만동 228 수원월드컵경기장,"경기도 수원시 팔달구 월드컵로 310, 수원월드컵경기장 1층 (우만동)",203263.6108,420600.5447
경기도 수원시팔달구 구천동 10번지 44  호,경기도 수원시 팔달구 중부대로 16 (구천동),201557.9831,419213.9058
경기도 수원시 권선구 고색동 385-3,"경기도 수원시 권선구 매송고색로691번길 6, 1층 (고색동)",198165.2042,416566.186
경기도 수원시권선구 세류동 1075번지 26호,경기도 수원시 권선구 세지로56번길 3 (세류동),201438.5272,417239.0554
경기도 수원시권선구 권선동 965번지 9   호,경기도 수원시 권선구 권선로 638 (권선동),201788.5168,417616.8076
경기도 수원시권선구 구운동 217번지 11  호,경기도 수원시 권선구 서부로 1963 (구운동),197173.4883,420205.2356
경기도 수원시 권선구 구운동 890번지 LD코오롱아파트 상가동 101호,"경기도 수원시 권선구 일월천로16번길 39, 상가동 101호 (구운동,LD코오롱아파트)",197720.7995,420309.2699
경기도 수원시 권선구 서둔동 361번지 제상가1동 제2층 201호,"경기도 수원시 권선구 여기산로 54 (서둔동,제상가1동 제2층 201호)",198124.9924,420069.5271
경기도 수원시 권선구 권선동 1013-1 세종그랑시아 101-1,,,
경기도 수원시 권선구 당수동 218-1 삼정아파트,"경기도 수원시 권선구 당진로14번길 37, 상가동 117호 (당수동, 삼정아파트)",194855.5885,420951.6615
경기도 수원시권선구 곡반정동 511-1,,,
"경기도 수원시영통구 매탄동 810번지 2호 105,106,109,110,111","경기도 수원시 영통구 동수원로 432 (매탄동,105,106,109,110,111)",203742.4957,418331.2606
경기도 수원시 권선구 당수동 287번지 인정프린스아파트,"경기도 수원시 권선구 당진로15번길 53, 상가동 101,102호 (당수동, 인정프린스아파트)",194430.2906,421099.3196
경기도 수원시 권선구 곡반정동 577-1,"경기도 수원시 권선구 곡선로50번길 45-4, 101호, 102호 (곡반정동)",202485.5826,414974.8895
경기도 수원시 권선구 탑동 884-4 태영아이원아파트,"경기도 수원시 권선구 서둔로199번길 37, 101호 (탑동, 태영아이원아파트)",197943.2,418524.6434
경기도 수원시 팔달구 우만1동 493번지 10호,경기도 수원시 팔달구 세지로 415-1 (우만동),202610.3149,420473.298
경기도 수원시 장안구 영화동 311번지 12호 생맥주타운,경기도 수원시 장안구 정조로 927-1 (영화동),201066.1382,420924.2924
경기도 수원시 장안구 송죽동 130번지,"경기도 수원시 장안구 만석로 246, 1층 (송죽동)",200246.2993,422856.1514
경기도 수원시 영통구 이의동 1338번지 광교센트럴푸르지오시티,"경기도 수원시 영통구 도청로 10, 광교센트럴푸르지오시티 1층 판매시설호 (이의동)",204888.8556,420476.3916
경기도 수원시 영통구 원천동 469번지 밀코오토월드,"경기도 수원시 영통구 중부대로448번길 89, 1층 (원천동)",205250.5863,418309.5606
경기도 수원시 영통구 매탄동 1267번지 2호 매탄프라자,"경기도 수원시 영통구 효원로 383, 매탄프라자 1층 109호 (매탄동)",203798.5517,417482.8217
경기도 수원시 영통구 이의동 1351-3 스페이스 광교,"경기도 수원시 영통구 광교로 120, 스페이스 광교 104,105호 (이의동)",204050.6246,421022.0295
경기도 수원시 장안구 파장동 266번지 8호,경기도 수원시 장안구 경수대로 1082 (파장동),199434.9998,423064.7347
경기도 수원시 팔달구 인계동 965번지 18호,경기도 수원시 팔달구 경수대로495번길 19 (인계동),202291.7053,418717.6958
경기도 수원시 장안구 율전동 276번지 4호 1층 3-6호,"경기도 수원시 장안구 화산로203번길 34 (율전동,1층 3-6호)",197591.8995,421790.1904
경기도 수원시 장안구 송죽동 504번지 2호 1층,"경기도 수원시 장안구 송원로 49-1 (송죽동,1층)",200597.8694,421988.4702
경기도 수원시 권선구 곡반정동 564번지 8호   102호,"경기도 수원시 권선구 곡선로 48, 102호 (곡반정동)",202554.7441,415196.0223
경기도 수원시 권선구 탑동 835번지 1호,경기도 수원시 권선구 하탑로 21 (탑동),197624.9085,418544.3448
경기도 수원시 팔달구 우만동 68번지 7호,경기도 수원시 팔달구 중부대로239번길 35 (우만동),203673.8245,419455.7822
경기도 수원시 팔달구 인계동 1046번지 13호 에스팝타워 117호,"경기도 수원시 팔달구 효원로 269, 117호 (인계동, 에스팝타워)",202697.652,417813.8141
경기도 수원시권선구 고색동 81번지 16호,경기도 수원시 권선구 고색로66번길 28-1 (고색동),198548.8532,416381.0834
경기도 수원시권선구 권선동 1000호,경기도 수원시 권선구 세지로 64 (권선동),201471.6073,417308.2486
경기도 수원시권선구 세류동 1018번지 60호,경기도 수원시 권선구 덕영대로1105번길 46 (세류동),201156.8545,417026.7816
경기도 수원시 팔달구 팔달로3가 102번지 4호,경기도 수원시 팔달구 행궁로 57 (팔달로3가),201318.8635,419487.9452
경기도 수원시장안구 율전동 495호 성대역(맞이방),"경기도 수원시 장안구 서부로 2149 (율전동,성대역(맞이방))",197111.8142,422071.1915
"경기도 수원시 권선구 권선동 1263번지 신우아파트 상가동 105,106호","경기도 수원시 권선구 권중로 82, 상가동 105,106호 (권선동,신우아파트)",202459.2972,416597.0202
경기도 수원시 권선구 금곡동 1076번지 가온마을3단지,"경기도 수원시 권선구 서수원로577번길 263, 단지상가동 105호 (금곡동, 가온마을3단지)",194850.8151,419288.1315
경기도 수원시 팔달구 화서동 220-3 영광아파트,"경기도 수원시 팔달구 덕영대로757번길 23, 영광아파트 상가동 101~3호 (화서동)",199402.1529,419806.8658
경기도 수원시 팔달구 인계동 1027-9,"경기도 수원시 팔달구 경수대로428번길 15, 1층 102호 (인계동)",202305.3663,418036.2108
경기도 수원시 팔달구 매산로1가 16-12,"경기도 수원시 팔달구 향교로1번길 8, 111, 112-2호 (매산로1가)",200043.2944,418455.1808
경기도 수원시 팔달구 인계동 946번지 2호,"경기도 수원시 팔달구 경수대로526번길 12-26, 102호 (인계동)",202528.5311,418861.591
경기도 수원시 팔달구 인계동 1008번지,"경기도 수원시 팔달구 세지로 150, 1층 (인계동)",201797.2243,418099.2428
경기도 수원시 팔달구 매산로1가 11번지 9호 세진브론즈빌,"경기도 수원시 팔달구 덕영대로 899, 세진브론즈빌 105호 (매산로1가)",199957.8828,418466.6404
경기도 수원시 팔달구 북수동 363번지 1호,"경기도 수원시 팔달구 정조로 834, 1층 (북수동)",201410.386,420054.5478
경기도 수원시 권선구 세류동 1149번지 6호,"경기도 수원시 권선구 경수대로225번길 16, 1층 (세류동)",201396.4641,416168.3327
경기도 수원시 권선구 권선동 1011번지 9호,"경기도 수원시 권선구 효원로220번길 17, 1층 104호 (권선동)",202218.2959,417806.0628
경기도 수원시 권선구 세류동 546번지 11호,"경기도 수원시 권선구 덕영대로1070번길 36, 1층 (세류동)",200745.7602,416817.9936
경기도 수원시 권선구 오목천동 381번지 청구2차아파트,"경기도 수원시 권선구 매송고색로506번길 17, 상가동 108,109호 (오목천동, 청구2차아파트)",196527.5591,415742.7124
경기도 수원시 권선구 구운동 935번지 27호,"경기도 수원시 권선구 구운로63번길 34, 1층 101호 (구운동)",197351.4214,419732.7495
경기도 수원시 권선구 고색동 432번지 1호,"경기도 수원시 권선구 오목천로 161, 1층 (고색동)",197962.3832,415954.6206
경기도 수원시 권선구 탑동 615번지 1호,"경기도 수원시 권선구 호매실로 46-95, 1층 (탑동)",197283.3266,417488.6453
경기도 수원시 권선구 권선동 1305번지 권선대우아파트,"경기도 수원시 권선구 동탄원천로813번길 16, 상가동 103호,104호 (권선동, 권선대우아파트)",203363.1387,416345.4165
경기도 수원시 권선구 고색동 1191번지,"경기도 수원시 권선구 권선로 308-5, 도이치오토월드 내 지하1층 B1093, B1094호 (고색동)",198848.998,417348.8186
경기도 수원시 권선구 금곡동 1118번지 e-SPACE CITY-1,"경기도 수원시 권선구 금곡로 202, 상가동 1층 125호 (금곡동)",195731.1792,419060.6746
경기도 수원시 권선구 구운동 921번지 11호,"경기도 수원시 권선구 구운로85번길 12, 102, 103호 (구운동)",197489.4946,419955.2153
경기도 수원시팔달구 팔달로3가 25번지 6   호,경기도 수원시 팔달구 정조로770번길 7 (팔달로3가),201466.4818,419450.625
경기도 수원시팔달구 매산로1가 18호,,199920.1947,418246.9271
경기도 수원시 권선구 구운동 963번지 1호,경기도 수원시 권선구 구운로47번길 19 (구운동),197461.7267,419527.2014
경기도 수원시 권선구 오목천동 1180번지 수원권선 꿈에그린 아파트,"경기도 수원시 권선구 서수원로 99, 309동 105,106호 (오목천동, 수원권선 꿈에그린 아파트)",197737.5645,414767.0121
경기도 수원시 권선구 세류동 460번지 7호,"경기도 수원시 권선구 정조로 533, 101호 (세류동)",200914.95,417210.5498
경기도 수원시 권선구 권선동 1042번지 15호,"경기도 수원시 권선구 권광로 91, 1층 일부 (권선동)",202535.8972,417122.9755
경기도 수원시 권선구 금곡동 1141,"경기도 수원시 권선구 금호로 83-8, 111, 112호 (금곡동)",196311.7012,418900.6711
경기도 수원시 권선구 호매실동 1402번지 센타프라자,"경기도 수원시 권선구 호매실로104번길 24-44, 센타프라자 1층 110호 (호매실동)",196652.8435,417356.9857
경기도 수원시팔달구 매산로2가 39번지 7   호,경기도 수원시 팔달구 갓매산로 43 (매산로2가),200370.0745,418483.5501
경기도 수원시팔달구 우만동 438번지 21  호,,,
경기도 수원시 영통구 망포동 5번지 15호 태방전자,"경기도 수원시 영통구 덕영대로1499번길 55, 2층 (망포동)",204764.407,416166.0706
경기도 수원시팔달구 매산로2가 27번지 75  호,경기도 수원시 팔달구 갓매산로 53 (매산로2가),200324.5328,418586.3196
경기도 수원시 영통구 영통동 1013번지 16호 해광빌딩,"경기도 수원시 영통구 청명로21번길 15, 해광빌딩 1층 (영통동)",206946.5538,416442.2843
경기도 수원시 영통구 원천동 556번지,"경기도 수원시 영통구 광교중앙로 55, 상가동 105호 (원천동)",204438.7912,419877.1549
경기도 수원시 영통구 매탄동 102번지 세림빌딩,"경기도 수원시 영통구 동수원로 514, 세림빌딩 1층 (매탄동)",204095.3933,418981.0904
경기도 수원시 영통구 매탄동 153번지 174호,경기도 수원시 영통구 중부대로256번길 38-20 (매탄동),203668.4199,419049.1607
경기도 수원시 영통구 원천동 35번지 2호 주공아파트,"경기도 수원시 영통구 월드컵로179번길 19, 주공아파트 상가동 1층 1호 (원천동)",203972.6875,419543.02
경기도 수원시 영통구 매탄동 548번지,경기도 수원시 영통구 영통로 301 (매탄동),205350.0579,416808.4225
경기도 수원시 권선구 권선동 1185번지 1호 삼성아파트 제상가동 101호,"경기도 수원시 권선구 경수대로302번길 29, 101호 (권선동, 삼성아파트상가)",201979.6092,416852.0639
"경기도 수원시권선구 평동 25번지 1   호 수원공구유통타운 A 129,130","경기도 수원시 권선구 매송고색로 875-1, A동 129,130호 (평동,수원공구유통타운)",199573.8421,417438.8418
경기도 수원시 권선구 곡반정동,경기도 수원시 권선구 동수원로146번길 144-12 (곡반정동),202902.7235,415866.622
경기도 수원시 권선구 오목천동 545번지 4호,"경기도 수원시 권선구 오목천로57번길 33, 1층 (오목천동)",197097.1662,415508.1542
경기도 수원시권선구 곡반정동 506-1 101호,"경기도 수원시 권선구 동수원로146번길 101, 101호 (곡반정동)",202953.3377,415986.3163
경기도 수원시영통구 매탄동 208번지 73호 1층,"경기도 수원시 영통구 매탄로 170 (매탄동,1층)",203985.725,418175.245
경기도 수원시 장안구 정자동 534번지 4호,"경기도 수원시 장안구 장안로 288, 1층 (정자동)",199072.6472,422821.1471
경기도 수원시 장안구 이목동 563번지,경기도 수원시 장안구 경수대로 1283 (이목동),198687.9648,424791.59
경기도 수원시 장안구 율전동 163번지 11호,"경기도 수원시 장안구 덕영대로407번길 34-9, 1층 (율전동)",197132.212,422346.6196
경기도 수원시 장안구 연무동 9번지 14호,"경기도 수원시 장안구 창훈로60번길 53, 1층 (연무동)",202551.2769,421957.7839
경기도 수원시 장안구 천천동 385번지 37호,"경기도 수원시 장안구 일월로76번길 19-5, 1층 (천천동)",197940.0919,420911.0137
경기도 수원시 영통구 영통동 1106 현대프라자,"경기도 수원시 영통구 영통로200번길 21, 현대프라자 102호 (영통동)",205071.1185,415862.7636
경기도 수원시 권선구 서둔동,"경기도 수원시 권선구 상탑로 98, 107동 101호 (서둔동, 부성리치빌)",198306.6864,418776.7574
경기도 수원시 권선구 서둔동 374번지 희성연인아파트 상가동 101호,"경기도 수원시 권선구 상탑로 121 (서둔동, 상가 101호(희성연인아파트))",198530.7439,418834.9269
경기도 수원시영통구 원천동 337번지 14호,경기도 수원시 영통구 매영로199번길 35 (원천동),205656.0147,418047.7317
경기도 수원시 영통구 영통동 958번지 1호 드림피아빌딩,"경기도 수원시 영통구 봉영로 1623, 드림피아 113호 (영통동)",206556.3518,417113.7666
경기도 수원시 권선구 권선동 1013번지 21호 선일빌딩,"경기도 수원시 권선구 효원로266번길 14, 선일빌딩 101호 (권선동)",202612.2074,417694.3056
경기도 수원시 권선구 권선동 956번지 17호 기경빌,"경기도 수원시 권선구 세지로126번길 44, 기경빌 102호 (권선동)",201905.1237,417796.3691
경기도 수원시 권선구 오목천동 1182-1 그린메디프라자,"경기도 수원시 권선구 서수원로47번길 11, 그린메디프라자 1층 102,103,104호 (오목천동)",197964.896,414637.547
"경기도 수원시 권선구 호매실동 1361번지 한양수자인파크원 105,6호","경기도 수원시 권선구 칠보로 102, 단지내1상가동 105,106호 (호매실동, 한양수자인파크원)",195600.4252,418073.3107
경기도 수원시 영통구 매탄동 176번지 현대힐스테이트아파트,"경기도 수원시 영통구 권광로260번길 36, 제상가 3동 105, 106호 (매탄동, 현대힐스테이트아파트)",203453.5729,418803.6508
경기도 수원시 팔달구 인계동 375번지 11호 1층,"경기도 수원시 팔달구 권광로276번길 31 (인계동,1층)",203261.6473,418902.2749
경기도 수원시 영통구 매탄1동 164번지 10호 101호 102호,"경기도 수원시 영통구 권광로290번길 34-18 (매탄동,101호 102호)",203305.3266,419033.0127
경기도 수원시 영통구 매탄동 1352번지 매탄위브 하늘채 302상가A동 102~ 109호,"경기도 수원시 영통구 효원로 363, 109호 (매탄동,매탄위브 하늘채 302상가A동 102~)",203603.1612,417765.0059
경기도 수원시 영통구 영통동 963-2 신성.신안.쌍용.진흥아파트,"경기도 수원시 영통구 매영로310번길 36, 신성.신안.쌍용.진흥아파트 상가동 111호 (영통동)",205743.1429,416941.4858
경기도 수원시장안구 율전동 168번지 37  호,경기도 수원시 장안구 덕영대로381번길 75 (율전동),197069.5221,422274.1878
경기도 수원시 팔달구 매산로1가 57-3 역전시장,"경기도 수원시 팔달구 매산로 2-10, 역전시장 B동 1호 (매산로1가)",200143.532,418243.8507
경기도 수원시 팔달구 매산로3가 112번지 9호,경기도 수원시 팔달구 세류로 63 (매산로3가),200641.0228,418110.9259
경기도 수원시권선구 고색동 886번지 83  호 태산@상가 102호,"경기도 수원시 권선구 매송고색로673번길 11 (고색동,태산@상가 102호)",197892.2243,416551.7472
경기도 수원시 권선구 세류동 565번지 6호,경기도 수원시 권선구 정조로495번길 15 (세류동),200841.4536,416817.6241
경기도 수원시영통구 원천동 산5호,,,
경기도 수원시팔달구 지동 232번지 42  호,경기도 수원시 팔달구 창룡문로 98 (지동),202187.3831,420370.1778
경기도 수원시팔달구 인계동 1040번지 10  호,경기도 수원시 팔달구 인계로124번길 41-3 (인계동),202645.2783,418191.3384
경기도 수원시팔달구 우만동 32번지 1   호 주공(아)상가  2,"경기도 수원시 팔달구 중부대로223번길 54-13, 2호 (우만동,주공(아)상가)",203594.0184,419583.274
경기도 수원시팔달구 화서동 97번지 2   호 화서상가1층,"경기도 수원시 팔달구 동말로68번길 15 (화서동,화서상가1층)",200114.4361,419572.3442
경기도 수원시팔달구 매산로1가 57번지 59  호,경기도 수원시 팔달구 덕영대로943번길 9 (매산로1가),200126.7017,418108.1233
경기도 수원시권선구 곡반정동 578호 곡반정현대아이파크상가동  102,,202398.4227,415012.5527
경기도 수원시권선구 고색동 365번지 6   호,경기도 수원시 권선구 서부로1538번길 3 (고색동),198003.0784,416099.5001
경기도 수원시권선구 권선동 1155번지 4   호,경기도 수원시 권선구 권선로734번길 17 (권선동),202732.0219,417236.4179
경기도 수원시 팔달구 화서동 212번지 1층,"경기도 수원시 팔달구 화양로35번길 6 (화서동,1층)",199618.3434,419934.3605
경기도 수원시팔달구 인계동 1113번지 11호 씨네파크 113호,"경기도 수원시 팔달구 권광로 181, 113호 (인계동,씨네파크)",202791.4479,418001.5002
경기도 수원시 권선구 오목천동 946번지 상송마을주공아파트상가 101호,"경기도 수원시 권선구 오목천로 15 (오목천동,상송마을주공아파트상가 101호)",196720.2088,415457.0188
경기도 수원시 권선구 곡반정동 574번지 1호   101호,"경기도 수원시 권선구 곡반정로 95-1, 101호 (곡반정동)",202606.3046,415004.2608
"경기도 수원시권선구 탑동 865-3 부림빌라 101,102호",,,
경기도 수원시팔달구 매교동 46번지 1호,경기도 수원시 팔달구 정조로709번길 3 (매교동),201445.6258,418813.922
경기도 수원시 팔달구 매산로2가 65번지 19호,경기도 수원시 팔달구 매산로 26 (매산로2가),200318.5401,418405.5321
경기도 수원시 팔달구 인계동 1115번지 19호,"경기도 수원시 팔달구 권광로196번길 21, 1동 (인계동)",202993.2302,418099.1703
경기도 수원시 팔달구 우만동 573번지 9호,"경기도 수원시 팔달구 아주로 41, 1층 (우만동)",203787.7381,419617.551
경기도 수원시 팔달구 우만동 510번지,"경기도 수원시 팔달구 경수대로642번길 41-21, 1층 (우만동)",202625.6546,420301.8956
경기도 수원시 권선구 세류동 1280번지 LH수원센트럴타운3단지,"경기도 수원시 권선구 세권로 1, 상가동 101호 (세류동, LH수원센트럴타운3단지)",200518.9322,417651.9887
경기도 수원시 권선구 금곡동 246번지 2호,경기도 수원시 권선구 매곡로 94-4 (금곡동),196007.4992,418823.6041
경기도 수원시 권선구 세류동 1277번지,"경기도 수원시 권선구 세류로 28, 센트럴타운프라자 A동 101,102호 (세류동)",200533.3135,417768.5152
경기도 수원시 권선구 호매실동 1388번지 수원호매실휴먼시아15단지아파트,"경기도 수원시 권선구 호매실로165번길 70, 가상가동 106호 (호매실동, 수원호매실휴먼시아15단지아파트)",195708.699,417601.4504
경기도 수원시 영통구 망포동 690 동수원 자이2차 아파트,"경기도 수원시 영통구 태장로71번길 15, 동수원 자이2차 아파트 (망포동)",204596.06,415409.1188
경기도 수원시 팔달구 매산로1가 102번지 애경백화점앞 오산방향,,200043.4886,418173.0277
경기도 수원시 팔달구 우만동 469번지 17호,"경기도 수원시 팔달구 월드컵로369번길 30, 1층 (우만동)",202504.9798,420848.9536
경기도 수원시 팔달구 인계동 1132번지 다우프리존 103호,"경기도 수원시 팔달구 권선로741번길 27, 103호 (인계동, 다우프리존)",202815.1668,417462.2163
경기도 수원시 팔달구 고등동 67번지 14호,경기도 수원시 팔달구 고매로 34-1 (고등동),,
경기도 수원시 팔달구 화서동 184번지 62호,"경기도 수원시 팔달구 동말로 14, 1층 (화서동)",199556.9324,419479.5614
경기도 수원시 팔달구 화서동 20번지 2호,경기도 수원시 팔달구 장안로5번길 3 (화서동),200543.0652,420384.5476
경기도 수원시 권선구 권선동 966번지 2호,경기도 수원시 권선구 권선로 646 (권선동),201874.1,417587.9474
경기도 수원시장안구 송죽동 64호 부강주택 A동 1층 101호,"경기도 수일로123번길 1, 에이동 1층 101호 (부강주택)",200281.6686,422979.0369
경기도 수원시 영통구 영통2동 974번지 1호 토야프라자 103호,"경기도 수원시 영통구 영통로214번길 41, 103호 (영통동,토야프라자)",205205.8686,416091.2059
경기도 수원시장안구 조원동 524번지 4   호,경기도 수원시 장안구 금당로90번길 31 (조원동),201748.6125,421980.6598
경기도 수원시 팔달구 매산로1가 57-3 역전시장,"경기도 수원시 팔달구 매산로 2-10, 역전시장 24호 (매산로1가)",200143.532,418243.8507
경기도 수원시 장안구 정자동 633,경기도 수원시 장안구 장안로309번길 84 (정자동),198683.4506,422394.5541
"경기도 수원시 권선구 금곡동 79번지 삼익아파트 314동 204,205호","경기도 수원시 권선구 서수원로 589 (금곡동,삼익아파트 314동 204,205호)",195874.134,419474.4055
경기도 수원시장안구 영화동 396번지 5   호,경기도 수원시 장안구 수성로262번길 25-5 (영화동),200134.8654,420805.3228
경기도 수원시 권선구 고색동 7-92,"경기도 수원시 권선구 서둔로 10, 1층 (고색동)",198530.5386,416763.058
경기도 수원시 권선구 권선동 1361번지,"경기도 수원시 권선구 동수원로145번길 24, 상가2동동 116호 (권선동, 수원아이파크시티2단지)",202538.5528,415910.9945
경기도 수원시 권선구 권선동 1315번지,"경기도 수원시 권선구 덕영대로1323번길 25-33, 상가동 101호 (권선동, 우남아파트)",202913.5641,416156.9339
경기도 수원시팔달구 인계동 1120번지 9   호,경기도 수원시 팔달구 권광로180번길 19 (인계동),202934.1922,417956.8943
경기도 수원시팔달구 인계동 1044번지 2   호,경기도 수원시 팔달구 권광로175번길 31-12 (인계동),202608.6547,417931.0699
경기도 수원시 영통구 매탄동 153-23,"경기도 수원시 영통구 중부대로 254, 1층 (매탄동)",203791.8649,419173.9514
경기도 수원시 장안구 파장동 583-12,"경기도 수원시 장안구 파장천로25번길 1, 1층 (파장동)",199463.4884,422869.8101
경기도 수원시장안구 율전동 161번지 22 호,경기도 수원시 장안구 덕영대로417번길 33-1 (율전동),197171.1062,422267.6647
경기도 수원시 팔달구 인계동 1114번지 10호 인송빌딩,"경기도 수원시 팔달구 권광로 208, 인송빌딩 109호 (인계동)",202938.7168,418217.1107
경기도 수원시 팔달구 화서동 646번지 화서3단지주공아파트,"경기도 수원시 팔달구 덕영대로697번길 47, 101호 (화서동, 화서3단지주공아파트)",199238.5922,420438.8785
경기도 수원시 팔달구 인계동 319번지 6호 신반포아파트,"경기도 수원시 팔달구 장다리로306번길 13 (인계동, 신반포아파트)",202775.7882,419175.2131
경기도 수원시 팔달구 우만동 134번지 12호 E.L.타워,"경기도 수원시 팔달구 권광로 358, E.L.타워 (우만동)",203295.1796,419669.5255
경기도 수원시 팔달구 우만동 471번지 2호,경기도 수원시 팔달구 창룡대로150번길 46 (우만동),202392.0972,420828.6436
경기도 수원시 팔달구 인계동 1043번지 14호,경기도 수원시 팔달구 효원로249번길 46-8 (인계동),202619.3894,418028.9322
경기도 수원시 팔달구 우만동 522번지 26호,경기도 수원시 팔달구 월드컵로297번길 42 (우만동),202894.0086,420238.3443
경기도 수원시 팔달구 고등동 55번지 24호,"경기도 수원시 팔달구 고등로71번길 1, 1층 (고등동)",200352.9071,419063.0931
경기도 수원시 팔달구 남창동 79번지,경기도 수원시 팔달구 정조로801번길 23 (남창동),201279.3144,419768.0772
경기도 수원시 팔달구 우만동 92번지 1호 블루하우스,"경기도 수원시 팔달구 중부대로223번길 4, 블루하우스 (우만동)",203569.3141,419342.523
경기도 수원시 팔달구 구천동 32번지 5호,경기도 수원시 팔달구 정조로742번길 17 (구천동),201490.8724,419148.2047
경기도 수원시 팔달구 인계동 1019번지 6호,"경기도 수원시 팔달구 경수대로466번길 33, 105호 (인계동)",202507.6692,418381.5135
경기도 수원시 팔달구 남수동 100번지 4호,"경기도 수원시 팔달구 수원천로 288-4, 1층 5호 (남수동)",201623.6789,419663.0282
경기도 수원시 권선구 권선동 1330번지,"경기도 수원시 권선구 권광로 55, 상가동 117호 (권선동, 권선자이 이편한세상)",202272.3145,416779.0376
경기도 수원시 권선구 세류동 841번지 3호,경기도 수원시 권선구 세지로 103 (세류동),201577.8533,417683.4877
경기도 수원시 권선구 곡반정동 536번지 16호,경기도 수원시 권선구 동수원로146번길 218-22 (곡반정동),202725.3581,415536.5572
경기도 수원시 영통구 매탄동 1260번지 주공그린빌,"경기도 수원시 영통구 매탄로126번길 66, 상가동 104호 (매탄동, 주공그린빌)",204109.8489,417618.9047
경기도 수원시 영통구 영통동 959-1 모던타운,"경기도 수원시 영통구 봉영로 1605, 모던타운 218호 (영통동)",206445.9018,416957.5366
경기도 수원시 영통구 이의동 1286 에이스 광교타워3,"경기도 수원시 영통구 창룡대로256번길 77, 에이스 광교타워3 지1층 B124호 (이의동)",203568.3888,421569.5615
경기도 수원시 팔달구 팔달로3가 31-1,경기도 수원시 팔달구 중부대로7번길 5(팔달로3가),201482.9697,419297.5845
경기도 수원시 팔달구 지동 115번지 8호,경기도 수원시 팔달구 중부대로87번길 15 (지동),202224.2756,419474.7826
경기도 수원시 팔달구 우만동 47번지 4호,경기도 수원시 팔달구 중부대로223번길 71-7 (우만동),203549.0582,419706.3314
경기도 수원시 팔달구 화서동 184번지 223호,"경기도 수원시 팔달구 동말로 27, 1층 (화서동)",199678.893,419571.3378
경기도 수원시 장안구 이목동 916 수원장안힐스테이트,"경기도 수원시 장안구 장안로359번길 20, 근린생활시설동 지하1층 102호 (이목동, 수원장안힐스테이트)",198539.3156,423384.2898
경기도 수원시 권선구 권선동,"경기도 수원시 권선구 권중로76번길 28, 1층 (권선동)",202501.1412,416756.4626
경기도 수원시장안구 영화동 282번지 3   호,경기도 수원시 장안구 팔달로 271 (영화동),201205.1262,420843.0241
경기도 수원시 영통구 이의동 1336 힐스테이트광교중앙역,"경기도 수원시 영통구 도청로18번길 26, 힐스테이트광교중앙역 1층 173호 (이의동)",204977.1753,420627.2342
경기도 수원시 영통구 망포동 512,경기도 수원시 영통구 영통로154번길 106 (망포동),205384.8871,415481.8301
경기도 수원시 팔달구 고등동 138번지 4호 해가든다원,"경기도 수원시 팔달구 팔달로52번길 42 (고등동, 해가든다원)",200221.3623,419218.1942
경기도 수원시 팔달구 우만동 478번지 7호,경기도 수원시 팔달구 월드컵로369번길 23-24 (우만동),202584.1199,420759.2341
경기도 수원시 팔달구 고등동 70번지 15호,"경기도 수원시 팔달구 고화로 42, 1층 (고등동)",200504.7765,419018.8707
경기도 수원시 팔달구 우만동 529번지 9호,경기도 수원시 팔달구 팔달문로 141 (우만동),202716.0902,420084.2516
경기도 수원시 팔달구 지동 148번지 9호,경기도 수원시 팔달구 세지로 354 (지동),202224.5495,420019.7888
경기도 수원시 팔달구 화서동 134-1,"경기도 수원시 팔달구 화양로 10, 1층 (화서동)",199814.5614,419740.2698
경기도 수원시장안구 영화동 339번지 1   호 동양연립 가 101,"경기도 수원시 장안구 팔달로247번길 42, 가동 101호 (영화동,동양연립)",200938.0758,420899.2324
경기도 수원시 영통구 이의동 1336번지 1호 광교엘포트아이파크,"경기도 수원시 영통구 광교중앙로 145, 광교엘포트아이파크 1층 3, 4호 (이의동)",205049.9751,420565.6868
경기도 수원시 영통구 원천동 253번지 5호,"경기도 수원시 영통구 삼성로267번길 28, 1층 (원천동)",205466.5465,418315.5936
경기도 수원시 영통구 하동 1001번지 광교마을40단지,"경기도 수원시 영통구 광교마을로 156, 상가동 101호 (하동, 광교마을40단지)",207354.3327,421493.9044
경기도 수원시 영통구 원천동 259번지 4호,"경기도 수원시 영통구 삼성로277번길 22, 1층 101호 (원천동)",205580.2897,418349.2711
경기도 수원시 팔달구 매산로1가 57번지 3호 역전시장,"경기도 수원시 팔달구 매산로 2-10, 역전시장 237호 (매산로1가)",200143.532,418243.8507
경기도 수원시 팔달구 인계동 1118번지 8호,"경기도 수원시 팔달구 권광로188번길 51, 103호 (인계동)",203112.1816,417986.2329
경기도 수원시 영통구 영통동 1048-5 청명마을주공아파트,"경기도 수원시 영통구 청명북로 83, 청명마을주공아파트 (영통동)",207027.1398,417410.7266
경기도 수원시 영통구 매탄동 413번지 5호,"경기도 수원시 영통구 삼성로168번길 38, 1층 (매탄동)",205131.6453,417412.1302
경기도 수원시 영통구 영통동 991번지 12호,"경기도 수원시 영통구 영일로 3, 1층 (영통동)",206624.928,416242.2822
경기도 수원시 팔달구 화서동 58-3 동원블루밍,"경기도 수원시 팔달구 고화로 129-1, 101동 201호 (화서동, 동원블루밍)",200496.4621,419892.2327
경기도 수원시 팔달구 고등동 29번지 3호,"경기도 수원시 팔달구 고화로72번길 2, 1층 (고등동)",200504.3483,419298.5937
경기도 수원시 장안구 율전동 151-3,경기도 수원시 장안구 덕영대로425번길 60 (율전동),197271.6758,422421.5861
경기도 수원시 권선구 세류동 477번지 5호,경기도 수원시 권선구 정조로 571 (세류동),201048.2718,417574.6118
경기도 수원시 권선구 탑동 821번지 1호,경기도 수원시 권선구 탑동로11번길 58-16 (탑동),197431.7019,418690.7384
경기도 수원시 팔달구 인계동 1111번지 수원시청 별관,"경기도 수원시 팔달구 효원로 241, 7층 (인계동, 수원시청 별관)",202470.5704,417945.409
경기도 수원시 팔달구 화서동 684번지 2호 꽃뫼버들마을신동아아파트 상가 101호,"경기도 수원시 팔달구 화산로 24, 101호 (화서동, 꽃뫼버들마을신동아아파트 상가)",198743.9576,420546.6017
경기도 수원시장안구 율전동 288번지 40 호 태화빌딩 1층,"경기도 수원시 장안구 화산로213번길 15 (율전동,태화빌딩 1층)",197513.3048,421878.5495
경기도 수원시 장안구 정자동 871번지 4호 백설주공아파트상가 103호,"경기도 수원시 장안구 대평로89번길 32, 상가동 103호 (정자동)",199095.8584,421574.0932
경기도 수원시 장안구 정자동 874번지 2호,경기도 수원시 장안구 정자천로 187 (정자동),199524.9635,421620.6279
경기도 수원시 팔달구 화서동 93번지 1호,경기도 수원시 팔달구 팔달로 105 (화서동),200192.4983,419576.5974
경기도 수원시 권선구 곡반정동 545번지 6호,"경기도 수원시 권선구 동수원로146번길 261, 1층 (곡반정동)",202654.9358,415445.7973
경기도 수원시 권선구 세류동 849번지 2호,"경기도 수원시 권선구 권선로596번길 33, 1층 (세류동)",201351.2684,417611.0819
경기도 수원시 팔달구 화서동 11번지 41호 벽산아파트,"경기도 수원시 팔달구 팔달로165번길 39, 상가동 지하층 B01호 (화서동, 벽산아파트)",200239.5897,420192.6615
경기도 수원시 팔달구 매산로2가 28번지 9호,경기도 수원시 팔달구 갓매산로55번길 28 (매산로2가),200222.9797,418507.4662
경기도 수원시 팔달구 인계동 1170번지,"경기도 수원시 팔달구 중부대로 80, 상가3동 1층 43호 (인계동)",202186.2619,419332.9661
경기도 수원시 팔달구 인계동 961번지 1호,경기도 수원시 팔달구 경수대로507번길 12-17 (인계동),202377.415,418918.9657
경기도 수원시 영통구 매탄동 209번지,"경기도 수원시 영통구 매원로 12, 1층 (매탄동)",204135.5242,418282.2559
경기도 수원시 팔달구 인계동 1016번지 2호 현대하이엘,"경기도 수원시 팔달구 경수대로 438, 현대하이엘 102호 (인계동)",202276.3402,418141.8924
경기도 수원시 팔달구 매산로1가 22번지 5호,"경기도 수원시 팔달구 향교로3번길 23-4, 1층 (매산로1가)",200055.5108,418539.1773
경기도 수원시 팔달구 인계동 1134번지 4호 트윈파크에이동,"경기도 수원시 팔달구 효원로308번길 58-9, 트윈파크에이동 1층 104호 (인계동)",202931.2482,417337.2029
경기도 수원시 영통구 영통동 955번지 1호 황골마을주공1단지아파트,"경기도 수원시 영통구 영통로 498, 가상가동 103호 (영통동, 황골마을주공1단지아파트)",206992.9771,417888.2585
경기도 수원시 팔달구 인계동 1119번지 인계샤르망오피스텔,"경기도 수원시 팔달구 인계로166번길 48-21, 인계샤르망오피스텔 106호 (인계동)",202894.1385,418072.8512
경기도 수원시 팔달구 지동 174번지 5호,경기도 수원시 팔달구 팔달문로104번길 20-20 (지동),202282.3456,419803.12
경기도 수원시 팔달구 매산로2가 65번지 3호,"경기도 수원시 팔달구 매산로 24, 101-1호 (매산로2가)",200305.9709,418395.0945
경기도 수원시 팔달구 매산로1가 111번지 32호,경기도 수원시 팔달구 덕영대로 885-1 (매산로1가),199880.2677,418595.296
경기도 수원시 팔달구 매교동 65번지 2호,"경기도 수원시 팔달구 정조로715번길 52, 1층 (매교동)",201274.6899,418654.8363
경기도 수원시 권선구 세류동 1083번지,"경기도 수원시 권선구 세지로56번길 44, 1층 (세류동)",201631.4613,417157.4226
경기도 수원시팔달구 인계동 1132번지 21  호,경기도 수원시 팔달구 권광로124번길 27 (인계동),202794.786,417397.6856
경기도 수원시 장안구 천천동 566번지 현대아파트,"경기도 수원시 장안구 하률로46번길 17, 상가동 103호 (천천동, 현대아파트)",198073.4009,422274.2181
경기도 수원시장안구 파장동 583번지 38  호,경기도 수원시 장안구 파장천로11번길 10 (파장동),199375.6715,422795.1028
경기도 수원시 권선구 세류3동 513번지 7호,경기도 수원시 권선구 정조로 568 (세류동),201074.4664,417504.447
경기도 수원시팔달구 고등동 50번지 1   호,경기도 수원시 팔달구 고화로61번길 22-19 (고등동),200379.6009,419304.0103
경기도 수원시 영통구 영통동 1023-1 메가플러스4,"경기도 수원시 영통구 영일로 8, 메가플러스4 103호 (영통동)",206675.327,416279.8696
경기도 수원시 영통구 원천동 590 수원광교에일린의뜰,"경기도 수원시 영통구 광교호수공원로 155, 상가 1204동 지3층 비118호 (원천동, 수원광교에일린의뜰)",205189.3715,419528.585
경기도 수원시 영통구 영통동 1069 망포역,"경기도 수원시 영통구 덕영대로 지하 1520, 망포역 (영통동)",205765.7402,416064.7222
경기도 수원시 영통구 망포동 485-16,"경기도 수원시 영통구 영통로90번길 12, 1층 (망포동)",205242.8336,415090.7937
경기도 수원시 영통구 매탄동 1178번지,"경기도 수원시 영통구 권선로794번길 8-1, 1층 (매탄동)",203263.1256,417085.6163
경기도 수원시 영통구 매탄동 1217번지 한국아파트,"경기도 수원시 영통구 매영로 84, 지층 101~114,120~123호 (매탄동, 한국아파트)",204464.0954,418391.4093
경기도 수원시 팔달구 매산로2가 74번지 8호,"경기도 수원시 팔달구 갓매산로19번길 28, 1층 (매산로2가)",200396.4938,418260.6683
경기도 수원시 권선구 평동 37번지 37호,"경기도 수원시 권선구 평동로 72, 1층 (평동)",199318.9125,417299.9454
경기도 수원시권선구 서둔동 17번지 383 호,경기도 수원시 권선구 세화로161번길 26-3 (서둔동),199194.6062,418243.8347
경기도 수원시장안구 정자동 35번지 9호,경기도 수원시 장안구 송정로60번길 2 (정자동),200248.4631,421541.1151
경기도 수원시 영통구 영통동 1047번지 1호 건영1차아파트,"경기도 수원시 영통구 청명로 96, 건영1차아파트 상가동 1층 106호 (영통동)",206828.7975,417145.8112
경기도 수원시 권선구 서둔동 27번지 49호 서호파크,"경기도 수원시 권선구 서호동로14번길 52-19 (서둔동, 서호파크)",199003.7865,418122.6716
경기도 수원시 권선구 세류동 1100번지 4호,"경기도 수원시 권선구 경수대로 295, 1층 (세류동)",201701.442,416826.5963
경기도 수원시 권선구 탑동 851번지 3호,경기도 수원시 권선구 하탑로53번길 9 (탑동),197921.2436,418647.603
경기도 수원시 권선구 탑동 815번지 1호,"경기도 수원시 권선구 상탑로 10, 1층 (탑동)",197473.3383,418725.4705
경기도 수원시 권선구 세류동 1140번지 5호,"경기도 수원시 권선구 경수대로235번길 67, 1층 (세류동)",201164.0926,416378.6739
경기도 수원시 권선구 호매실동 1342번지 4호,"경기도 수원시 권선구 금곡로140번길 95-38, 1층 101호 (호매실동)",194893.8798,418547.7147
경기도 수원시 권선구 금곡동 1072번지 수원호매실휴먼시아4단지아파트,"경기도 수원시 권선구 금곡로 137, 상가동 102,103호 (금곡동, 수원호매실휴먼시아4단지아파트)",195255.1868,419189.0671
경기도 수원시 권선구 호매실동,"경기도 수원시 권선구 호매실로165번길 30, 상가동 104호 (호매실동, 휴먼시아16단지)",195909.5459,417586.9813
경기도 수원시 권선구 권선동 1122 수원시청역,"경기도 수원시 권선구 효원로 지하270, 수원시청역 (권선동)",202708.1106,417663.2203
경기도 수원시 권선구 탑동,경기도 수원시 권선구 탑동로 1 (탑동),197726.319,418570.5623
경기도 수원시 권선구 고색동,"경기도 수원시 권선구 서부로 1449-25, 1층 (고색동)",198121.4146,415167.5525
경기도 수원시 권선구 권선동,"경기도 수원시 권선구 권선로668번길 27, 1층 (권선동)",202050.4794,417406.2332
경기도 수원시팔달구 화서동 71번지 4호,경기도 수원시 팔달구 팔달로 128-1 (화서동),200339.8016,419764.4812
경기도 수원시 권선구 세류동,"경기도 수원시 권선구 세권로 42, 1층 (세류동)",200727.8824,417479.7425
경기도 수원시팔달구 화서동 106번지 8   호,경기도 수원시 팔달구 팔달로119번길 42 (화서동),200053.8363,419711.2221
경기도 수원시 권선구 세류동 1145번지,경기도 수원시 권선구 정조로 409 (세류동),201155.2128,415965.7223
경기도 수원시권선구 고색동 46번지 56  호,,,
경기도 수원시권선구 권선동 1188번지 1   호 성지상가104호,"경기도 수원시 권선구 경수대로302번길 32 (권선동,성지상가104호)",201903.8417,416696.2949
경기도 수원시권선구 고색동 39번지 18호,경기도 수원시 권선구 매송고색로 725 (고색동),198483.7315,416658.9665
경기도 수원시팔달구 매산로3가 57번지 13호,,,
경기도 수원시팔달구 매산로1가 57호,,,
경기도 수원시 권선구 탑동 21-3,경기도 수원시 권선구 금호로246번길 39 (탑동),197935.6365,419114.9115
경기도 수원시권선구 서둔동 97번지 57  호,경기도 수원시 권선구 서호서로15번길 24-14 (서둔동),198384.876,418593.8564
경기도 수원시팔달구 화서동 34번지 10호,경기도 수원시 팔달구 팔달로183번길 13 (화서동),200481.3491,420291.086
경기도 수원시팔달구 인계동 1000호,경기도 수원시 팔달구 세지로174번길 24-3 (인계동),201993.734,418279.3282
경기도 수원시팔달구 화서동 118번지 20  호,경기도 수원시 팔달구 팔달로127번길 82 (화서동),199905.6551,419816.6115
경기도 수원시 장안구 영화동 308번지 1호,경기도 수원시 장안구 정조로 941 (영화동),200985.7595,421034.4276
경기도 수원시 권선구 권선동 958번지,경기도 수원시 권선구 장다리로 134 (권선동),201982.9016,417768.4186
경기도 수원시장안구 정자동 313번지 1호 2차상가 1층 - 1,"경기도 수원시 장안구 장안로 211, -동 1호 (정자동,2차상가 1층)",199351.941,422056.6727
경기도 수원시장안구 정자동 383호 범야상가 - 115,"경기도 수원시 장안구 장안로217번길 14, -동 115호 (정자동,범야상가)",199344.9209,422201.1557
경기도 수원시 장안구 파장동 204번지 13호 유니빌,"경기도 수원시 장안구 수일로16번길 15-4, 101호 (파장동, 유니빌)",199475.912,423222.5891
경기도 수원시 권선구 권선동 1356번지,"경기도 수원시 권선구 곡선로 20, 상가동동 101호 (권선동, 수원아이파크시티6단지)",202271.1343,415157.0111
경기도 수원시장안구 파장동 385번지 7호,경기도 수원시 장안구 파장천로58번길 21 (파장동),199739.9844,423072.9838
경기도 수원시 장안구 조원동 676번지 16호,경기도 수원시 장안구 수성로 361 (조원동),200925.1888,421285.7045
경기도 수원시 장안구 파장동 579번지,경기도 수원시 장안구 경수대로1081번길 33 (파장동),199325.1179,422880.728
경기도 수원시장안구 영화동 271번지 22  호,경기도 수원시 장안구 수성로 364 (영화동),200982.176,421267.6471
경기도 수원시팔달구 화서동 97번지 1호 화서상가 지층,"경기도 수원시 팔달구 동말로 72 (화서동,화서상가 지층)",200114.6561,419621.3797
경기도 수원시장안구 연무동 228번지 29  호,경기도 수원시 장안구 창훈로19번길 12-17 (연무동),202572.6892,421447.0299
경기도 수원시권선구 고색동 890번지 124 호,경기도 수원시 권선구 서둔로7번길 31-1 (고색동),198392.7095,416680.1998
경기도 수원시장안구 연무동 237호,경기도 수원시 장안구 연무로 41 (연무동),202306.3112,421441.3127
"경기도 수원시장안구 조원동 471번지 12호 ,472-6","경기도 수원시 장안구 금당로 110-12 (조원동,,472-6)",201847.6924,421950.024
경기도 수원시팔달구 매산로2가 40번지 4   호,경기도 수원시 팔달구 매산로 45 (매산로2가),200456.8638,418548.319
경기도 수원시 장안구 조원2동 896번지,경기도 수원시 장안구 경수대로 930 (조원동),200709.8824,422304.0724
경기도 수원시팔달구 화서동 184번지 62  호,경기도 수원시 팔달구 동말로 14 (화서동),199556.9324,419479.5614
경기도 수원시팔달구 고등동 9번지 26호,,,
경기도 수원시 장안구 연무동 213-16,경기도 수원시 장안구 창훈로 57 (연무동),202521.8056,421684.1178
경기도 수원시팔달구 화서동 108번지 3호,경기도 수원시 팔달구 팔달로107번길 52 (화서동),199989.2256,419612.198
경기도 수원시팔달구 화서동 108번지 3호,경기도 수원시 팔달구 팔달로107번길 52 (화서동),199989.2256,419612.198
경기도 수원시권선구 세류동 1085번지 12호,경기도 수원시 권선구 세지로42번길 31-23 (세류동),201565.7514,417175.1764
경기도 수원시팔달구 화서동 137번지 4호,경기도 수원시 팔달구 동말로 5 (화서동),199485.5821,419473.0797
경기도 수원시 영통구 이의동 1226 광교 해모로 아파트,"경기도 수원시 영통구 광교로 286, 101호 (이의동, 광교 해모로 아파트)",204623.3571,422767.2811
경기도 수원시 팔달구 고등동 116 102호,"경기도 수원시 팔달구 고매로 1, 102호 (고등동)",200309.4542,418674.1194
경기도 수원시 영통구 매탄동 1252-6,경기도 수원시 영통구 매탄로140번길 68-32 (매탄동),204123.7422,417750.9873
경기도 수원시 권선구 구운동 947-8 일월프라자,"경기도 수원시 권선구 구운로47번길 6, 일월프라자 1층 (구운동)",197544.9156,419552.9384
경기도 수원시 권선구 입북동 810 서수원 자이아파트,"경기도 수원시 권선구 입북로 50, 301동 101층 (입북동, 서수원 자이아파트)",196338.3606,421640.2638
경기도 수원시 권선구 권선동 1015-4,"경기도 수원시 권선구 권광로123번길 12, 1층 (권선동)",202593.7312,417475.1529
경기도 수원시영통구 원천동 78번지 84호,경기도 수원시 영통구 동수원로537번길 16-22 (원천동),204254.0298,419246.1907
경기도 수원시 권선구 고색동 389번지 3호,"경기도 수원시 권선구 매송고색로676번길 2, 1층 (고색동)",198018.2649,416444.7919
경기도 수원시팔달구 인계동 371번지 1호,경기도 수원시 팔달구 권광로276번길 9 (인계동),203182.4866,418920.4454
경기도 수원시권선구 당수동 19번지 2   호,,,
경기도 수원시장안구 정자동 76번지 3   호,경기도 수원시 장안구 수성로 263 (정자동),200045.2662,420915.5434
경기도 수원시팔달구 화서동 644번지 4   호,경기도 수원시 팔달구 덕영대로697번길 21-7 (화서동),199127.4387,420358.8813
경기도 수원시영통구 원천동 444호,,205116,418819.2982
경기도 수원시팔달구 화서동 685번지 7   호,경기도 수원시 팔달구 화산로 8 (화서동),198690.2598,420394.7669
경기도 수원시 영통구 영통동 976-5 도담빌딩,"경기도 수원시 영통구 덕영대로 1529, 버스표판매소  (영통동)",205097.4094,416038.7176
경기도 수원시장안구 파장동 576호,경기도 수원시 장안구 경수대로 1079 (파장동),199403.6021,423017.2164
경기도 수원시영통구 매탄동 810번지 3   호 삼성1차상가  120,"경기도 수원시 영통구 인계로 219, 120호 (매탄동,삼성1차상가)",203654.1409,418212.5853
경기도 수원시팔달구 인계동 954번지 2호  보성빌딩 301,"경기도 수원시 팔달구 경수대로565번길 27, 보성빌딩 301동 (인계동)",202465.768,419338.9665
경기도 수원시장안구 영화동 431번지 26  호,경기도 수원시 장안구 영화로 22 (영화동),200784.181,420805.538
경기도 수원시 영통구 신동 398번지 8호,경기도 수원시 영통구 신원로 97 (신동),204580.525,416205.3757
경기도 수원시팔달구 구천동 47번지,경기도 수원시 팔달구 매산로 159 (구천동),201473.4497,419086.5384
경기도 수원시팔달구 인계동 752번지 11호,경기도 수원시 팔달구 중부대로42번길 9 (인계동),201839.4253,419240.5701
경기도 수원시팔달구 우만동 300번지 1호 주공4단지상가 106호,"경기도 수원시 팔달구 창룡대로 194 (우만동,주공4단지상가 106호)",202612.2237,421001.8574
경기도 수원시팔달구 남수동 94호,경기도 수원시 팔달구 창룡대로26번길 42-7 (남수동),201603.4141,419784.5471
경기도 수원시팔달구 지동 401번지 1호,경기도 수원시 팔달구 창룡문로 4 (지동),201727.7779,419550.599
경기도 수원시팔달구 팔달로3가 24번지 9호,경기도 수원시 팔달구 정조로 776 (팔달로3가),201467.4938,419486.5893
경기도 수원시팔달구 지동 70번지 1호,경기도 수원시 팔달구 중부대로125번길 13 (지동),202554.3291,419650.7459
경기도 수원시팔달구 지동 417호,,,
경기도 수원시 팔달구 화서동 71번지 31호,경기도 수원시 팔달구 팔달로127번길 26 (화서동),200183.4438,419819.3344
경기도 수원시 영통구 영통동 998번지 8호,"경기도 수원시 영통구 청명남로 25, 104호 (영통동)",206609.041,416782.2375
경기도 수원시팔달구 남수동 16번지 19호,경기도 수원시 팔달구 창룡대로 42-1 (남수동),201796.866,420079.5582
경기도 수원시 팔달구 지동 330번지,,,
경기도 수원시팔달구 지동 397번지 7호,,,
경기도 수원시팔달구 팔달로2가 67번지 1호,경기도 수원시 팔달구 정조로 782 (팔달로2가),201456.6384,419556.5768
경기도 수원시팔달구 팔달로3가 89호,경기도 수원시 팔달구 정조로 767-3 (팔달로3가),201382.354,419389.5883
경기도 수원시 영통구 원천동 72-86,"경기도 수원시 영통구 동수원로537번길 51-2, 1동 101호 (원천동)",204029.9741,419185.5253
경기도 수원시 권선구 고색동 959 휴먼스카이밸리 103-2호,"경기도 수원시 권선구 오목천로132번길 33, 휴먼스카이밸리 1층 103-2호 (고색동)",197843.9861,415644.2804
경기도 수원시권선구 곡반정동 호 35블럭 2롯트,,,
경기도 수원시팔달구 화서동 71번지 108 호,경기도 수원시 팔달구 팔달로 121 (화서동),200273.1469,419737.9913
경기도 수원시 장안구 연무동 253-35,경기도 수원시 장안구 수원천로442번길 13 (연무동),201936.8747,421047.3792
경기도 수원시 권선구 고색동 1178-1,"경기도 수원시 권선구 호매실로 21-12, 1층 (고색동)",197372.3521,417005.2781
경기도 수원시 권선구 권선동 1298 권선5단지 상록아파트 상가101호,"경기도 수원시 권선구 세권로304번길 47, 상가 101호 (권선동, 권선5단지 상록아파트)",203155.218,416441.7419
경기도 수원시 권선구 곡반정동 652 수원 하늘채 더퍼스트 1단지,"경기도 수원시 권선구 망포로 13, 상가동 103호 일부, 104호 (곡반정동, 수원 하늘채 더퍼스트 1단지)",,
경기도 수원시 장안구 조원동 101-36,"경기도 수원시 장안구 송원로 129, 1층 102호 (조원동)",201074.9753,422627.8874
경기도 수원시 팔달구 지동 367-7,"경기도 수원시 팔달구 중부대로 53, 1층 102호 (지동)",201934.4208,419302.1039
경기도 수원시 영통구 이의동 1308-4,"경기도 수원시 영통구 센트럴파크로127번길 83, 1층 (이의동)",204564.35,421344.3045
경기도 수원시 영통구 이의동 1263-12,"경기도 수원시 영통구 대학1로58번길 7, 1층 (이의동)",203999.51,421894.2
경기도 수원시 영통구 하동 985-3,"경기도 수원시 영통구 광교중앙로248번길 101, 백현프라자 101호 (하동)",206035.2682,421086.0174
경기도 수원시 장안구 파장동 570-26,"경기도 수원시 장안구 파장로 112, 1층 (파장동)",199014.5674,422956.8812
경기도 수원시 영통구 이의동 1204-8,"경기도 수원시 영통구 웰빙타운로49번길 36, 1층 102호 (이의동)",204108.0565,422443.3622
경기도 수원시 장안구 영화동 134-4,"경기도 수원시 장안구 팔달로292번길 39, 1층 (영화동)",201506.1064,420793.7355
경기도 수원시 팔달구 화서동 20-22 성암빌딩,"경기도 수원시 팔달구 장안로5번길 16, 성암빌딩 1층 (화서동)",200498.8097,420383.6284
경기도 수원시 장안구 정자동 111-14,"경기도 수원시 장안구 수성로 175, 5층 5132호 (정자동)",199161.3809,420620.3512
경기도 수원시 권선구 호매실동 1376-1,경기도 수원시 권선구 호매실로218번길 130 (호매실동),196506.0188,418210.5258
경기도 수원시 장안구 정자동 111-14,"경기도 수원시 장안구 수성로 175, 스타필드 수원 6층 6298호 (정자동)",199161.3809,420620.3512
경기도 수원시 권선구 평동 151 평동동남아파트 상가동 101호,"경기도 수원시 권선구 권선로436번길 21, 상가동 101호 (평동, 평동동남아파트)",199978.4595,417812.4658
경기도 수원시 영통구 원천동 산 5-1 아주대학교,"경기도 수원시 영통구 월드컵로 206, 아주대학교 (원천동)",203953.7592,420237.1865
경기도 수원시 장안구 송죽동 98-16,"경기도 수원시 장안구 수일로 108, 1층 (송죽동)",200141.1608,423012.7628
경기도 수원시 팔달구 교동 130-4,경기도 수원시 팔달구 매산로 136 (교동),201295.0571,418893.2222
경기도 수원시 팔달구 우만동 501-5,"경기도 수원시 팔달구 팔달문로175번길 77, 1층 (우만동)",202806.1459,420473.0524
경기도 수원시 팔달구 화서동 270-9 화서동 270-9 공동주택,"경기도 수원시 팔달구 화양로 66-3, 101호 (화서동, 화서동 270-9 공동주택)",199591.2036,420223.7672
경기도 수원시 영통구 매탄동 810 삼성2차아파트,"경기도 수원시 영통구 매영로 10, B1층 (매탄동, 삼성2차아파트)",203799.9049,418620.2616
경기도 수원시 영통구 이의동 1184 광교 호반베르디움,"경기도 수원시 영통구 웰빙타운로 70, 근린생활시설동 B101호 (이의동, 광교 호반베르디움)",203808.0188,422788.1347
경기도 수원시 권선구 탑동 760-1 102호,"경기도 수원시 권선구 탑동로58번길 56, 102호 (탑동)",197808.63,419226.1737
경기도 수원시 영통구 원천동 72-82,"경기도 수원시 영통구 동수원로537번길 58, 1층 (원천동)",203999.4494,419229.1957
경기도 수원시 권선구 권선동 1034-7,"경기도 수원시 권선구 권선로682번길 38, 1층 (권선동)",202140.8675,417306.5934
경기도 수원시 영통구 하동 1017-4 포레나 광교,"경기도 수원시 영통구 광교호수공원로 300, 포레나 광교 1층 104호 (하동)",205109.7535,420280.7141
경기도 수원시 팔달구 인계동 847-3,"경기도 수원시 팔달구 인계로 21, 제4상가동 101호 (인계동)",201936.9919,418852.8148
경기도 수원시 팔달구 화서동 57-3,"경기도 수원시 팔달구 팔달로 160, 101호 (화서동)",200491.7516,420054.3832
경기도 수원시 영통구 원천동 578,"경기도 수원시 영통구 광교중앙로25번길 5, 1층 (원천동)",204479.0153,419513.0698
경기도 수원시 장안구 영화동 100-7,경기도 수원시 장안구 수성로402번길 40-4(영화동),201424.2257,421257.1088
경기도 수원시 권선구 금곡동 253-6,"경기도 수원시 권선구 매곡로 58, 1층 104호 (금곡동)",195812.5466,418714.3918
경기도 수원시 권선구 권선동 1055-7,경기도 수원시 권선구 세권로165번길 20-35(권선동),202100.2492,417197.8425
경기도 수원시 장안구 율전동 108-7,"경기도 수원시 장안구 서부로2197번길 26, 1층 (율전동)",197376.03,422493.5908
경기도 수원시 영통구 하동 1026-1 광교복합체육센터,"경기도 수원시 영통구 광교호수로 151, 광교복합체육센터 1층 (하동)",206116.3633,420012.2869
경기도 수원시 영통구 원천동 71-12,경기도 수원시 영통구 동수원로537번길 35-2(원천동),204091.4207,419176.1493
경기도 수원시 영통구 하동 1017-2 갤러리아 광교,"경기도 수원시 영통구 광교중앙로 124, 갤러리아 광교 (하동)",205023.5829,420361.2482
경기도 수원시 장안구 천천동 509-9,"경기도 수원시 장안구 덕영대로511번길 7, 1층 (천천동)",198061.9221,421852.5522
경기도 수원시 장안구 율전동 433-93 아람가든,"경기도 수원시 장안구 화산로233번길 42, 아람가든 1층 (율전동)",197284.2286,421776.1822
경기도 수원시 장안구 송죽동 277-3,"경기도 수원시 장안구 만석로159번길 32, 1층 (송죽동)",199693.4066,422340.9765
경기도 수원시 장안구 율전동 359 아름다운간판,"경기도 수원시 장안구 율전로101번길 52, 아름다운 간판 (율전동)",196926.8745,421878.1362
경기도 수원시 영통구 매탄동 510-9 매탄동빌딩,"경기도 수원시 영통구 영통로323번길 45, 매탄동빌딩 1층 (매탄동)",205291.7065,416965.9766
경기도 수원시 영통구 영통동 974-8,"경기도 수원시 영통구 영통로214번길 55, 1층 (영통동)",205280.5816,416086.7553
경기도 수원시 팔달구 인계동 159 선경3차아파트,"경기도 수원시 팔달구 권광로317번길 15, 상가동 105호 (인계동, 선경3차아파트)",203115.0651,419255.268
경기도 수원시 권선구 서둔동 238-6,"경기도 수원시 권선구 수인로161번길 24, 1층 (서둔동)",198174.4941,419219.7083
경기도 수원시 권선구 세류동 167-1,"경기도 수원시 권선구 정조로 588, 1층 (세류동)",201160.0699,417712.1026
경기도 수원시 장안구 정자동 881-4 꽃뫼노을마을한마루아파트,"경기도 수원시 장안구 덕영대로639번길 63, 상가동 101호 (정자동, 꽃뫼노을마을한마루아파트)",198954.2796,421034.9698
경기도 수원시 팔달구 인계동 1041-5,"경기도 수원시 팔달구 권광로187번길 26, 1층 (인계동)",202713.83,418108.825
경기도 수원시 영통구 망포동 790 영통아이파크캐슬3단지,"경기도 수원시 영통구 망포로84번길 10, 상가동 105,106호 (망포동, 영통아이파크캐슬3단지)",,
경기도 수원시 영통구 이의동 1322-1,"경기도 수원시 영통구 광교로 156, 108호 (이의동)",204306.0708,421324.2458
경기도 수원시 팔달구 화서동 346-5,경기도 수원시 팔달구 수성로244번길 22(화서동),199864.3573,420688.4483
경기도 수원시 장안구 송죽동 459-32 현대마트,"경기도 수원시 장안구 정조로1088번길 18-25, 현대마트 (송죽동)",200351.8945,422251.3427
경기도 수원시 영통구 이의동 1348 광교중앙역 SK VIEW,"경기도 수원시 영통구 에듀타운로 102, 광교중앙역 SK VIEW 제비동 1층 137호 (이의동)",204015.176,420871.3192
경기도 수원시 권선구 세류동 152-37,"경기도 수원시 권선구 정조로588번길 20, 1층 (세류동)",201229.2126,417659.9797
"경기도 수원시 권선구 호매실동 1401 109, 109-1호","경기도 수원시 권선구 호매실로104번길 24-43, 109, 109-1호 (호매실동)",196610.7288,417359.4528
경기도 수원시 장안구 조원동 861 주공뉴타운,"경기도 수원시 장안구 금당로39번길 34, 상가동 104호 (조원동, 주공뉴타운)",201609.1362,422351.1484
경기도 수원시 장안구 정자동 950 화서역 파크푸르지오,"경기도 수원시 장안구 대평로 27, 107,108,109호 (정자동, 화서역 파크푸르지오)",199460.3014,420871.7892
경기도 수원시 장안구 송죽동 517,"경기도 수원시 장안구 송원로 20, 1층 117,118,119호 (송죽동, 수원 아너스빌 위즈)",200533.7721,421676.6406
경기도 수원시 팔달구 매산로1가 11-9 세진브론즈빌,"경기도 수원시 팔달구 덕영대로 899, 세진브론즈빌 1층 103호 (매산로1가)",199957.8828,418466.6404
경기도 수원시 영통구 원천동 292-1,경기도 수원시 영통구 중부대로 482(원천동),205964.4975,418480.4579
경기도 수원시 팔달구 우만동 485-25,"경기도 수원시 팔달구 경수대로680번길 51, 1층 (우만동)",202575.9519,420593.7567
경기도 수원시 영통구 매탄동 172-71,"경기도 수원시 영통구 중부대로246번길 51, 1층 (매탄동)",203639.696,418974.5421
경기도 수원시 영통구 매탄동 1174-11,"경기도 수원시 영통구 권선로820번길 18, 1층 (매탄동)",203366.4994,416993.0558
경기도 수원시 영통구 원천동 364-1,"경기도 수원시 영통구 매영로238번길 30, 101,102호 (원천동)",205530.9604,417619.8253
경기도 수원시 영통구 매탄동 1174-4,"경기도 수원시 영통구 권선로 812-1, 102호 (매탄동)",203381.9828,416995.6609
경기도 수원시 영통구 매탄동 1277 주공그린빌,"경기도 수원시 영통구 동탄원천로915번길 36, 제상가동 1층 106,106-1(일부)호 (매탄동, 주공그린빌)",203906.1771,417224.395
경기도 수원시 권선구 권선동 972-10 1층,"경기도 수원시 권선구 장다리로 109, 1층 (권선동)",201858.1043,417550.8735
경기도 수원시 영통구 매탄동 494-2,"경기도 수원시 영통구 신원로250번길 2, L타워 1층 (매탄동)",205257.5709,417283.976
경기도 수원시 영통구 매탄동 1211 한국아파트,"경기도 수원시 영통구 동탄원천로1109번길 37, 지하1층 (매탄동, 한국아파트)",204940.4165,418573.2413
경기도 수원시 영통구 이의동 1260,경기도 수원시 영통구 대학1로 46(이의동),203899.8678,421991.119
경기도 수원시 팔달구 고등동 80-11,경기도 수원시 팔달구 고매로20번길 24(고등동),200492.2876,418764.5504
경기도 수원시 영통구 원천동 83-23 승전빌딩,"경기도 수원시 영통구 월드컵로 123, 승전빌딩 (원천동)",204411.8362,419269.7672
경기도 수원시 영통구 매탄동 111-1,경기도 수원시 영통구 매봉로49번길 51(매탄동),204403.6235,418967.6298
경기도 수원시 팔달구 고등동 54-34,"경기도 수원시 팔달구 고등로71번길 19-1, 1층 (고등동)",200342.725,419145.0406
경기도 수원시 권선구 권선동 973-5,"경기도 수원시 권선구 세지로94번길 45, 1층 (권선동)",201775.239,417501.5542
경기도 수원시 영통구 영통동 1038-10 운현빌딩,"경기도 수원시 영통구 청명로 87, 운현빌딩 1층 (영통동)",206832.8652,416932.4185
경기도 수원시 영통구 이의동 1352 에듀하임1309오피스텔,"경기도 수원시 영통구 에듀타운로 101, 에듀하임1309오피스텔 101동 110호 (이의동)",203903.941,420852.6758
경기도 수원시 권선구 곡반정동 576-7,"경기도 수원시 권선구 곡선로50번길 45-9, 1층 (곡반정동)",202520.696,414985.1993
경기도 수원시 권선구 세류동 580-17,"경기도 수원시 권선구 정조로 477, 1층 (세류동)",200941.9884,416643.9857
경기도 수원시 장안구 파장동 266-2,"경기도 수원시 장안구 파장천로 39, 지층 (파장동)",199520.2665,423019.909
경기도 수원시팔달구 화서동 272번지 7   호,경기도 수원시 팔달구 화양로 58 (화서동),199593.8571,420147.8427
경기도 수원시권선구 권선동 1039번지 4   호,경기도 수원시 권선구 권광로92번길 15 (권선동),202608.4891,417152.9507
경기도 수원시팔달구 장안동 273번지 3   호,경기도 수원시 팔달구 화서문로 51 (장안동),201127.4195,420393.0013
경기도 수원시장안구 연무동 238호,경기도 수원시 장안구 월드컵로418번길 36 (연무동),202390.3927,421376.0405
경기도 수원시장안구 연무동 6번지 4호,경기도 수원시 장안구 광교산로140번길 3 (연무동),202635.8998,421996.891
경기도 수원시 장안구 연무동 192번지 5호,경기도 수원시 장안구 경수대로743번길 96-2 (연무동),201640.9932,420703.308
경기도 수원시장안구 조원동 738번지 34  호,경기도 수원시 장안구 조원로58번길 13 (조원동),201583.7478,421935.9591
경기도 수원시팔달구 고등동 159번지 9호,,200004.3037,419082.8595
경기도 수원시 장안구 정자동 401 동신아파트,"경기도 수원시 장안구 장안로 232, 상가동 1층 7호 (정자동, 동신아파트)",199547.7529,422317.6341
경기도 수원시팔달구 화서동 30번지 4   호,,200528.73,420134.5985
경기도 수원시팔달구 화서동 436번지 3   호,경기도 수원시 팔달구 수성로 92 (화서동),198939.9513,420004.0236
경기도 수원시 장안구 조원1동 769번지 16호 101호,"경기도 수원시 장안구 송정로 173, 101호 (조원동)",201298.0887,421831.9108
경기도 수원시장안구 송죽동 277번지 100 호,경기도 수원시 장안구 만석로177번길 32 (송죽동),199728.7539,422399.8313
경기도 수원시권선구 권선동 1265호 보성유원산가 1층 103호,"경기도 수원시 권선구 권중로 110 (권선동,보성유원산가 1층 103호)",202420.6578,416334.2467
경기도 수원시 권선구 서둔동 45번지 79호,경기도 수원시 권선구 세화로169번길 26-1 (서둔동),199177.7892,418332.6937
경기도 수원시 권선구 세류2동 537번지 7호,경기도 수원시 권선구 정조로526번길 8 (세류동),200980.1911,417115.8466
경기도 수원시 영통구 원천동 76번지 1호,경기도 수원시 영통구 중부대로 285 (원천동),204118.5793,419119.2292
경기도 수원시권선구 구운동 509번지 14  호,경기도 수원시 권선구 금호로245번길 8 (구운동),197878.3,419355.0834
경기도 수원시영통구 매탄동 호 D3-1 삼성프라자 103,,,
경기도 수원시권선구 입북동 329호,,,
경기도 수원시영통구 매탄동 1174호,경기도 수원시 영통구 권선로 808 (매탄동),203357.398,417041.4189
경기도 수원시 영통구 망포동 488번지 늘푸른 벽산아파트,"경기도 수원시 영통구 영통로90번길 4-27, 103호 (망포동, 늘푸른 벽산아파트)",205319.3172,415336.716
경기도 수원시권선구 세류동 356호,경기도 수원시 권선구 세권로 39 (세류동),200720.2548,417525.585
경기도 수원시 권선구 오목천동 293번지 4호,경기도 수원시 권선구 매송고색로 565 (오목천동),196929.8651,416147.9351
경기도 수원시권선구 권선동 953호,경기도 수원시 권선구 세지로112번길 15-28 (권선동),201775.4833,417837.9131
경기도 수원시권선구 서둔동 17번지 126 호,경기도 수원시 권선구 벌터로 18 (서둔동),199375.4859,417865.4482
경기도 수원시 권선구 세류2동 1159번지,경기도 수원시 권선구 정조로388번길 2 (세류동),201248.7687,415790.8031
경기도 수원시 권선구 금곡동 520 금곡엘지아파트,"경기도 수원시 권선구 금곡로73번길 71, 2동 101,102호 (금곡동, 금곡엘지아파트)",194049.5417,419256.2787
경기도 수원시권선구 탑동 843번지 4   호 천림빌딩  102,"경기도 수원시 권선구 탑동로 22, 102호 (탑동,천림빌딩)",197715.04,418766.9569
경기도 수원시 영통구 하동 1027 광교 LAKE PARK 한양수자인,"경기도 수원시 영통구 광교호수로152번길 23, 지층 205호 (하동, 광교 LAKE PARK 한양수자인)",206257.7725,419857.1253
경기도 수원시 팔달구 인계동 1025-10,"경기도 수원시 팔달구 효원로219번길 48, 1층 (인계동)",202321.2547,418165.7092
경기도 수원시 팔달구 북수동 109-3,경기도 수원시 팔달구 정조로886번길 7 (북수동),201318.5231,420574.0274
경기도 수원시 권선구 세류동 1119 1119,"경기도 수원시 권선구 경수대로277번길 19, 1층 (세류동)",201550.451,416687.5842
경기도 수원시 영통구 이의동 1257-4 광교 파인렉스2,"경기도 수원시 영통구 대학3로4번길 2, 광교 파인렉스2 106호 (이의동)",203754.3352,421956.8455
경기도 수원시 팔달구 인계동 1037 시안프라자,"경기도 수원시 팔달구 인계로 140, 시안프라자 105,106호 (인계동)",202842.1667,418315.8936
경기도 수원시 영통구 이의동 1260-4,경기도 수원시 영통구 대학1로50번길 12 (이의동),203882.98,421938.565
경기도 수원시 영통구 망포동 728 힐스테이트 영통 아파트,"경기도 수원시 영통구 덕영대로 1462-14, 603동 지1층 101호 (망포동, 힐스테이트 영통 아파트)",204253.6827,415715.3169
경기도 수원시 장안구 조원동 898-1,"경기도 수원시 장안구 송원로 81, 메가플러스2차 104호 (조원동)",200746.4893,422239.1954
경기도 수원시 장안구 정자동 30-11,"경기도 수원시 장안구 정자천로188번길 73, 1층 (정자동)",199787.7126,421289.1128
경기도 수원시 영통구 망포동 558 신영통 알파빌딩,"경기도 수원시 영통구 영통로 115, 신영통 알파빌딩 1층 (망포동)",204962.3082,415114.0399
경기도 수원시 권선구 세류동 252-9,"경기도 수원시 권선구 세류로 15, 1층 (세류동)",200404.7262,417795.5081
경기도 수원시 권선구 권선동 1035 수원시청역 SK VIEW 110동 104호,"경기도 수원시 권선구 권선로694번길 26, 110동 104호 (권선동, 수원시청역 SK VIEW)",202234.3973,417337.4304
경기도 수원시 팔달구 화서동 68-16,"경기도 수원시 팔달구 팔달로 163-1, 1층층 (화서동)",200473.7141,420104.1923
경기도 수원시 권선구 고색동 1102 DM프라자,"경기도 수원시 권선구 산업로156번길 201, DM프라자 제1층 104호,105호,106호 (고색동)",198793.4876,415542.884
"경기도 수원시 권선구 금곡동 861 상가동 3,4호","경기도 수원시 권선구 당수1로 15, 상가동 3,4호 (금곡동)",194949.7986,419845.0039
경기도 수원시 장안구 조원동 759-4,"경기도 수원시 장안구 조원로89번길 40, 1층 (조원동)",201176.4326,421990.0789
경기도 수원시 권선구 금곡동 1118-1 세종타운721 121호,"경기도 수원시 권선구 금곡로 204, 세종타운721 1층 121호 (금곡동)",195789.9654,419085.5974
경기도 수원시 팔달구 인계동 359-28,"경기도 수원시 팔달구 권광로255번길 8, 1층 104,105호 (인계동)",202987.791,418683.3831
경기도 수원시 권선구 곡반정동 550-3,"경기도 수원시 권선구 곡반정로 137, 상가1층 (곡반정동)",202783.1446,415365.0369
경기도 수원시 권선구 권선동 1283-2 도원주택,"경기도 수원시 권선구 세권로315번길 33-4, 도원주택 1층 (권선동)",203324.7737,416772.5767
경기도 수원시 장안구 송죽동 444,"경기도 수원시 장안구 만석로209번길 7, 1층층 (송죽동)",199996.1098,422568.4041
경기도 수원시 팔달구 화서동 723-5 성보빌딩,"경기도 수원시 팔달구 정자천로14번길 56, 성보빌딩 106,107호 (화서동)",198180.4506,420493.0412
경기도 수원시 권선구 서둔동 296-124,"경기도 수원시 권선구 세화로134번길 31, 홈씨씨동 1층 (서둔동)",199672.0863,418258.298
경기도 수원시 장안구 영화동 443-13,경기도 수원시 장안구 팔달로 211 (영화동),200717.3807,420502.9982
경기도 수원시 영통구 원천동 607-1,"경기도 수원시 영통구 월드컵로87번길 7, 103호 (원천동)",204772.3109,419094.3615
경기도 수원시 권선구 고색동 1220 수원금호리첸시아퍼스티지 1단지,"경기도 수원시 권선구 서부로1670번길 33, 수원금호리첸시아퍼스티지 1단지 근린생활B동 129호 (고색동)",,
경기도 수원시 장안구 연무동 246-34,"경기도 수원시 장안구 창룡대로 181, 1층 (연무동)",202568.5645,421158.0971
경기도 수원시 장안구 영화동 408-1,"경기도 수원시 장안구 수성로304번길 27, 1층 (영화동)",200498.2351,420928.6835
경기도 수원시 팔달구 인계동 939-11,"경기도 수원시 팔달구 장다리로 323, 1층 (인계동)",202706.0599,419436.339
경기도 수원시 팔달구 인계동 751-9,"경기도 수원시 팔달구 중부대로60번길 40, 1층 (인계동)",201860.1566,419186.305
경기도 수원시 팔달구 우만동 147-18,"경기도 수원시 팔달구 권광로367번길 27, 1층 103호 (우만동)",203110.0737,419653.6429
경기도 수원시 권선구 탑동 819-6,"경기도 수원시 권선구 하탑로21번길 3, 1층 (탑동)",197603.0575,418539.2082
경기도 수원시 영통구 하동 1034 휴먼시아아파트,"경기도 수원시 영통구 광교호수로 84, 상가동 102호 (하동, 휴먼시아아파트)",205902.329,419250.2384
경기도 수원시 영통구 영통동 77-2,"경기도 수원시 영통구 영통로345번길 6, 1층 (영통동)",205646.1217,417175.9244
경기도 수원시 팔달구 우만동 473-22,"경기도 수원시 팔달구 경수대로692번길 11, 1층 (우만동)",202365.2982,420585.3653
경기도 수원시 팔달구 매산로1가 49-11,"경기도 수원시 팔달구 향교로 8, 1층 (매산로1가)",200110.633,418407.3327
경기도 수원시 팔달구 지동 279-7,"경기도 수원시 팔달구 세지로 327-2, 1층 (지동)",202042.1983,419838.3473
경기도 수원시 장안구 천천동 524-2 천천동그린프라자,"경기도 수원시 장안구 덕영대로535번길 34, 천천동그린프라자 107호 (천천동)",198345.0737,421677.9596
경기도 수원시 팔달구 인계동 964-23,"경기도 수원시 팔달구 경수대로495번길 12-3, 1층 (인계동)",202330.6195,418739.1521
"경기도 수원시 권선구 금곡동 66 강남아파트 상가동 204,2호","경기도 수원시 권선구 서수원로 607, 상가동 204,205,206,207호 (금곡동, 강남아파트)",195719.8057,419637.1113
경기도 수원시 권선구 오목천동 227-9,"경기도 수원시 권선구 서수원로183번길 7, 1층 (오목천동)",197132.3372,415689.7927
경기도 수원시 영통구 매탄동 198-92,"경기도 수원시 영통구 매영로 39, 1층 (매탄동)",204106.9024,418611.16
경기도 수원시 영통구 이의동 740-1,"경기도 수원시 영통구 대학로 55, 광교역사내상가동 1층 (이의동)",,
경기도 수원시 팔달구 매산로2가 26-20,"경기도 수원시 팔달구 갓매산로 65, 1층 (매산로2가)",200249.0249,418634.3631
경기도 수원시 권선구 구운동 462 삼환아파트 상가동 지하1호,"경기도 수원시 권선구 수성로 47, 상가동 지하층 1호 (구운동, 삼환아파트)",198024.2074,420238.912
경기도 수원시 권선구 고색동 888-113,"경기도 수원시 권선구 서둔로 15, 1층 (고색동)",198495.2654,416816.3367
경기도 수원시 장안구 율전동 560 서희스타힐스3단지,"경기도 수원시 장안구 덕영대로407번길 83, 지하1층 7~9호 (율전동, 서희스타힐스3단지)",197005.1933,422497.3368
경기도 수원시 장안구 정자동 48-8,"경기도 수원시 장안구 장안로 92, 1층 (정자동)",200124.0177,421161.4632
경기도 수원시 영통구 원천동 209-67,"경기도 수원시 영통구 동탄원천로1109번길 10, 1층 102호 (원천동)",205071.7574,418589.8514
경기도 수원시 영통구 매탄동 1239-11,"경기도 수원시 영통구 인계로264번길 16-5, 1층 (매탄동)",203975.6036,417906.2462
경기도 수원시 장안구 연무동 245-39,"경기도 수원시 장안구 창룡대로 201-1, 1층 (연무동)",202784.2273,421198.8653
경기도 수원시 팔달구 인계동 1030-13,"경기도 수원시 팔달구 효원로235번길 34, 1층 (인계동)",202445.709,418051.2789
경기도 수원시 권선구 권선동 224-1,"경기도 수원시 권선구 경수대로168번길 79, 2층 (권선동)",201960.9116,415404.1701
경기도 수원시 영통구 영통동 1046-1 청명마을삼성아파트,"경기도 수원시 영통구 청명북로 33, 107,108호 (영통동, 청명마을삼성아파트)",206975.1917,417011.2588
경기도 수원시 영통구 매탄동 1169-3,"경기도 수원시 영통구 매탄로 55-1, 1층 (매탄동)",203540.2236,417145.6745
경기도 수원시 팔달구 인계동 1115-11,"경기도 수원시 팔달구 인계로166번길 15-4, 1층 102호 (인계동)",203077.2287,418170.5895
경기도 수원시 장안구 송죽동 216-1,"경기도 수원시 장안구 경수대로 998, 1층 (송죽동)",200150.5877,422668.1422
경기도 수원시 영통구 영통동 1008-1,"경기도 수원시 영통구 청명남로 12, 1층 (영통동)",206521.3281,416573.7724
경기도 수원시 팔달구 매교동 287-110,"경기도 수원시 팔달구 효원로93번길 33, 2동 110호 (매교동)",201012.3911,418409.3708
경기도 수원시 팔달구 고등동 219-21,"경기도 수원시 팔달구 고등로 32, 101호 (고등동)",199976.6076,418974.7589
경기도 수원시 권선구 호매실동 1403-4 1동 102호,"경기도 수원시 권선구 호매실로90번길 27, Good프라임 1동 102호 (호매실동)",196684.1128,417215.2108
경기도 수원시 팔달구 고등동 67-12,경기도 수원시 팔달구 고매로 32(고등동),200441.4812,418929.3433
경기도 수원시 영통구 망포동 485-4,"경기도 수원시 영통구 영통로90번길 24, 102호 (망포동)",205224.4785,415151.8549
경기도 수원시 장안구 송죽동 379-1 송죽빌딩,경기도 수원시 장안구 정조로 1039 (송죽동),200491.517,421858.8195
경기도 수원시 권선구 고색동 306-1 거산아파트 상가동 101호,"경기도 수원시 권선구 고현로5번길 25, 상가동 101호 (고색동, 거산아파트)",198696.0225,416219.6085
경기도 수원시 영통구 매탄동 131-2,경기도 수원시 영통구 중부대로 282(매탄동),204040.2083,419089.6774
경기도 수원시 팔달구 고등동 37-14,"경기도 수원시 팔달구 고등로 79, 102호 (고등동)",200452.5798,419074.0792
경기도 수원시 권선구 호매실동 1408 능실마을21단지,"경기도 수원시 권선구 호매실로 103, 능실마을21단지 상가동 101, 102, 103호 (호매실동, 능실마을21단지)",196350.5196,416910.6494
경기도 수원시 팔달구 우만동 514-5 홍산빌딩,"경기도 수원시 팔달구 팔달문로163번길 49, 홍산빌딩 (우만동)",202788.8075,420324.3749
경기도 수원시 팔달구 인계동 1046-7 영헌빌딩,"경기도 수원시 팔달구 효원로265번길 20, 영헌빌딩 (인계동)",202707.0379,417899.1839
경기도 수원시 장안구 송죽동 389-1 GS25시,"경기도 수원시 장안구 송원로14번길 52, GS25시 1층 (송죽동)",200660.178,421597.3812
경기도 수원시 장안구 천천동 565 삼호마트,"경기도 수원시 장안구 하률로46번길 22, 상가동 1층 102호 (천천동, 삼호진덕아파트)",197929.7358,422225.4249
경기도 수원시 팔달구 교동 142-19,"경기도 수원시 팔달구 매산로116번길 14, 1층 (교동)",201125.4,418742.0935
"경기도 수원시 권선구 곡반정동 548 권선신일유토빌 B107,호","경기도 수원시 권선구 동수원로146번길 281-25, B107, B108, B109 일부호 (곡반정동, 권선신일유토빌)",202583.6737,415360.1475
경기도 수원시 장안구 율전동 290-19,"경기도 수원시 장안구 서부로2126번길 33, 1층 (율전동)",197580.2442,421774.6972
경기도 수원시 장안구 율전동 288-4 성대프라자,"경기도 수원시 장안구 서부로2126번길 9, 성대프라자 1층 101호 (율전동)",197462.5984,421801.7294
경기도 수원시 팔달구 매교동 269-5,"경기도 수원시 팔달구 정조로623번길 23, 1층 (매교동)",201156.2346,418094.5809
경기도 수원시 팔달구 우만동 503-17,"경기도 수원시 팔달구 경수대로656번길 63, 1층 (우만동)",202726.2941,420410.7487
경기도 수원시 장안구 파장동 599-15 지에스25 파장센터점,"경기도 수원시 장안구 파장로34번길 3, 지에스25 파장센터점 (파장동)",199660.4952,422574.0509
경기도 수원시 팔달구 인계동 1118-4,"경기도 수원시 팔달구 권광로196번길 50, 1층 (인계동)",203118.4343,418019.9451
경기도 수원시 권선구 금곡동 1077 수원모아미래도센트럴타운2단지 상가동 B224호,"경기도 수원시 권선구 서수원로577번길 305, 상가동 B224호 (금곡동, 수원모아미래도센트럴타운2단지)",194646.9146,419291.254
경기도 수원시 권선구 금곡동 240-34 105호,"경기도 수원시 권선구 금호로 67, 105호 (금곡동)",196263.5354,418710.3114
경기도 수원시 장안구 율전동 314-10,"경기도 수원시 장안구 율전로107번길 27, 1층 (율전동)",197065.2207,421891.3064
"경기도 수원시 팔달구 고등동 156-117 수원역푸르지오자이근린생활시설 3동 29,30호","경기도 수원시 팔달구 고등로 15, 3동 지층 29,30,31호 (고등동, 수원역푸르지오자이)",199837.5161,419105.8082
경기도 수원시 팔달구 고등동 156-117 수원역푸르지오자이 근린생활시설 2동,"경기도 수원시 팔달구 고등로 15, 2동 26,27호 (고등동, 수원역푸르지오자이)",199837.5161,419105.8082
경기도 수원시 장안구 정자동 919 청솔마을 한라 아파트,"경기도 수원시 장안구 만석로20번길 28, 상가동 1층 101호 (정자동, 청솔마을 한라 아파트)",198494.4107,421339.6518
경기도 수원시 장안구 파장동 525-1,경기도 수원시 장안구 수일로92번길 9(파장동),199993.0631,423049.8227
경기도 수원시 영통구 매탄동 492-7,"경기도 수원시 영통구 신원로 228, 1층 (매탄동)",205281.3669,417136.3415
경기도 수원시 영통구 하동 956 휴먼시아아파트,"경기도 수원시 영통구 광교중앙로 247, 상가동 1층 105호,106호,107호 (하동, 휴먼시아아파트)",205750.5142,421341.6921
경기도 수원시 권선구 금곡동 1100 Y CITY(와이시티) 101호,"경기도 수원시 권선구 금곡로 20, 101호 (금곡동, Y CITY(와이시티))",194599.2705,418607.0893
경기도 수원시 권선구 금곡동 1114-1 리더스빌딩 115호,"경기도 수원시 권선구 금곡로 219, 리더스빌딩 115호 (금곡동)",195858.1535,419228.5768
경기도 수원시 권선구 서둔동 46-4,"경기도 수원시 권선구 서호동로 26, 씨유 수원서둔스카이점 1층 (서둔동)",199139.7721,418495.7644
경기도 수원시 영통구 매탄동 1166,"경기도 수원시 영통구 권선로803번길 36, 1층 (매탄동)",203472.8502,417233.1792
경기도 수원시 장안구 조원동 664-8 뜨레모아아파트,"경기도 수원시 장안구 송정로118번길 7, 1층 106호 (조원동, 뜨레모아아파트)",200852.1976,421504.1899
경기도 수원시팔달구 인계동 953번지 12  호,경기도 수원시 팔달구 경수대로565번길 9 (인계동),202549.5019,419362.2143
경기도 수원시 권선구 고색동 958 고색동 첨단벤처밸리,"경기도 수원시 권선구 오목천로152번길 40, 첨단벤처밸리 제1층 108호 (고색동)",197917.8473,415670.8974
경기도 수원시 팔달구 인계동 959,"경기도 수원시 팔달구 경수대로533번길 1, 1층 (인계동)",202476.2599,419056.9739
경기도 수원시 권선구 탑동 848 해피타운,"경기도 수원시 권선구 하탑로41번길 41, 해피타운 지하1층 (탑동)",197751.3931,418758.3785
경기도 수원시 영통구 매탄동 153-35,"경기도 수원시 영통구 중부대로 248, 1층 (매탄동)",203723.6356,419198.771
경기도 수원시 영통구 매탄동 1203-8,"경기도 수원시 영통구 동탄원천로1109번길 104, 1층 (매탄동)",204645.7291,418776.9753
경기도 수원시 팔달구 인계동 971-1,"경기도 수원시 팔달구 장다리로233번길 23, 1층 (인계동)",202146.4444,418759.2825
경기도 수원시 팔달구 매산로2가 97-5 1층,"경기도 수원시 팔달구 매산로20번길 9, 1층 (매산로2가)",200252.8952,418343.2086
경기도 수원시 장안구 정자동 884-4 두견마을 3차 벽산아파트,"경기도 수원시 장안구 정자천로188번길 28, 상가동 107,108호 (정자동, 두견마을 3차 벽산아파트)",199591.5389,421428.2022
경기도 수원시 장안구 송죽동 272-10 태영빌딩,"경기도 수원시 장안구 파장로 7, 1층 (송죽동)",199859.1432,422417.3368
경기도 수원시 팔달구 매교동 161 매교종합상가 1A동 126호,"경기도 수원시 팔달구 정조로 651, 매교종합상가 1A동 126호 (매교동)",201322.1674,418309.4328
경기도 수원시 팔달구 지동 482-7 1층,"경기도 수원시 팔달구 경수대로 609-7, 1층 (지동)",202574.0891,419765.4215
경기도 수원시 팔달구 신풍동 109-7 1층,"경기도 수원시 팔달구 화서문로32번길 28, 1층 (신풍동)",201016.1619,420219.4
경기도 수원시 영통구 이의동 1316,"경기도 수원시 영통구 센트럴파크로127번길 1, 102호 (이의동)",204895.2596,421436.7416
경기도 수원시 권선구 권선동 944-8,"경기도 수원시 권선구 경수대로395번길 20, 1층, 지층 (권선동)",201991.8091,417795.5723
경기도 수원시 권선구 탑동 753-10,"경기도 수원시 권선구 탑동로57번길 38, 101호 (탑동)",197428.2763,419092.5617
경기도 수원시 장안구 영화동 347-2 대성빌딩,"경기도 수원시 장안구 정조로957번길 21, 대성빌딩 1층 (영화동)",200841.3621,421124.276
경기도 수원시 팔달구 고등동 6-3 1층,"경기도 수원시 팔달구 팔달로110번길 3, 1층 (고등동)",200272.264,419608.6478
경기도 수원시 장안구 율전동 157-3,경기도 수원시 장안구 덕영대로425번길 23 (율전동),197221.2897,422213.8816
경기도 수원시 영통구 매탄동 810-3 삼성1차아파트,"경기도 수원시 영통구 인계로 219, 지층 (매탄동, 삼성1차아파트)",203654.1409,418212.5853
경기도 수원시 영통구 망포동 47-12 영통 플래티넘베이스 비,"경기도 수원시 영통구 망포로 142, 영통 플래티넘베이스 비 (망포동)",204310.7447,415445.7787
경기도 수원시 영통구 하동 965-7,"경기도 수원시 영통구 법조로149번길 269, 1층 (하동)",206150.5579,421272.3517
경기도 수원시 영통구 이의동 1335 아이플렉스,"경기도 수원시 영통구 센트럴타운로 15, 125-137호 (이의동, 아이플렉스)",205021.862,420685.357
경기도 수원시 장안구 정자동 530-6,"경기도 수원시 장안구 장안로 271, 북수원자이렉스비아상가 3동 111,112,113,114호 (정자동)",199035.2456,422577.7324
경기도 수원시 권선구 세류동 590-11,"경기도 수원시 권선구 정조로443번길 3, 1층 (세류동)",201034.8742,416322.3222
경기도 수원시 권선구 세류동 1088-10,"경기도 수원시 권선구 세지로42번길 9-2, 1층 (세류동)",201433.9003,417107.8712
경기도 수원시 팔달구 인계동 1030-6 SCT타워,"경기도 수원시 팔달구 권광로175번길 52, 1층 104호 (인계동, SCT타워)",202542.1959,418027.5479
경기도 수원시 팔달구 매산로1가 14-5,"경기도 수원시 팔달구 향교로1번길 20, 1층 127호 (매산로1가)",199998.8731,418493.1938
경기도 수원시 팔달구 화서동 181-5,"경기도 수원시 팔달구 동말로48번길 26, 1층 (화서동)",199886.1504,419516.4351
경기도 수원시 팔달구 매산로3가 69-5,"경기도 수원시 팔달구 매산로92번길 12, 1층 (매산로3가)",200870.0566,418602.2533
경기도 수원시 영통구 영통동 956-2 대우.동신아파트,"경기도 수원시 영통구 영통로 460, 제분산상가동 1층 103, 104호 (영통동, 대우.동신아파트)",206734.792,417510.3025
경기도 수원시 권선구 세류동 494-20,경기도 수원시 권선구 정조로587번길 12 (세류동),201068.3511,417752.9471
경기도 수원시 권선구 호매실동 1405-2 145호,"경기도 수원시 권선구 호매실로90번길 24, 1층 145호 (호매실동)",196774.8611,417196.1822
경기도 수원시 영통구 망포동 805 영통 롯데캐슬 엘클래스 1단지,"경기도 수원시 영통구 망포로47번길 30, 근린생활시설동 9호 (망포동, 영통 롯데캐슬 엘클래스 1단지)",,
경기도 수원시 팔달구 인계동 1032-8 1층,"경기도 수원시 팔달구 경수대로446번길 61, 1층 (인계동)",202592.3297,418147.9502
경기도 수원시 권선구 권선동 1016-5 101호,"경기도 수원시 권선구 권선로699번길 24-22, 101호 (권선동)",202519.8106,417519.9844
경기도 수원시 장안구 연무동 258-45,"경기도 수원시 장안구 월드컵로 417, 1층 (연무동)",202263.5202,421220.8099
경기도 수원시 장안구 송죽동 458-1 레이크시티,"경기도 수원시 장안구 정조로1088번길 18-12, 101동 103호 (송죽동, 레이크시티)",200273.5181,422265.9925
경기도 수원시 장안구 파장동 495-25,"경기도 수원시 장안구 만석로159번길 56, 1층 (파장동)",199650.0632,422457.1238
경기도 수원시 장안구 정자동 871-3 백설마을 주공아파트,"경기도 수원시 장안구 대평로89번길 10, 제상가동 1층 101호 (정자동, 백설마을 주공아파트)",199185.8349,421617.5348
경기도 수원시 팔달구 매교동 122-9,경기도 수원시 팔달구 매산로116번길 70 (매교동),201255.4902,418486.2808
경기도 수원시 영통구 매탄동 383-8,"경기도 수원시 영통구 삼성로 210, 지하1층 B05호 (매탄동)",205235.5777,417693.8452
경기도 수원시 영통구 원천동 산 5-1 아주대학교,"경기도 수원시 영통구 월드컵로 206, 아주대학교 일신관 1층 일부호 (원천동)",203953.7592,420237.1865
경기도 수원시 권선구 평동 179 수원 SK V1 motors,"경기도 수원시 권선구 평동로79번길 45, 수원 SK V1 motors 154호 (평동)",199286.6846,417546.1717
경기도 수원시 영통구 매탄동 407-33,"경기도 수원시 영통구 신원로 259-2, 1층 (매탄동)",205279.2728,417424.0706
경기도 수원시 영통구 매탄동 1263-4 우영프라자Ⅱ,"경기도 수원시 영통구 매탄로100번길 17, 우영프라자Ⅱ 103호 (매탄동)",203849.0194,417511.1719
경기도 수원시 장안구 정자동 887-6 루카빌딩,"경기도 수원시 장안구 대평로 28-16, 루카빌딩 1층 (정자동)",199642.1081,421031.6305
경기도 수원시 권선구 세류동 475-2,경기도 수원시 권선구 정조로565번길 17(세류동),200940.2485,417522.2557
경기도 수원시 팔달구 화서동 113-9,경기도 수원시 팔달구 팔달로107번길 63(화서동),199923.1749,419587.0408
경기도 수원시 팔달구 고등동 263-6,"경기도 수원시 팔달구 갓매산로 88, 1층 (고등동)",200044.0484,418715.7404
경기도 수원시 팔달구 인계동 953-5,"경기도 수원시 팔달구 경수대로 555, 1층 (인계동)",202553.3826,419278.7781
경기도 수원시 팔달구 고등동 272-50 수원고등 LH2단지,"경기도 수원시 팔달구 고등로 8, 근린생활시설동 1층 102호 (고등동, 수원고등 LH2단지)",199712.552,418933.4395
경기도 수원시 영통구 하동 1019 광교 더샵 레이크파크,"경기도 수원시 영통구 법조로 38, 광교더샵레이크파크 판매시설동 107호,108호 (하동)",205498.5405,420562.0743
"경기도 수원시 영통구 이의동 1331 광교푸르지오 월드마크,  월드스퀘어","경기도 수원시 영통구 센트럴타운로 107, 204동 B-11호, B-12호 (이의동, 광교푸르지오 월드마크, 월드스퀘어)",204219.5217,421105.1732
경기도 수원시 권선구 곡반정동 587-8,경기도 수원시 권선구 경수대로54번길 77(곡반정동),202181.9282,414755.1247
경기도 수원시 영통구 매탄동 1199 원천성일아파트,"경기도 수원시 영통구 동탄원천로1109번길 42, 상가동 1층 104호 (매탄동, 원천성일아파트)",204913.0955,418779.5566
경기도 수원시 영통구 영통동 980-3 디지털엠파이어빌딩,"경기도 수원시 영통구 덕영대로1556번길 16, 영통디지털엠파이어 226호 (영통동)",205249.4958,415913.2738
경기도 수원시 팔달구 화서동 250-4 블루밍 푸른숲 아파트,"경기도 수원시 팔달구 화양로50번길 30, 104,105호 (화서동, 블루밍 푸른숲 아파트)",199931.0539,420059.7259
경기도 수원시 권선구 금곡동 240-3,경기도 수원시 권선구 금호로53번길 16(금곡동),196132.4851,418704.6516
경기도 수원시 영통구 원천동 548 원천 레이크파크아파트,"경기도 수원시 영통구 중부대로448번길 28, 상가동 101호 (원천동, 원천 레이크파크아파트)",205267.7115,418474.4529
경기도 수원시 장안구 파장동 184 경기도인재개발원,"경기도 수원시 장안구 경수대로 1150, 경기도인재개발원 1층 (파장동)",199118.0857,423744.5899
경기도 수원시 팔달구 지동 73-5,경기도 수원시 팔달구 중부대로 119(지동),202533.957,419604.6574
경기도 수원시 권선구 곡반정동 0,"경기도 수원시 권선구 곡반정로 158, 일원 수원 하늘채 더퍼스트 2단지 단지내상가 104호 (곡반정동)",,
경기도 수원시 장안구 파장동 630 제로마트,"경기도 수원시 장안구 수일로104번길 28, 제로마트 1층 (파장동)",200028.1342,422926.9379
경기도 수원시 팔달구 고등동 61-108,"경기도 수원시 팔달구 고등로 92, 103호 (고등동)",200572.4285,419034.769
경기도 수원시 장안구 율전동 395-9,"경기도 수원시 장안구 화산로259번길 56, 1층 (율전동)",197036.147,421762.6083
경기도 수원시 영통구 매탄동 205,"경기도 수원시 영통구 매원로11번길 32, 1층 일부호 (매탄동)",204193.7993,418443.9039
경기도 수원시 팔달구 인계동 746-2,경기도 수원시 팔달구 세지로 272(인계동),202035.3273,419264.32
경기도 수원시팔달구 매산로2가 9번지 1   호,경기도 수원시 팔달구 향교로57번길 13 (매산로2가),200526.8042,418692.2935
경기도 수원시팔달구 인계동 750번지 69호,경기도 수원시 팔달구 중부대로 50-1 (인계동),201919.8825,419245.0431
경기도 수원시팔달구 인계동 1125호 대원콤비프라자 5층  501,"경기도 수원시 팔달구 효원로 288, 501호 (인계동,대원콤비프라자 5층)",202857.0345,417654.265
경기도 수원시 영통구 이의동 1286-1 에이스광교타워2,"경기도 수원시 영통구 창룡대로256번길 91, 에이스광교타워2 1층 109호 (이의동)",203624.0414,421526.4377
경기도 수원시 장안구 송죽동 500-34,"경기도 수원시 장안구 경수대로927번길 16, 1층 102호 (송죽동)",200641.8872,422143.937
경기도 수원시 팔달구 인계동 1116-10,"경기도 수원시 팔달구 권광로196번길 43-20, 101호 (인계동)",203144.1528,418136.648
경기도 수원시 팔달구 지동 138-3 진우아파트,"경기도 수원시 팔달구 팔달문로 82, 진우아파트 상가동 101,102,103,104호 (지동)",202225.4966,419808.5382
경기도 수원시 권선구 금곡동 242-34,"경기도 수원시 권선구 금호로 39, 1층 일부 (금곡동)",196043.5492,418567.7631
경기도 수원시 권선구 세류동 464-1,"경기도 수원시 권선구 정조로543번길 17, 1층 (세류동)",200871.4979,417342.0557
경기도 수원시 장안구 정자동 28-1 경원탑펠리스,"경기도 수원시 장안구 장안로 137, 101,102호 (정자동, 경원탑펠리스)",199832.7459,421534.9833
경기도 수원시 권선구 권선동 1286-2,"경기도 수원시 권선구 세권로 304, 1층 (권선동)",203222.1313,416687.7858
경기도 수원시 영통구 매탄동 1178-7,"경기도 수원시 영통구 동수원로286번길 13-2, 1층 (매탄동)",203222.9181,417005.8184
경기도 수원시 권선구 권선동 1263 신우아파트,"경기도 수원시 권선구 권중로 82, 상가2동 1층 (권선동, 신우아파트)",202459.2972,416597.0202
경기도 수원시 영통구 원천동 300-3 신미주아파트,"경기도 수원시 영통구 삼성로 308, 상가동 1층 102,103호 (원천동, 신미주아파트)",205926.7428,418280.677
경기도 수원시 영통구 이의동 1335 아이플렉스,"경기도 수원시 영통구 센트럴타운로 15, 124호 (이의동, 아이플렉스)",205021.862,420685.357
경기도 수원시 영통구 신동 498-6,경기도 수원시 영통구 신원로 66 (신동),204245.1548,416245.7896
경기도 수원시 권선구 서둔동 200-47,"경기도 수원시 권선구 상탑로 112, 102호 행복마트 (서둔동)",198450.5882,418773.7196
경기도 수원시 영통구 원천동 628 영흥숲푸르지오파크비엔,"경기도 수원시 영통구 영흥숲길 50, 근린생활시설 1동 101호 (원천동, 영흥숲푸르지오파크비엔)",,
경기도 수원시 권선구 고색동 52-8,"경기도 수원시 권선구 고색로54번길 2, 1층 (고색동)",198388.9702,416461.5649
경기도 수원시 권선구 권선동 1023-2 이오스 오피스텔,"경기도 수원시 권선구 권광로 145, 1층 104호 (권선동, 이오스 오피스텔)",202682.935,417648.83
경기도 수원시 팔달구 지동 475,"경기도 수원시 팔달구 팔달문로75번길 76, 1층 (지동)",202348.4589,420094.5187
경기도 수원시 장안구 정자동 16-2 영화점 상가,"경기도 수원시 장안구 수성로 337, 영화점 상가 1,2층 (정자동)",200709.1034,421202.4903
경기도 수원시 장안구 파장동 640 포레나 북수원,"경기도 수원시 장안구 경수대로 1110-39, 101,102호 (파장동, 포레나 북수원)",,
경기도 수원시 장안구 정자동 36-1,"경기도 수원시 장안구 송정로 62, 1층 (정자동)",200274.2361,421540.6958
경기도 수원시 장안구 영화동 394-3,"경기도 수원시 장안구 수성로 280, 1층 (영화동)",200203.0177,420930.499
경기도 수원시 영통구 원천동 79-10,"경기도 수원시 영통구 중부대로 259, 101호 (원천동)",203878.6384,419229.7565
경기도 수원시 팔달구 매산로3가 105-22,"경기도 수원시 팔달구 갓매산로 20, 동광주택 1층 (매산로3가)",200511.4912,418285.8123
경기도 수원시 권선구 고색동 1152 수원벤처밸리∥,"경기도 수원시 권선구 산업로156번길 142-10, 수원벤처밸리∥ A동 117호 (고색동)",198724.1689,415170.761
경기도 수원시 권선구 권선동 1187-1 신현대아파트,"경기도 수원시 권선구 권광로27번길 22, 상가동 102호, 103호 (권선동, 신현대아파트)",202322.9963,416583.087
경기도 수원시 팔달구 화서동 184-77,경기도 수원시 팔달구 동말로4번길 23 (화서동),199541.7952,419349.034
경기도 수원시 장안구 영화동 423-6 성광수퍼,"경기도 수원시 장안구 수성로258번길 83, 1층 (영화동)",200305.537,420592.3365
경기도 수원시 권선구 금곡동 1142-2,경기도 수원시 권선구 금호로 83-2 (금곡동),196355.3067,418864.3392
경기도 수원시 장안구 정자동 887-1 화서역 우방 센트럴파크,"경기도 수원시 장안구 수성로245번길 21, 게상가동 제1층 110,111호 (정자동, 화서역 우방 센트럴파크)",199713.9991,420924.0073
경기도 수원시 권선구 당수동 216,"경기도 수원시 권선구 당수로 179, 가동 1호 (당수동)",194985.7634,420883.4997
경기도 수원시 영통구 영통동 961-6 영통트리플렉스,"경기도 수원시 영통구 매영로345번길 7, 영통트리플렉스 102호 (영통동)",206219.544,416763.2898
경기도 수원시 팔달구 매산로1가 16-7,경기도 수원시 팔달구 향교로 1 (매산로1가),200044.3582,418413.3183
경기도 수원시 영통구 원천동 605 더샵 광교레이크시티,"경기도 수원시 영통구 광교호수공원로 20, 114호 (원천동, 더샵 광교레이크시티)",205289.1603,418886.4364
경기도 수원시 팔달구 인계동 847-3,"경기도 수원시 팔달구 인계로 21, 수원센트럴아이파크자이상가 3동 101,102호 (인계동)",201936.9919,418852.8148
경기도 수원시 권선구 탑동 824-3,"경기도 수원시 권선구 탑동로11번길 35, 1층 (탑동)",197534.7442,418623.7784
경기도 수원시 영통구 매탄동 208-65,"경기도 수원시 영통구 매탄로178번길 30, 1층 (매탄동)",204065.1402,418152.5301
경기도 수원시 영통구 이의동 1266-10,"경기도 수원시 영통구 대학1로8번길 93, 101호 (이의동)",204037.3668,421818.9847
경기도 수원시 팔달구 우만동 57-2,"경기도 수원시 팔달구 아주로39번길 22, 1층 (우만동)",203695.8436,419614.7371
경기도 수원시 팔달구 매교동 138-4 마인프라자 101호,"경기도 수원시 팔달구 정조로 697, 마인프라자 101호 (매교동)",201480.5532,418758.1468
경기도 수원시 권선구 고색동 659-2 스타빌딩,"경기도 수원시 권선구 고산로4번길 6, 1층 일부 (고색동)",198417.2545,416101.5507
경기도 수원시 권선구 세류동 1098 혜원빌딩,"경기도 수원시 권선구 장다리로 50, 1층 (세류동)",201673.1615,416983.23
경기도 수원시 영통구 영통동 1029-16,"경기도 수원시 영통구 청명로43번길 15, 1층 (영통동)",207003.3733,416583.0675
경기도 수원시 영통구 매탄동 208-18,"경기도 수원시 영통구 매탄로 180, 1층 일부호 (매탄동)",204016.2106,418262.8504
경기도 수원시 영통구 매탄동 1267-7 중앙프라자,"경기도 수원시 영통구 효원로 397, 중앙프라자 104호 (매탄동)",203934.5022,417457.2923
경기도 수원시 장안구 조원동 775 수원종합운동장(야구장),"경기도 수원시 장안구 경수대로 893, 수원종합운동장(야구장) (조원동)",200883.1241,421767.3643
경기도 수원시 장안구 연무동 233-21 방내과소아과,"경기도 수원시 장안구 연무로 54, 방내과소아과 1층 (연무동)",202222.8338,421536.0787
경기도 수원시팔달구 우만동 98호 선경아파트 상가 101,"경기도 수원시 팔달구 중부대로 215, 상가동 101호 (우만동,선경아파트)",203469.7585,419400.053
경기도 수원시권선구 서둔동 51번지 8   호,경기도 수원시 권선구 서호동로 6 (서둔동),198956.4658,418436.7225
경기도 수원시팔달구 지동 360번지 15  호,경기도 수원시 팔달구 세지로 295 (지동),202014.759,419500.9139
경기도 수원시영통구 매탄동 1번지 1호,경기도 수원시 영통구 중부대로 384 (매탄동),205006.111,418804.8311
경기도 수원시 영통구 영통동 985-5,경기도 수원시 영통구 봉영로1482번길 17-4(영통동),205860.9579,415929.5891
경기도 수원시 권선구 권선동 1186번지 삼천리권선1차아파트,"경기도 수원시 권선구 권광로27번길 62, 106,108호 (권선동, 삼천리권선1차아파트)",202071.6562,416671.7387
"경기도 수원시 영통구 영통1동 994번지 2호 2,3호","경기도 수원시 영통구 봉영로 1576 (영통동,2,3호)",206365.5257,416652.3016
경기도 수원시권선구 오목천동 545번지 11  호,경기도 수원시 권선구 서수원로 161-18 (오목천동),197152.2684,415514.3113
경기도 수원시장안구 연무동 227번지 3   호,경기도 수원시 장안구 창훈로 27 (연무동),202629.2998,421455.1871
경기도 수원시 영통구 영통동 1011-4,경기도 수원시 영통구 반달로 103(영통동),206779.6008,416719.4691
경기도 수원시팔달구 인계동 1031호   101,"경기도 수원시 팔달구 경수대로446번길 42, 101호 (인계동)",202478.0609,418148.5348
경기도 수원시팔달구 고등동 265번지 20  호,경기도 수원시 팔달구 고등로14번길 53 (고등동),199897.1489,418759.2405
경기도 수원시 팔달구 인계동 1040번지 4호 현진상가 1층,"경기도 수원시 팔달구 인계로138번길 36 (인계동,현진상가 1층)",202745.3494,418177.5816
경기도 수원시 팔달구 인계동 1120번지 5호,경기도 수원시 팔달구 효원로291번길 53 (인계동),202979.3397,417977.7944
경기도 수원시 영통구 원천동 199-7,"경기도 수원시 영통구 중부대로 404-15, 1층 (원천동)",205133.697,418736.7492
경기도 수원시권선구 권선동 1189번지 수원복합터미널,"경기도 수원시 권선구 경수대로 270 (권선동,수원복합터미널)",201782.7331,416501.6997
경기도 수원시권선구 권선동 1189호 터미널복합상가,"경기도 수원시 권선구 경수대로 270 (권선동,터미널복합상가)",201782.7331,416501.6997
경기도 수원시 팔달구 고등동 5-7,경기도 수원시 팔달구 동말로106번길 6 (고등동),200448.8745,419608.0292
경기도 수원시 권선구 세류동 554-6,"경기도 수원시 권선구 새터로 9, 1층 (세류동)",200616.1904,416960.1388
경기도 수원시 팔달구 북수동 173,"경기도 수원시 팔달구 정조로 872, 1층 (북수동)",201326.7047,420421.743
경기도 수원시 권선구 호매실동 1380 호매실마을 14단지 벨섬시티,"경기도 수원시 권선구 호매실로218번길 22, 101, 102호 (호매실동, 호매실마을 14단지 벨섬시티)",196422.561,417863.8929
경기도 수원시 팔달구 인계동 977-10 대양빌딩,"경기도 수원시 팔달구 경수대로467번길 22, 101호 (인계동)",202201.9847,418481.6826
경기도 수원시 팔달구 고등동 225-15,"경기도 수원시 팔달구 팔달로 31, 서영아너시티온 1층 108호 (고등동)",200001.3844,418871.5045
경기도 수원시 권선구 고색동 36-16,"경기도 수원시 권선구 고색로 80, 1층 (고색동)",198636.675,416565.6029
경기도 수원시 권선구 권선동 1304 매탄권선역 리버파크 상가동 104호,"경기도 수원시 권선구 세권로 334, 상가동 104호 (권선동, 매탄권선역 리버파크)",203442.7965,416479.6234
경기도 수원시 팔달구 고등동 29-16,경기도 수원시 팔달구 고화로62번길 1 (고등동),200497.5316,419215.4049
경기도 수원시 장안구 정자동 51-50,"경기도 수원시 장안구 영화로85번길 12-4, 1층 (정자동)",200399.4757,421325.2517
경기도 수원시 장안구 조원동 861 주공뉴타운,"경기도 수원시 장안구 금당로39번길 34, 가상가동 지하1층 1호 (조원동, 주공뉴타운)",201609.1362,422351.1484
경기도 수원시 장안구 천천동 511 비단마을 베스트타운,"경기도 수원시 장안구 정자로42번길 52, 상가동 101호 (천천동, 비단마을 베스트타운)",198232.4517,421789.3456
경기도 수원시 영통구 망포동 691 망포역마을 쌍용아파트,"경기도 수원시 영통구 영통로173번길 41, 망포역마을 쌍용아파트 상가동 1층 104,105호 (망포동)",204534.4062,415668.8552
경기도 수원시 영통구 원천동 589 광교중흥에스클래스,"경기도 수원시 영통구 광교호수공원로 277 (원천동, 광교중흥에스클래스)",205026.0796,420062.8782
경기도 수원시팔달구 우만동 301번지 영구A 복지상가 101호,"경기도 수원시 팔달구 창룡대로210번길 13, 101호 (우만동,영구A 복지상가)",203005.8017,421119.5038
경기도 수원시영통구 매탄동 866번지 18  호,경기도 수원시 영통구 산남로 2 (매탄동),204112.7814,417995.6229
경기도 수원시영통구 망포동 649번지 25  호,경기도 수원시 영통구 태장로54번길 64 (망포동),204526.7494,414933.9561
경기도 수원시 영통구 영통동 1024-7 영통빌딩,"경기도 수원시 영통구 덕영대로 1699, 영통빌딩 108호 (영통동)",206768.934,416231.6882
경기도 수원시장안구 조원동 729번지 16호,경기도 수원시 장안구 조원로112번길 2 (조원동),201202.0101,422268.5546
경기도 수원시영통구 영통동 1002호,,,
경기도 수원시팔달구 우만동 481번지 14  호,경기도 수원시 팔달구 월드컵로357번길 5-4 (우만동),202672.1244,420794.7684
경기도 수원시팔달구 화서동 101번지 1   호,경기도 수원시 팔달구 동말로77번길 45 (화서동),200158.03,419884.8185
경기도 수원시권선구 서둔동 호 농생명과학대학교,,,
경기도 수원시팔달구 고등동 3번지 19  호,경기도 수원시 팔달구 고화로108번길 1 (고등동),200536.1864,419666.9535
경기도 수원시 영통구 영통동 974-6 세일빌딩,"경기도 수원시 영통구 덕영대로1555번길 13, 세일빌딩 1층 111호 (영통동)",205321.6664,416097.7663
경기도 수원시팔달구 우만동 519번지 3   호,경기도 수원시 팔달구 월드컵로 299-1 (우만동),203040.28,420373.395
경기도 수원시 팔달구 고등동 224번지 1호,경기도 수원시 팔달구 팔달로48번길 22 (고등동),200085.2619,418902.3952
경기도 수원시장안구 연무동 249번지 33  호,경기도 수원시 장안구 월드컵로 428-1 (연무동),202205.9461,421302.3609
경기도 수원시 영통구 영통동 1048-2 청명마을주공아파트,"경기도 수원시 영통구 청명북로 61, 영통매표소  (영통동)",206973.647,417343.6261
경기도 수원시권선구 권선동 1197번지 7   호,경기도 수원시 권선구 덕영대로1217번길 25-2 (권선동),202073.657,416457.5799
경기도 수원시 팔달구 고등동 113번지 24호,경기도 수원시 팔달구 고매로 15 (고등동),200353.4039,418794.4716
경기도 수원시장안구 영화동 422번지 43  호,경기도 수원시 장안구 장안로 29 (영화동),200412.9971,420627.3774
경기도 수원시 장안구 연무동 11번지 16호,경기도 수원시 장안구 창훈로60번길 21 (연무동),202569.1478,421806.4284
경기도 수원시 장안구 영화동 435번지 7호,경기도 수원시 장안구 팔달로 239 (영화동),200940.9577,420661.8856
경기도 수원시팔달구 매산로3가 94번지 1호,경기도 수원시 팔달구 효원로60번길 30 (매산로3가),200609.5705,418419.8281
경기도 수원시장안구 율전동 433번지 113 호,경기도 수원시 장안구 화산로233번길 46 (율전동),197282.5325,421749.6704
경기도 수원시 권선구 금곡동 1114 110호,"경기도 수원시 권선구 금곡로 213, 1층 110호 (금곡동)",195818.5252,419211.743
경기도 수원시 영통구 하동 1021 힐스테이트 광교,"경기도 수원시 영통구 센트럴파크로 6, 301동 127호 (하동, 힐스테이트 광교)",205655.7165,420360.0872
경기도 수원시 팔달구 고등동 36-9,"경기도 수원시 팔달구 고화로 50, 1층 (고등동)",200486.6132,419087.13
경기도 수원시 권선구 당수동 388-19,"경기도 수원시 권선구 당수로130번길 13, 상가동 105,106호 (당수동)",195044.7765,420254.7237
경기도 수원시 팔달구 매산로2가 8-10,"경기도 수원시 팔달구 향교로47번길 2, 1층 101호 (매산로2가)",200478.8106,418617.2552
경기도 수원시 영통구 이의동 1313-3,"경기도 수원시 영통구 센트럴파크로127번길 139-2, 1층 (이의동)",204788.9187,421385.2424
경기도 수원시 권선구 고색동 1097,"경기도 수원시 권선구 산업로 182, 대명프라자 제1층 제101호 일부, 102호 일부 (고색동)",198568.6225,415645.9752
경기도 수원시 장안구 영화동 357 가로판매대3,경기도 수원시 장안구 정조로 926-2 (영화동),201098.676,420905.0354
경기도 수원시 장안구 정자동 375-2,"경기도 수원시 장안구 정자로130번길 29, 1층 (정자동)",199217.4868,422212.9282
경기도 수원시 팔달구 지동 306-8,경기도 수원시 팔달구 창룡문로 10-1 (지동),201767.2149,419596.0845
경기도 수원시 팔달구 인계동 847-3,"경기도 수원시 팔달구 인계로 21, 상가2동 201호 (인계동)",201936.9919,418852.8148
경기도 수원시 권선구 구운동 901-2,"경기도 수원시 권선구 일월천로15번길 5-2, 1층 (구운동)",197498.6946,420200.3022
경기도 수원시 권선구 호매실동 454-2,"경기도 수원시 권선구 노림로15번길 26, 1층 (호매실동)",195757.4852,418373.2651
경기도 수원시 팔달구 인계동 1125 대원콤비프라자,"경기도 수원시 팔달구 효원로 288, 대원콤비프라자 1층 105호 (인계동)",202857.0345,417654.265
경기도 수원시 장안구 천천동 561-1 단독주택용지,"경기도 수원시 장안구 하률로12번길 10, 1층 (천천동)",197646.4278,422270.4205
경기도 수원시 장안구 연무동 244,"경기도 수원시 장안구 창훈로 30, 서광교파크스위첸단지 근린생활시설2 지하2층 14호 (연무동)",202774.6411,421362.7719
경기도 수원시 팔달구 인계동 1003-1,"경기도 수원시 팔달구 세지로 172-1, 1층 102호 (인계동)",201877.5303,418302.3925
경기도 수원시 권선구 권선동 1286-9 뉴빌,"경기도 수원시 권선구 세권로316번길 8, 뉴빌 1층 (권선동)",203290.4891,416614.0922
경기도 수원시 영통구 매탄동 845 이수빌,"경기도 수원시 영통구 산남로 34, 이수빌 1층 (매탄동)",204296.3766,418223.1384
경기도 수원시 권선구 권선동 1193-2 미래타운빌딩,"경기도 수원시 권선구 덕영대로 1205, 미래타운빌딩 1층 106호 (권선동)",201929.4909,416370.3756
경기도 수원시 팔달구 매산로2가 59-4,"경기도 수원시 팔달구 매산로 56, 1층 (매산로2가)",200582.5176,418529.6963
경기도 수원시 권선구 권선동 999,"경기도 수원시 권선구 세지로82번길 4, 1층 (권선동)",201530.4374,417452.524
경기도 수원시 영통구 매탄동 416 삼성전자,"경기도 수원시 영통구 삼성로 129, 삼성디지털시티 내 한가족헬스케어센터 I4동 1층 (매탄동)",204466.0461,417102.6621
경기도 수원시 영통구 영통동 1033-8,"경기도 수원시 영통구 청명북로 8, 1층 (영통동)",206975.0984,416708.0971
경기도 수원시 권선구 세류동 1147 미영아파트상가 108호,"경기도 수원시 권선구 정조로 432, 108호 (세류동, 미영아파트)",201212.5187,416252.3387
경기도 수원시 권선구 당수동 336-1,"경기도 수원시 권선구 당수로129번길 10, 근린생활시설동 101,102호 (당수동)",194904.779,420636.7696
경기도 수원시 장안구 영화동 400-33 상록수약국,"경기도 수원시 장안구 수성로262번길 34, 1층 (영화동)",200160.7067,420755.0771
경기도 수원시 장안구 정자동 945 수원 SK SKY VIEW,"경기도 수원시 장안구 이목로 24, 602동 107,108호 (정자동, 수원 SK SKY VIEW)",198599.3409,422793.724
경기도 수원시 장안구 정자동 877-4,"경기도 수원시 장안구 대평로 80, 정연메이저 106호,120호 (정자동)",199363.753,421508.1118
경기도 수원시 팔달구 우만동 140-4,"경기도 수원시 팔달구 중부대로 185, 1층 (우만동)",203171.6879,419487.5382
경기도 수원시 권선구 권선동 1194-5,"경기도 수원시 권선구 권광로27번길 49, 1층 (권선동)",202105.774,416570.5652
경기도 수원시 팔달구 우만동 600 월드메르디앙 아파트,"경기도 수원시 팔달구 권광로 373, 분산상가동 1층 102호 (우만동, 월드메르디앙 아파트)",202988.3579,419845.3429
경기도 수원시 팔달구 우만동 58-18,"경기도 수원시 팔달구 아주로47번길 15, 101,102호 (우만동)",203714.5441,419672.9066
경기도 수원시 장안구 조원동 859-3,"경기도 수원시 장안구 금당로39번길 6, 103호,111호 (조원동)",201358.7686,422353.6644
경기도 수원시 권선구 권선동 996-18,"경기도 수원시 권선구 세지로82번길 30, 1층 (권선동)",201659.7957,417399.108
경기도 수원시 영통구 원천동 309,"경기도 수원시 영통구 영흥숲길 50, 영흥숲푸르지오파크비엔근린생활시설 3동 103호 (원천동)",205857.0878,417928.3835
경기도 수원시 영통구 매탄동 1285 주공그린빌,"경기도 수원시 영통구 동탄원천로881번길 19, 상가동 102,103호 (매탄동, 주공그린빌)",203620.7065,416825.3828
경기도 수원시 영통구 이의동 1285-1,"경기도 수원시 영통구 창룡대로256번길 50, B1층 L3호 (이의동)",203359.99,421484.772
경기도 수원시 권선구 세류동 1154,"경기도 수원시 권선구 경수대로199번길 14-20, 1층 (세류동)",201415.5522,416019.4541
경기도 수원시 영통구 하동 989 원희캐슬 광교,"경기도 수원시 영통구 광교중앙로248번길 7-2, 원희캐슬 광교 C동 109호 (하동)",205823.5681,421057.602
경기도 수원시 영통구 이의동 1257-4 광교 파인렉스2,"경기도 수원시 영통구 대학3로4번길 2, 광교 파인렉스2 110,111호 (이의동)",203754.3352,421956.8455
경기도 수원시 권선구 세류동 1155-3,"경기도 수원시 권선구 경수대로191번길 12, 1층 (세류동)",201409.5501,415835.3702
경기도 수원시 권선구 세류동 1109-14,"경기도 수원시 권선구 세지로12번길 17-2, 1층 (세류동)",201347.6073,416797.588
경기도 수원시 팔달구 인계동 1124-1 수원인계자이오피스텔,"경기도 수원시 팔달구 권광로 174, 수원인계자이오피스텔 1층 103호 (인계동)",202854.6335,417881.1025
경기도 수원시 권선구 탑동 826-8 탑캐슬빌 2차 101호,"경기도 수원시 권선구 하탑로9번길 12, 1층 101호 (탑동, 탑캐슬빌 2차)",197512.5768,418547.8056
경기도 수원시 영통구 이의동 1338 광교센트럴푸르지오시티,"경기도 수원시 영통구 도청로 10, 광교센트럴푸르지오시티 지하1층 (이의동)",204888.8556,420476.3916
경기도 수원시 권선구 고색동 395-5,경기도 수원시 권선구 고산로27번길 49(고색동),198073.7041,416281.2657
경기도 수원시 영통구 이의동 1248-3,"경기도 수원시 영통구 대학4로 17, 에이스광교타워1 104호 일부호 (이의동)",204053.1599,422057.6497
경기도 수원시 권선구 권선동 1364 수원아이파크시티8단지,"경기도 수원시 권선구 동수원로177번길 40, 상가 109호,110호,111호 (권선동, 수원아이파크시티8단지)",202599.7944,416089.1258
경기도 수원시 권선구 평동 179 수원 SK V1 motors,"경기도 수원시 권선구 평동로79번길 45, 수원 SK V1 motors 1층 130호 (평동)",199286.6846,417546.1717
경기도 수원시 영통구 이의동 906-5 경기도중소기업지원센터,"경기도 수원시 영통구 광교로 107, 경기도중소기업지원센터 본관동 지하1층 일부 (이의동)",203754.265,421063.6469
